{"type":"FeatureCollection","features":[{"type":"Feature","geometry":{"type":"Polygon","coordinates":[[[8.67134,52.16822],[8.67857,52.15927],[8.67725,52.14906],[8.66941,52.13558],[8.67418,52.12795],[8.66961,52.12287],[8.69453,52.1041],[8.72131,52.09601],[8.72847,52.10195],[8.72336,52.10745],[8.73439,52.11286],[8.7443,52.12479],[8.741,52.13098],[8.75441,52.13594],[8.75465,52.1453],[8.74378,52.1505],[8.739,52.15738],[8.72704,52.16207],[8.70525,52.16448],[8.70557,52.17],[8.69311,52.16631],[8.67134,52.16822]]]},"properties":{"plz":"32049","name":"32049 Herford"}},{"type":"Feature","geometry":{"type":"Polygon","coordinates":[[[8.66941,52.13558],[8.63044,52.13005],[8.61598,52.13347],[8.60859,52.1224],[8.59528,52.12317],[8.5895,52.11529],[8.5773,52.11003],[8.56727,52.11286],[8.55915,52.10775],[8.56897,52.1062],[8.5729,52.09783],[8.56335,52.09154],[8.57069,52.07576],[8.58042,52.07555],[8.5847,52.08197],[8.6022,52.08924],[8.60788,52.07739],[8.62168,52.07572],[8.63372,52.09568],[8.64119,52.09611],[8.65851,52.10883],[8.66961,52.12287],[8.67418,52.12795],[8.66941,52.13558]]]},"properties":{"plz":"32051","name":"32051 Herford"}},{"type":"Feature","geometry":{"type":"Polygon","coordinates":[[[8.66961,52.12287],[8.65851,52.10883],[8.64119,52.09611],[8.63372,52.09568],[8.62168,52.07572],[8.61701,52.06734],[8.62957,52.06153],[8.65423,52.05918],[8.65368,52.06562],[8.66798,52.07963],[8.66681,52.08697],[8.70036,52.09471],[8.70475,52.09278],[8.716,52.09032],[8.72131,52.09601],[8.69453,52.1041],[8.66961,52.12287]]]},"properties":{"plz":"32052","name":"32052 Herford"}},{"type":"Feature","geometry":{"type":"Polygon","coordinates":[[[8.72131,52.09601],[8.716,52.09032],[8.70475,52.09278],[8.72011,52.08193],[8.74376,52.07673],[8.74832,52.07292],[8.76933,52.08227],[8.77379,52.09005],[8.76469,52.09824],[8.74897,52.10013],[8.74229,52.10736],[8.74817,52.1211],[8.73439,52.11286],[8.72336,52.10745],[8.72847,52.10195],[8.72131,52.09601]]]},"properties":{"plz":"32105","name":"32105 Bad Salzuflen"}},{"type":"Feature","geometry":{"type":"Polygon","coordinates":[[[8.65423,52.05918],[8.66335,52.05382],[8.66119,52.04551],[8.66095,52.04476],[8.68176,52.04495],[8.69299,52.03981],[8.73132,52.03834],[8.73266,52.02924],[8.7438,52.02103],[8.77684,52.02606],[8.7645,52.03978],[8.75965,52.0511],[8.73861,52.06857],[8.74832,52.07292],[8.74376,52.07673],[8.72011,52.08193],[8.70475,52.09278],[8.70036,52.09471],[8.66681,52.08697],[8.66798,52.07963],[8.65368,52.06562],[8.65423,52.05918]]]},"properties":{"plz":"32107","name":"32107 Bad Salzuflen"}},{"type":"Feature","geometry":{"type":"Polygon","coordinates":[[[8.74832,52.07292],[8.73861,52.06857],[8.75965,52.0511],[8.7645,52.03978],[8.77684,52.02606],[8.79961,52.025],[8.80664,52.03153],[8.82417,52.05263],[8.82357,52.04685],[8.83798,52.04404],[8.84684,52.0482],[8.85591,52.06121],[8.84068,52.06385],[8.82722,52.07432],[8.84764,52.08233],[8.84398,52.10301],[8.82103,52.11456],[8.80986,52.11644],[8.80836,52.12678],[8.79336,52.11602],[8.77781,52.12278],[8.76378,52.11407],[8.74817,52.1211],[8.74229,52.10736],[8.74897,52.10013],[8.76469,52.09824],[8.77379,52.09005],[8.76933,52.08227],[8.74832,52.07292]]]},"properties":{"plz":"32108","name":"32108 Bad Salzuflen"}},{"type":"Feature","geometry":{"type":"Polygon","coordinates":[[[8.67134,52.16822],[8.66531,52.17369],[8.64309,52.1737],[8.63693,52.18073],[8.6167,52.18099],[8.60581,52.17781],[8.60307,52.17127],[8.59107,52.17115],[8.60087,52.16411],[8.5941,52.14924],[8.60075,52.14126],[8.61307,52.13929],[8.61598,52.13347],[8.63044,52.13005],[8.66941,52.13558],[8.67725,52.14906],[8.67857,52.15927],[8.67134,52.16822]]]},"properties":{"plz":"32120","name":"32120 Hiddenhausen"}},{"type":"Feature","geometry":{"type":"Polygon","coordinates":[[[8.61598,52.13347],[8.61307,52.13929],[8.60075,52.14126],[8.5941,52.14924],[8.60087,52.16411],[8.59107,52.17115],[8.57848,52.16344],[8.56857,52.16424],[8.55601,52.17157],[8.538,52.16772],[8.53405,52.16338],[8.50679,52.16164],[8.49831,52.15769],[8.49807,52.14609],[8.5036,52.12297],[8.5149,52.11451],[8.51859,52.1109],[8.54778,52.10586],[8.55466,52.10152],[8.55915,52.10775],[8.56727,52.11286],[8.5773,52.11003],[8.5895,52.11529],[8.59528,52.12317],[8.60859,52.1224],[8.61598,52.13347]]]},"properties":{"plz":"32130","name":"32130 Enger"}},{"type":"Feature","geometry":{"type":"Polygon","coordinates":[[[8.538,52.16772],[8.53212,52.18614],[8.5171,52.18526],[8.50499,52.18014],[8.49391,52.16701],[8.46394,52.15341],[8.44987,52.15371],[8.4108,52.1366],[8.40376,52.12391],[8.4105,52.11497],[8.42814,52.10466],[8.44698,52.10642],[8.45628,52.11146],[8.46046,52.10442],[8.47155,52.10078],[8.48841,52.10939],[8.50073,52.10729],[8.5149,52.11451],[8.5036,52.12297],[8.49807,52.14609],[8.49831,52.15769],[8.50679,52.16164],[8.53405,52.16338],[8.538,52.16772]]]},"properties":{"plz":"32139","name":"32139 Spenge"}},{"type":"Feature","geometry":{"type":"Polygon","coordinates":[[[8.6167,52.18099],[8.62513,52.19306],[8.61846,52.20239],[8.63453,52.2191],[8.62515,52.22434],[8.60947,52.22448],[8.61573,52.23336],[8.60859,52.23766],[8.59386,52.23587],[8.58723,52.25552],[8.57119,52.2534],[8.55619,52.25825],[8.56307,52.24253],[8.54925,52.24006],[8.55212,52.23604],[8.53598,52.23498],[8.53513,52.23083],[8.50679,52.21814],[8.47507,52.19437],[8.49076,52.19277],[8.5171,52.18526],[8.53212,52.18614],[8.538,52.16772],[8.55601,52.17157],[8.56857,52.16424],[8.57848,52.16344],[8.59107,52.17115],[8.60307,52.17127],[8.60581,52.17781],[8.6167,52.18099]]]},"properties":{"plz":"32257","name":"32257 Bünde"}},{"type":"Feature","geometry":{"type":"Polygon","coordinates":[[[8.66531,52.17369],[8.66463,52.18123],[8.6775,52.19768],[8.66538,52.19703],[8.6637,52.2091],[8.67044,52.22164],[8.68422,52.23192],[8.67204,52.2399],[8.67093,52.24759],[8.64845,52.2507],[8.63515,52.26083],[8.61927,52.25672],[8.58723,52.25552],[8.59386,52.23587],[8.60859,52.23766],[8.61573,52.23336],[8.60947,52.22448],[8.62515,52.22434],[8.63453,52.2191],[8.61846,52.20239],[8.62513,52.19306],[8.6167,52.18099],[8.63693,52.18073],[8.64309,52.1737],[8.66531,52.17369]]]},"properties":{"plz":"32278","name":"32278 Kirchlengern"}},{"type":"Feature","geometry":{"type":"Polygon","coordinates":[[[8.55619,52.25825],[8.55401,52.26042],[8.52906,52.2639],[8.4895,52.265],[8.47189,52.25973],[8.46614,52.2677],[8.45878,52.25805],[8.46853,52.2476],[8.45966,52.24291],[8.46123,52.22903],[8.45276,52.22545],[8.44228,52.21371],[8.45485,52.19946],[8.47507,52.19437],[8.50679,52.21814],[8.53513,52.23083],[8.53598,52.23498],[8.55212,52.23604],[8.54925,52.24006],[8.56307,52.24253],[8.55619,52.25825]]]},"properties":{"plz":"32289","name":"32289 Rödinghausen"}},{"type":"Feature","geometry":{"type":"Polygon","coordinates":[[[8.56031,52.34339],[8.54729,52.33629],[8.54675,52.32484],[8.53277,52.32154],[8.5542,52.29367],[8.56263,52.29151],[8.55953,52.28153],[8.56774,52.26658],[8.61047,52.27661],[8.62619,52.28236],[8.63556,52.29115],[8.65613,52.29703],[8.67212,52.29761],[8.71122,52.28867],[8.72649,52.30367],[8.7237,52.31618],[8.70669,52.31578],[8.69822,52.33291],[8.68249,52.33533],[8.62261,52.33429],[8.56031,52.34339]]]},"properties":{"plz":"32312","name":"32312 Lübbecke"}},{"type":"Feature","geometry":{"type":"Polygon","coordinates":[[[8.55401,52.26042],[8.56774,52.26658],[8.55953,52.28153],[8.56263,52.29151],[8.5542,52.29367],[8.53277,52.32154],[8.54675,52.32484],[8.54729,52.33629],[8.56031,52.34339],[8.55908,52.35361],[8.52384,52.35569],[8.49893,52.35336],[8.48762,52.35983],[8.47366,52.36013],[8.45129,52.3668],[8.44188,52.36156],[8.44073,52.35639],[8.46085,52.31715],[8.47077,52.31552],[8.45865,52.29339],[8.46301,52.27596],[8.46614,52.2677],[8.47189,52.25973],[8.4895,52.265],[8.52906,52.2639],[8.55401,52.26042]]]},"properties":{"plz":"32361","name":"32361 Preußisch Oldendorf"}},{"type":"Feature","geometry":{"type":"Polygon","coordinates":[[[8.77506,52.20825],[8.78458,52.20638],[8.7802,52.1821],[8.78348,52.17859],[8.77021,52.16788],[8.78399,52.16523],[8.81507,52.16955],[8.82703,52.17314],[8.82576,52.17856],[8.80352,52.19114],[8.8092,52.19106],[8.80407,52.20803],[8.77506,52.20825]]]},"properties":{"plz":"32545","name":"32545 Bad Oeynhausen"}},{"type":"Feature","geometry":{"type":"Polygon","coordinates":[[[8.82832,52.22115],[8.80543,52.21543],[8.80407,52.20803],[8.8092,52.19106],[8.80352,52.19114],[8.82576,52.17856],[8.83911,52.17473],[8.84746,52.18036],[8.84499,52.18744],[8.86045,52.18645],[8.8635,52.19372],[8.8511,52.21146],[8.82832,52.22115]]]},"properties":{"plz":"32547","name":"32547 Bad Oeynhausen"}},{"type":"Feature","geometry":{"type":"Polygon","coordinates":[[[8.79208,52.2628],[8.7444,52.27649],[8.74728,52.27163],[8.73555,52.26706],[8.73881,52.26079],[8.72265,52.24647],[8.7207,52.24199],[8.73538,52.24267],[8.73878,52.23544],[8.75192,52.23287],[8.75635,52.2151],[8.77506,52.20825],[8.80407,52.20803],[8.80543,52.21543],[8.82832,52.22115],[8.841,52.23325],[8.85816,52.23531],[8.86159,52.24748],[8.87206,52.24947],[8.79208,52.2628]]]},"properties":{"plz":"32549","name":"32549 Bad Oeynhausen"}},{"type":"Feature","geometry":{"type":"Polygon","coordinates":[[[8.74378,52.1505],[8.76442,52.16132],[8.77021,52.16788],[8.78348,52.17859],[8.7802,52.1821],[8.78458,52.20638],[8.77506,52.20825],[8.75635,52.2151],[8.75192,52.23287],[8.73878,52.23544],[8.73538,52.24267],[8.7207,52.24199],[8.72265,52.24647],[8.71481,52.25175],[8.698,52.2488],[8.68422,52.23192],[8.67044,52.22164],[8.6637,52.2091],[8.66538,52.19703],[8.6775,52.19768],[8.66463,52.18123],[8.66531,52.17369],[8.67134,52.16822],[8.69311,52.16631],[8.70557,52.17],[8.70525,52.16448],[8.72704,52.16207],[8.739,52.15738],[8.74378,52.1505]]]},"properties":{"plz":"32584","name":"32584 Löhne"}},{"type":"Feature","geometry":{"type":"Polygon","coordinates":[[[8.73439,52.11286],[8.74817,52.1211],[8.76378,52.11407],[8.77781,52.12278],[8.79336,52.11602],[8.80836,52.12678],[8.80986,52.11644],[8.82103,52.11456],[8.84398,52.10301],[8.86408,52.10275],[8.88961,52.11081],[8.90202,52.12808],[8.89226,52.13507],[8.90297,52.14464],[8.89763,52.15551],[8.90943,52.16577],[8.90656,52.16931],[8.92672,52.18478],[8.90759,52.19065],[8.90003,52.1969],[8.87811,52.19254],[8.8635,52.19372],[8.86045,52.18645],[8.84499,52.18744],[8.84746,52.18036],[8.83911,52.17473],[8.82576,52.17856],[8.82703,52.17314],[8.81507,52.16955],[8.78399,52.16523],[8.77021,52.16788],[8.76442,52.16132],[8.74378,52.1505],[8.75465,52.1453],[8.75441,52.13594],[8.741,52.13098],[8.7443,52.12479],[8.73439,52.11286]]]},"properties":{"plz":"32602","name":"32602 Vlotho"}},{"type":"Feature","geometry":{"type":"Polygon","coordinates":[[[8.58723,52.25552],[8.61927,52.25672],[8.63515,52.26083],[8.64845,52.2507],[8.67093,52.24759],[8.67204,52.2399],[8.68422,52.23192],[8.698,52.2488],[8.71481,52.25175],[8.72265,52.24647],[8.73881,52.26079],[8.73555,52.26706],[8.74728,52.27163],[8.7444,52.27649],[8.71122,52.28867],[8.67212,52.29761],[8.65613,52.29703],[8.63556,52.29115],[8.62619,52.28236],[8.61047,52.27661],[8.56774,52.26658],[8.55401,52.26042],[8.55619,52.25825],[8.57119,52.2534],[8.58723,52.25552]]]},"properties":{"plz":"32609","name":"32609 Hüllhorst"}},{"type":"Feature","geometry":{"type":"Polygon","coordinates":[[[8.80664,52.03153],[8.8242,52.02412],[8.81954,52.01841],[8.83593,52.01428],[8.83663,52.00193],[8.84633,52.00279],[8.85761,51.9881],[8.86541,51.98771],[8.87279,51.98976],[8.87226,51.99818],[8.89611,51.99369],[8.9015,51.98686],[8.91879,51.98737],[8.93021,51.97832],[8.96173,51.98109],[8.97028,51.99208],[8.98437,51.99787],[8.9836,52.00402],[8.99713,52.01125],[8.99177,52.02249],[8.97896,52.02639],[8.98264,52.03275],[8.96517,52.04091],[8.97786,52.04667],[8.96783,52.06023],[8.95413,52.06176],[8.94849,52.07065],[8.94463,52.06497],[8.92197,52.06988],[8.90877,52.0688],[8.89589,52.07775],[8.90123,52.08621],[8.87903,52.0903],[8.87512,52.09909],[8.86408,52.10275],[8.84398,52.10301],[8.84764,52.08233],[8.82722,52.07432],[8.84068,52.06385],[8.85591,52.06121],[8.84684,52.0482],[8.83798,52.04404],[8.82357,52.04685],[8.82417,52.05263],[8.80664,52.03153]]]},"properties":{"plz":"32657","name":"32657 Lemgo"}},{"type":"Feature","geometry":{"type":"Polygon","coordinates":[[[8.98588,52.19464],[8.98707,52.18105],[8.97157,52.18539],[8.95958,52.18132],[8.92672,52.18478],[8.90656,52.16931],[8.90943,52.16577],[8.89763,52.15551],[8.90297,52.14464],[8.89226,52.13507],[8.90202,52.12808],[8.88961,52.11081],[8.86408,52.10275],[8.87512,52.09909],[8.87903,52.0903],[8.90123,52.08621],[8.89589,52.07775],[8.90877,52.0688],[8.92197,52.06988],[8.94463,52.06497],[8.94849,52.07065],[8.95413,52.06176],[8.96783,52.06023],[8.9783,52.06643],[8.99183,52.06416],[9.00574,52.07073],[9.01999,52.06565],[9.03288,52.07611],[9.02876,52.08272],[9.03484,52.08979],[9.02377,52.10355],[9.02741,52.11217],[9.01954,52.12547],[9.03776,52.13755],[9.03568,52.13981],[9.01804,52.13245],[9.01104,52.13586],[9.01758,52.1478],[9.01248,52.16125],[9.01693,52.17007],[9.01098,52.17781],[8.98588,52.19464]]]},"properties":{"plz":"32689","name":"32689 Kalletal"}},{"type":"Feature","geometry":{"type":"Polygon","coordinates":[[[8.99713,52.01125],[8.99825,52.00555],[9.03882,52.00036],[9.05554,52.00317],[9.07188,51.99791],[9.07698,52.00379],[9.0939,52.00605],[9.09845,52.01651],[9.10793,52.02016],[9.09636,52.02719],[9.08831,52.03873],[9.07504,52.03862],[9.0735,52.04894],[9.05649,52.04442],[9.0452,52.05433],[9.05579,52.05577],[9.04518,52.06496],[9.05242,52.06512],[9.04375,52.07376],[9.03288,52.07611],[9.01999,52.06565],[9.00574,52.07073],[8.99183,52.06416],[8.9783,52.06643],[8.96783,52.06023],[8.97786,52.04667],[8.96517,52.04091],[8.98264,52.03275],[8.97896,52.02639],[8.99177,52.02249],[8.99713,52.01125]]]},"properties":{"plz":"32694","name":"32694 Dörentrup"}},{"type":"Feature","geometry":{"type":"Polygon","coordinates":[[[8.84408,51.93168],[8.8629,51.92757],[8.8551,51.91605],[8.87002,51.92668],[8.87678,51.92108],[8.88994,51.92521],[8.89437,51.93443],[8.9068,51.94572],[8.86079,51.95752],[8.85662,51.9507],[8.86975,51.94815],[8.86161,51.9417],[8.85207,51.94194],[8.84408,51.93168]]]},"properties":{"plz":"32756","name":"32756 Detmold"}},{"type":"Feature","geometry":{"type":"Polygon","coordinates":[[[8.86541,51.98771],[8.87735,51.98344],[8.87481,51.97556],[8.84665,51.97514],[8.8474,51.96713],[8.8346,51.96632],[8.82533,51.97176],[8.80596,51.96739],[8.80438,51.95627],[8.78555,51.95714],[8.76419,51.92561],[8.76859,51.92776],[8.78891,51.92272],[8.79348,51.91516],[8.80423,51.92982],[8.81696,51.93035],[8.82269,51.93575],[8.84408,51.93168],[8.85207,51.94194],[8.86161,51.9417],[8.86975,51.94815],[8.85662,51.9507],[8.86079,51.95752],[8.9068,51.94572],[8.89437,51.93443],[8.91406,51.93416],[8.93522,51.94498],[8.96243,51.94804],[8.97479,51.95213],[8.98364,51.95849],[8.97387,51.96254],[8.97015,51.97568],[8.96173,51.98109],[8.93021,51.97832],[8.91879,51.98737],[8.9015,51.98686],[8.89611,51.99369],[8.87226,51.99818],[8.87279,51.98976],[8.86541,51.98771]]]},"properties":{"plz":"32758","name":"32758 Detmold"}},{"type":"Feature","geometry":{"type":"Polygon","coordinates":[[[8.84408,51.93168],[8.82269,51.93575],[8.81696,51.93035],[8.80423,51.92982],[8.79348,51.91516],[8.81073,51.9116],[8.82603,51.89274],[8.81742,51.88911],[8.82247,51.87955],[8.84666,51.86424],[8.85335,51.86804],[8.86876,51.85873],[8.87691,51.86219],[8.88758,51.86848],[8.88191,51.87547],[8.89275,51.88412],[8.89288,51.89314],[8.90525,51.89368],[8.92366,51.90308],[8.95158,51.89561],[8.95344,51.90424],[8.96767,51.91471],[8.98028,51.91429],[8.98496,51.92595],[8.98944,51.93379],[8.97555,51.93923],[8.97978,51.94572],[8.97479,51.95213],[8.96243,51.94804],[8.93522,51.94498],[8.91406,51.93416],[8.89437,51.93443],[8.88994,51.92521],[8.87678,51.92108],[8.87002,51.92668],[8.8551,51.91605],[8.8629,51.92757],[8.84408,51.93168]]]},"properties":{"plz":"32760","name":"32760 Detmold"}},{"type":"Feature","geometry":{"type":"Polygon","coordinates":[[[8.73266,52.02924],[8.7237,52.02528],[8.7305,52.01437],[8.71529,52.00033],[8.72797,51.99392],[8.72941,51.9836],[8.71877,51.98143],[8.71662,51.97363],[8.72698,51.97303],[8.71762,51.96481],[8.73125,51.95768],[8.71886,51.95374],[8.71313,51.9569],[8.71008,51.93557],[8.76068,51.92112],[8.76419,51.92561],[8.78555,51.95714],[8.80438,51.95627],[8.80596,51.96739],[8.82533,51.97176],[8.8346,51.96632],[8.8474,51.96713],[8.84665,51.97514],[8.87481,51.97556],[8.87735,51.98344],[8.86541,51.98771],[8.85761,51.9881],[8.84633,52.00279],[8.83663,52.00193],[8.83593,52.01428],[8.81954,52.01841],[8.8242,52.02412],[8.80664,52.03153],[8.79961,52.025],[8.77684,52.02606],[8.7438,52.02103],[8.73266,52.02924]]]},"properties":{"plz":"32791","name":"32791 Lage"}},{"type":"Feature","geometry":{"type":"Polygon","coordinates":[[[8.87691,51.86219],[8.88391,51.84835],[8.90216,51.85345],[8.91213,51.84952],[8.91029,51.83973],[8.91738,51.832],[8.90551,51.82845],[8.91648,51.81311],[8.92886,51.8078],[8.91857,51.80291],[8.9227,51.79731],[8.93961,51.79369],[8.94754,51.7999],[8.95935,51.78969],[8.95046,51.81603],[8.95286,51.83657],[8.97719,51.8361],[8.99636,51.84428],[9.00726,51.85709],[9.01617,51.85957],[9.01168,51.87737],[9.02503,51.88066],[9.02843,51.87648],[9.05088,51.87165],[9.06131,51.87878],[9.07631,51.88183],[9.09311,51.88969],[9.08532,51.89889],[9.08776,51.91057],[9.07238,51.90674],[9.02359,51.90399],[9.01784,51.89845],[9.01449,51.90593],[9.00074,51.91608],[9.00885,51.92233],[9.00132,51.92689],[8.98496,51.92595],[8.98028,51.91429],[8.96767,51.91471],[8.95344,51.90424],[8.95158,51.89561],[8.92366,51.90308],[8.90525,51.89368],[8.89288,51.89314],[8.89275,51.88412],[8.88191,51.87547],[8.88758,51.86848],[8.87691,51.86219]]]},"properties":{"plz":"32805","name":"32805 Horn-Bad Meinberg"}},{"type":"Feature","geometry":{"type":"Polygon","coordinates":[[[9.17435,51.98345],[9.14756,51.96798],[9.13285,51.96947],[9.12923,51.97421],[9.086,51.9703],[9.07397,51.97782],[9.06892,51.97282],[9.05184,51.97565],[9.03882,52.00036],[8.99825,52.00555],[8.99713,52.01125],[8.9836,52.00402],[8.98437,51.99787],[8.97028,51.99208],[8.96173,51.98109],[8.97015,51.97568],[8.97387,51.96254],[8.98364,51.95849],[8.97479,51.95213],[8.97978,51.94572],[8.97555,51.93923],[8.98944,51.93379],[8.98496,51.92595],[9.00132,51.92689],[9.00885,51.92233],[9.00074,51.91608],[9.01449,51.90593],[9.01784,51.89845],[9.02359,51.90399],[9.07238,51.90674],[9.08776,51.91057],[9.11882,51.91857],[9.12048,51.9389],[9.17567,51.954],[9.17622,51.94877],[9.1878,51.95126],[9.19418,51.96381],[9.18608,51.96586],[9.18783,51.97324],[9.17435,51.98345]]]},"properties":{"plz":"32825","name":"32825 Blomberg"}},{"type":"Feature","geometry":{"type":"Polygon","coordinates":[[[8.76419,51.92561],[8.76068,51.92112],[8.71008,51.93557],[8.6923,51.92745],[8.70171,51.92168],[8.68382,51.91564],[8.71996,51.89142],[8.74585,51.86068],[8.74532,51.86768],[8.8105,51.88247],[8.82247,51.87955],[8.81742,51.88911],[8.82603,51.89274],[8.81073,51.9116],[8.79348,51.91516],[8.78891,51.92272],[8.76859,51.92776],[8.76419,51.92561]]]},"properties":{"plz":"32832","name":"32832 Augustdorf"}},{"type":"Feature","geometry":{"type":"Polygon","coordinates":[[[8.76168,51.72045],[8.76088,51.72677],[8.77369,51.74543],[8.76422,51.75128],[8.777,51.75024],[8.78252,51.75855],[8.77054,51.75352],[8.76553,51.75905],[8.74221,51.7489],[8.74436,51.74487],[8.7249,51.7359],[8.72351,51.72665],[8.71961,51.71114],[8.74493,51.71422],[8.75149,51.72315],[8.76168,51.72045]]]},"properties":{"plz":"33102","name":"33102 Paderborn"}},{"type":"Feature","geometry":{"type":"Polygon","coordinates":[[[8.80422,51.76463],[8.79143,51.77324],[8.77385,51.76951],[8.75897,51.78978],[8.74142,51.79166],[8.73969,51.80084],[8.70132,51.79777],[8.67826,51.79261],[8.67609,51.78907],[8.69086,51.77551],[8.67999,51.77282],[8.69253,51.76206],[8.69209,51.75529],[8.70229,51.74149],[8.70411,51.73299],[8.71861,51.72491],[8.72351,51.72665],[8.7249,51.7359],[8.74436,51.74487],[8.74221,51.7489],[8.76553,51.75905],[8.77054,51.75352],[8.78252,51.75855],[8.80145,51.75392],[8.80422,51.76463]]]},"properties":{"plz":"33104","name":"33104 Paderborn"}},{"type":"Feature","geometry":{"type":"Polygon","coordinates":[[[8.71961,51.71114],[8.72351,51.72665],[8.71861,51.72491],[8.70411,51.73299],[8.70229,51.74149],[8.69209,51.75529],[8.69253,51.76206],[8.67999,51.77282],[8.69086,51.77551],[8.67609,51.78907],[8.64242,51.77656],[8.63629,51.75811],[8.64444,51.73441],[8.64246,51.72678],[8.66112,51.7096],[8.65626,51.70438],[8.66991,51.69925],[8.65584,51.68387],[8.66202,51.66999],[8.64868,51.66258],[8.65338,51.65423],[8.66885,51.65868],[8.67876,51.66798],[8.69452,51.66985],[8.70943,51.67578],[8.71576,51.68236],[8.74099,51.68268],[8.77056,51.67941],[8.75744,51.70158],[8.72783,51.70201],[8.71961,51.71114]]]},"properties":{"plz":"33106","name":"33106 Paderborn"}},{"type":"Feature","geometry":{"type":"Polygon","coordinates":[[[8.67826,51.79261],[8.66671,51.79888],[8.66054,51.79591],[8.62702,51.81967],[8.62003,51.81971],[8.60972,51.81111],[8.57104,51.81734],[8.57453,51.83842],[8.57071,51.8437],[8.53381,51.83141],[8.52993,51.8183],[8.5206,51.80917],[8.49853,51.79847],[8.46817,51.79193],[8.45998,51.78419],[8.41691,51.75882],[8.40943,51.74917],[8.40901,51.73311],[8.40315,51.7192],[8.42967,51.72004],[8.43304,51.71685],[8.46178,51.7241],[8.46807,51.72118],[8.49279,51.72416],[8.49171,51.71408],[8.50133,51.71019],[8.51775,51.71322],[8.52213,51.70953],[8.53563,51.71824],[8.53753,51.70944],[8.55139,51.71046],[8.55154,51.7042],[8.56201,51.70885],[8.58261,51.72506],[8.59847,51.72977],[8.64246,51.72678],[8.64444,51.73441],[8.63629,51.75811],[8.64242,51.77656],[8.67609,51.78907],[8.67826,51.79261]]]},"properties":{"plz":"33129","name":"33129 Delbrück"}},{"type":"Feature","geometry":{"type":"Polygon","coordinates":[[[8.73969,51.80084],[8.74576,51.80154],[8.72277,51.82011],[8.74027,51.82517],[8.75535,51.82579],[8.76569,51.83328],[8.76148,51.84796],[8.74834,51.85858],[8.71767,51.85457],[8.6899,51.85746],[8.66247,51.85199],[8.65277,51.86605],[8.63803,51.87814],[8.62821,51.86247],[8.60149,51.85385],[8.57071,51.8437],[8.57453,51.83842],[8.57104,51.81734],[8.60972,51.81111],[8.62003,51.81971],[8.62702,51.81967],[8.66054,51.79591],[8.66671,51.79888],[8.67826,51.79261],[8.70132,51.79777],[8.73969,51.80084]]]},"properties":{"plz":"33161","name":"33161 Hövelhof"}},{"type":"Feature","geometry":{"type":"Polygon","coordinates":[[[8.91648,51.81311],[8.89393,51.80434],[8.86127,51.79909],[8.79053,51.79805],[8.76843,51.81657],[8.76569,51.83328],[8.75535,51.82579],[8.74027,51.82517],[8.72277,51.82011],[8.74576,51.80154],[8.73969,51.80084],[8.74142,51.79166],[8.75897,51.78978],[8.77385,51.76951],[8.79143,51.77324],[8.80422,51.76463],[8.81351,51.75753],[8.83215,51.75583],[8.83514,51.75131],[8.87408,51.75656],[8.89588,51.76427],[8.90935,51.76861],[8.913,51.77483],[8.90188,51.77275],[8.88827,51.78734],[8.88845,51.79813],[8.90601,51.79703],[8.91857,51.80291],[8.92886,51.8078],[8.91648,51.81311]]]},"properties":{"plz":"33175","name":"33175 Bad Lippspringe"}},{"type":"Feature","geometry":{"type":"Polygon","coordinates":[[[8.82247,51.87955],[8.8105,51.88247],[8.74532,51.86768],[8.74585,51.86068],[8.74834,51.85858],[8.76148,51.84796],[8.76569,51.83328],[8.76843,51.81657],[8.79053,51.79805],[8.86127,51.79909],[8.89393,51.80434],[8.91648,51.81311],[8.90551,51.82845],[8.91738,51.832],[8.91029,51.83973],[8.91213,51.84952],[8.90216,51.85345],[8.88391,51.84835],[8.87691,51.86219],[8.86876,51.85873],[8.85335,51.86804],[8.84666,51.86424],[8.82247,51.87955]]]},"properties":{"plz":"33189","name":"33189 Schlangen"}},{"type":"Feature","geometry":{"type":"Polygon","coordinates":[[[8.39974,51.91986],[8.39214,51.93228],[8.37797,51.93206],[8.37196,51.92444],[8.36374,51.94022],[8.35003,51.93327],[8.36073,51.92733],[8.35524,51.91929],[8.36422,51.89346],[8.37883,51.90121],[8.39974,51.91986]]]},"properties":{"plz":"33330","name":"33330 Gütersloh"}},{"type":"Feature","geometry":{"type":"Polygon","coordinates":[[[8.36422,51.89346],[8.36192,51.88836],[8.37452,51.88703],[8.37827,51.87668],[8.38734,51.87386],[8.39526,51.87895],[8.42072,51.88616],[8.42318,51.89976],[8.41186,51.90669],[8.41988,51.91221],[8.41819,51.92047],[8.4147,51.91647],[8.39974,51.91986],[8.37883,51.90121],[8.36422,51.89346]]]},"properties":{"plz":"33332","name":"33332 Gütersloh"}},{"type":"Feature","geometry":{"type":"Polygon","coordinates":[[[8.43524,51.88339],[8.44545,51.88081],[8.4446,51.88857],[8.43524,51.88339]]]},"properties":{"plz":"33333","name":"33333 Bertelsmann"}},{"type":"Feature","geometry":{"type":"Polygon","coordinates":[[[8.39974,51.91986],[8.4147,51.91647],[8.41819,51.92047],[8.41409,51.92491],[8.44279,51.94259],[8.46972,51.9436],[8.46698,51.95039],[8.4524,51.94845],[8.42698,51.94471],[8.41966,51.95991],[8.39627,51.95747],[8.39225,51.96719],[8.37869,51.97014],[8.38069,51.97489],[8.34794,51.97569],[8.32596,51.96628],[8.31388,51.96776],[8.32882,51.95072],[8.33218,51.93824],[8.32145,51.92733],[8.30406,51.93538],[8.29849,51.93087],[8.284,51.92377],[8.31048,51.9135],[8.3169,51.90341],[8.31432,51.89596],[8.33048,51.89481],[8.32055,51.88712],[8.33185,51.87441],[8.34845,51.88225],[8.35788,51.88004],[8.36376,51.86387],[8.38114,51.85655],[8.39723,51.85696],[8.41741,51.86212],[8.44863,51.8762],[8.45585,51.88328],[8.4461,51.88988],[8.45374,51.89873],[8.44809,51.90354],[8.42318,51.89976],[8.42072,51.88616],[8.39526,51.87895],[8.38734,51.87386],[8.37827,51.87668],[8.37452,51.88703],[8.36192,51.88836],[8.36422,51.89346],[8.35524,51.91929],[8.36073,51.92733],[8.35003,51.93327],[8.36374,51.94022],[8.37196,51.92444],[8.37797,51.93206],[8.39214,51.93228],[8.39974,51.91986]],[[8.43524,51.88339],[8.4446,51.88857],[8.44545,51.88081],[8.43524,51.88339]]]},"properties":{"plz":"33334","name":"33334 Gütersloh"}},{"type":"Feature","geometry":{"type":"Polygon","coordinates":[[[8.42318,51.89976],[8.44809,51.90354],[8.45374,51.89873],[8.45647,51.90536],[8.50181,51.91062],[8.50599,51.91487],[8.49399,51.93984],[8.48254,51.94554],[8.46972,51.9436],[8.44279,51.94259],[8.41409,51.92491],[8.41819,51.92047],[8.41988,51.91221],[8.41186,51.90669],[8.42318,51.89976]]]},"properties":{"plz":"33335","name":"33335 Gütersloh"}},{"type":"Feature","geometry":{"type":"Polygon","coordinates":[[[8.31432,51.89596],[8.3079,51.88509],[8.29107,51.88128],[8.26022,51.86962],[8.26598,51.86614],[8.24648,51.86055],[8.24196,51.85503],[8.24823,51.84626],[8.21994,51.84302],[8.21469,51.83394],[8.20623,51.83639],[8.20009,51.82774],[8.20756,51.82335],[8.2346,51.82151],[8.2407,51.80908],[8.25752,51.80264],[8.25956,51.79061],[8.30305,51.79171],[8.31022,51.79982],[8.33397,51.80486],[8.34652,51.81542],[8.35566,51.81145],[8.36389,51.81479],[8.37721,51.81194],[8.37614,51.8245],[8.39537,51.83936],[8.4018,51.84104],[8.39723,51.85696],[8.38114,51.85655],[8.36376,51.86387],[8.35788,51.88004],[8.34845,51.88225],[8.33185,51.87441],[8.32055,51.88712],[8.33048,51.89481],[8.31432,51.89596]]]},"properties":{"plz":"33378","name":"33378 Rheda-Wiedenbrück"}},{"type":"Feature","geometry":{"type":"Polygon","coordinates":[[[8.53381,51.83141],[8.49245,51.83394],[8.48797,51.84546],[8.49627,51.84771],[8.48298,51.85157],[8.46545,51.86723],[8.44863,51.8762],[8.41741,51.86212],[8.39723,51.85696],[8.4018,51.84104],[8.39537,51.83936],[8.37614,51.8245],[8.37721,51.81194],[8.36389,51.81479],[8.35566,51.81145],[8.34652,51.81542],[8.33397,51.80486],[8.33943,51.79402],[8.354,51.7928],[8.36231,51.78294],[8.34624,51.77434],[8.35879,51.77078],[8.35778,51.76333],[8.36843,51.75575],[8.36143,51.74297],[8.35132,51.742],[8.34403,51.73059],[8.35007,51.72311],[8.36647,51.71816],[8.40315,51.7192],[8.40901,51.73311],[8.40943,51.74917],[8.41691,51.75882],[8.45998,51.78419],[8.46817,51.79193],[8.49853,51.79847],[8.5206,51.80917],[8.52993,51.8183],[8.53381,51.83141]]]},"properties":{"plz":"33397","name":"33397 Rietberg"}},{"type":"Feature","geometry":{"type":"Polygon","coordinates":[[[8.57071,51.8437],[8.60149,51.85385],[8.58944,51.86495],[8.59647,51.87773],[8.59108,51.88693],[8.57665,51.884],[8.56652,51.89933],[8.57849,51.90348],[8.5568,51.91893],[8.54503,51.9155],[8.54547,51.9257],[8.52728,51.92475],[8.50599,51.91487],[8.50181,51.91062],[8.45647,51.90536],[8.45374,51.89873],[8.4461,51.88988],[8.45585,51.88328],[8.44863,51.8762],[8.46545,51.86723],[8.48298,51.85157],[8.49627,51.84771],[8.48797,51.84546],[8.49245,51.83394],[8.53381,51.83141],[8.57071,51.8437]]]},"properties":{"plz":"33415","name":"33415 Verl"}},{"type":"Feature","geometry":{"type":"Polygon","coordinates":[[[8.31388,51.96776],[8.29029,51.994],[8.26625,52.00042],[8.25736,52.00846],[8.24403,52.01074],[8.1743,52.00448],[8.15208,52.01054],[8.13751,52.00899],[8.13517,52.00307],[8.12176,52.00464],[8.11097,52.00109],[8.10733,51.99291],[8.11439,51.97179],[8.10553,51.96869],[8.11294,51.95587],[8.1292,51.95178],[8.16943,51.92635],[8.17961,51.93987],[8.19507,51.94953],[8.20941,51.94862],[8.24068,51.93654],[8.26649,51.93824],[8.29849,51.93087],[8.30406,51.93538],[8.32145,51.92733],[8.33218,51.93824],[8.32882,51.95072],[8.31388,51.96776]]]},"properties":{"plz":"33428","name":"33428 Harsewinkel"}},{"type":"Feature","geometry":{"type":"Polygon","coordinates":[[[8.29849,51.93087],[8.26649,51.93824],[8.24068,51.93654],[8.20941,51.94862],[8.19507,51.94953],[8.17961,51.93987],[8.16943,51.92635],[8.17033,51.91123],[8.1504,51.89861],[8.15882,51.89101],[8.17255,51.8882],[8.17523,51.87461],[8.18133,51.87483],[8.18476,51.86234],[8.20071,51.86226],[8.21994,51.84302],[8.24823,51.84626],[8.24196,51.85503],[8.24648,51.86055],[8.26598,51.86614],[8.26022,51.86962],[8.29107,51.88128],[8.3079,51.88509],[8.31432,51.89596],[8.3169,51.90341],[8.31048,51.9135],[8.284,51.92377],[8.29849,51.93087]]]},"properties":{"plz":"33442","name":"33442 Herzebrock-Clarholz"}},{"type":"Feature","geometry":{"type":"Polygon","coordinates":[[[8.25956,51.79061],[8.25251,51.78609],[8.25272,51.77624],[8.25477,51.77322],[8.27935,51.76971],[8.28856,51.76339],[8.29323,51.75304],[8.30194,51.75413],[8.31098,51.74112],[8.31049,51.73413],[8.32009,51.7256],[8.33383,51.72778],[8.33994,51.72238],[8.35007,51.72311],[8.34403,51.73059],[8.35132,51.742],[8.36143,51.74297],[8.36843,51.75575],[8.35778,51.76333],[8.35879,51.77078],[8.34624,51.77434],[8.36231,51.78294],[8.354,51.7928],[8.33943,51.79402],[8.33397,51.80486],[8.31022,51.79982],[8.30305,51.79171],[8.25956,51.79061]]]},"properties":{"plz":"33449","name":"33449 Langenberg"}},{"type":"Feature","geometry":{"type":"Polygon","coordinates":[[[8.51926,52.01658],[8.53092,52.01238],[8.54248,52.01722],[8.53971,52.02352],[8.55195,52.02489],[8.54317,52.03347],[8.53716,52.03277],[8.52918,52.02651],[8.51926,52.01658]]]},"properties":{"plz":"33602","name":"33602 Bielefeld"}},{"type":"Feature","geometry":{"type":"Polygon","coordinates":[[[8.53092,52.01238],[8.54561,51.99609],[8.53518,51.99386],[8.5489,51.98868],[8.55307,52.00189],[8.57113,52.01196],[8.55859,52.01417],[8.56599,52.01885],[8.54248,52.01722],[8.53092,52.01238]]]},"properties":{"plz":"33604","name":"33604 Bielefeld"}},{"type":"Feature","geometry":{"type":"Polygon","coordinates":[[[8.5489,51.98868],[8.57429,51.98114],[8.57067,51.986],[8.58061,51.98905],[8.60158,51.98894],[8.60555,52.00188],[8.58449,52.01283],[8.57113,52.01196],[8.55307,52.00189],[8.5489,51.98868]]]},"properties":{"plz":"33605","name":"33605 Bielefeld"}},{"type":"Feature","geometry":{"type":"Polygon","coordinates":[[[8.54248,52.01722],[8.56599,52.01885],[8.55859,52.01417],[8.57113,52.01196],[8.58449,52.01283],[8.588,52.03086],[8.57461,52.0328],[8.55195,52.02489],[8.53971,52.02352],[8.54248,52.01722]]]},"properties":{"plz":"33607","name":"33607 Bielefeld"}},{"type":"Feature","geometry":{"type":"MultiPolygon","coordinates":[[[[8.55195,52.02489],[8.57461,52.0328],[8.588,52.03086],[8.58425,52.03625],[8.60289,52.03765],[8.61593,52.04204],[8.59864,52.06124],[8.58857,52.05423],[8.57024,52.05514],[8.55849,52.04384],[8.54674,52.04295],[8.54317,52.03347],[8.55195,52.02489]]],[[[8.56666,52.06295],[8.55452,52.05902],[8.56706,52.05805],[8.56666,52.06295]]]]},"properties":{"plz":"33609","name":"33609 Bielefeld"}},{"type":"Feature","geometry":{"type":"Polygon","coordinates":[[[8.54317,52.03347],[8.54674,52.04295],[8.55849,52.04384],[8.57024,52.05514],[8.56706,52.05805],[8.55452,52.05902],[8.56666,52.06295],[8.56704,52.06433],[8.55434,52.05912],[8.53484,52.05934],[8.53075,52.03792],[8.53716,52.03277],[8.54317,52.03347]]]},"properties":{"plz":"33611","name":"33611 Bielefeld"}},{"type":"Feature","geometry":{"type":"Polygon","coordinates":[[[8.53716,52.03277],[8.53075,52.03792],[8.53484,52.05934],[8.51379,52.05891],[8.50113,52.05877],[8.50496,52.05237],[8.50405,52.04462],[8.52918,52.02651],[8.53716,52.03277]]]},"properties":{"plz":"33613","name":"33613 Bielefeld"}},{"type":"Feature","geometry":{"type":"Polygon","coordinates":[[[8.52918,52.02651],[8.50405,52.04462],[8.50496,52.05237],[8.49699,52.05064],[8.50234,52.03732],[8.49072,52.04189],[8.48446,52.03421],[8.51146,52.02219],[8.51926,52.01658],[8.52918,52.02651]]]},"properties":{"plz":"33615","name":"33615 Bielefeld"}},{"type":"Feature","geometry":{"type":"Polygon","coordinates":[[[8.51926,52.01658],[8.51146,52.02219],[8.50617,52.02264],[8.4922,52.00886],[8.50248,52.00195],[8.51469,51.99576],[8.53518,51.99386],[8.54561,51.99609],[8.53092,52.01238],[8.51926,52.01658]]]},"properties":{"plz":"33617","name":"33617 Bielefeld"}},{"type":"Feature","geometry":{"type":"Polygon","coordinates":[[[8.51379,52.05891],[8.50491,52.06565],[8.49633,52.06442],[8.47937,52.06904],[8.46738,52.0682],[8.45742,52.07285],[8.44651,52.06742],[8.44684,52.05773],[8.45337,52.05011],[8.44111,52.04606],[8.43453,52.04933],[8.42095,52.04369],[8.43599,52.02742],[8.46008,52.0177],[8.48708,52.01443],[8.4922,52.00886],[8.50617,52.02264],[8.51146,52.02219],[8.48446,52.03421],[8.49072,52.04189],[8.50234,52.03732],[8.49699,52.05064],[8.50496,52.05237],[8.50113,52.05877],[8.51379,52.05891]]]},"properties":{"plz":"33619","name":"33619 Bielefeld"}},{"type":"Feature","geometry":{"type":"Polygon","coordinates":[[[8.46972,51.9436],[8.48254,51.94554],[8.47495,51.95823],[8.48541,51.96334],[8.49416,51.96066],[8.50065,51.96885],[8.528,51.97279],[8.54161,51.98683],[8.5489,51.98868],[8.53518,51.99386],[8.51469,51.99576],[8.50248,52.00195],[8.49766,51.99481],[8.48971,51.96801],[8.48526,51.96892],[8.4524,51.94845],[8.46698,51.95039],[8.46972,51.9436]]]},"properties":{"plz":"33647","name":"33647 Bielefeld"}},{"type":"Feature","geometry":{"type":"Polygon","coordinates":[[[8.4524,51.94845],[8.48526,51.96892],[8.48971,51.96801],[8.49766,51.99481],[8.50248,52.00195],[8.4922,52.00886],[8.48708,52.01443],[8.46008,52.0177],[8.44789,51.99447],[8.45094,51.98896],[8.43394,51.98547],[8.42698,51.97462],[8.39787,51.96976],[8.38069,51.97489],[8.37869,51.97014],[8.39225,51.96719],[8.39627,51.95747],[8.41966,51.95991],[8.42698,51.94471],[8.4524,51.94845]]]},"properties":{"plz":"33649","name":"33649 Bielefeld"}},{"type":"Feature","geometry":{"type":"Polygon","coordinates":[[[8.50599,51.91487],[8.52728,51.92475],[8.53754,51.93934],[8.54268,51.93545],[8.56254,51.94498],[8.5707,51.96807],[8.57766,51.97113],[8.58616,51.97846],[8.57429,51.98114],[8.5489,51.98868],[8.54161,51.98683],[8.528,51.97279],[8.50065,51.96885],[8.49416,51.96066],[8.48541,51.96334],[8.47495,51.95823],[8.48254,51.94554],[8.49399,51.93984],[8.50599,51.91487]]]},"properties":{"plz":"33659","name":"33659 Bielefeld"}},{"type":"Feature","geometry":{"type":"Polygon","coordinates":[[[8.5568,51.91893],[8.56203,51.92539],[8.58144,51.92014],[8.60698,51.92731],[8.62525,51.93587],[8.62949,51.94506],[8.64692,51.95876],[8.60415,51.96689],[8.60938,51.97162],[8.58305,51.96353],[8.57766,51.97113],[8.5707,51.96807],[8.56254,51.94498],[8.54268,51.93545],[8.53754,51.93934],[8.52728,51.92475],[8.54547,51.9257],[8.54503,51.9155],[8.5568,51.91893]]]},"properties":{"plz":"33689","name":"33689 Bielefeld"}},{"type":"Feature","geometry":{"type":"Polygon","coordinates":[[[8.57429,51.98114],[8.58616,51.97846],[8.57766,51.97113],[8.58305,51.96353],[8.60938,51.97162],[8.60415,51.96689],[8.64692,51.95876],[8.6435,51.97101],[8.65406,51.97759],[8.64884,51.99544],[8.66222,52.01249],[8.6523,52.01919],[8.6423,52.00442],[8.61742,52.00833],[8.60555,52.00188],[8.60158,51.98894],[8.58061,51.98905],[8.57067,51.986],[8.57429,51.98114]]]},"properties":{"plz":"33699","name":"33699 Bielefeld"}},{"type":"Feature","geometry":{"type":"Polygon","coordinates":[[[8.66119,52.04551],[8.63843,52.03959],[8.63709,52.03521],[8.61593,52.04204],[8.60289,52.03765],[8.58425,52.03625],[8.588,52.03086],[8.58449,52.01283],[8.60555,52.00188],[8.61742,52.00833],[8.6423,52.00442],[8.6523,52.01919],[8.64232,52.02763],[8.6552,52.03448],[8.66095,52.04476],[8.66119,52.04551]]]},"properties":{"plz":"33719","name":"33719 Bielefeld"}},{"type":"Feature","geometry":{"type":"Polygon","coordinates":[[[8.57069,52.07576],[8.56704,52.06433],[8.56666,52.06295],[8.56706,52.05805],[8.57024,52.05514],[8.58857,52.05423],[8.59864,52.06124],[8.61593,52.04204],[8.63709,52.03521],[8.63843,52.03959],[8.66119,52.04551],[8.66335,52.05382],[8.65423,52.05918],[8.62957,52.06153],[8.61701,52.06734],[8.62168,52.07572],[8.60788,52.07739],[8.6022,52.08924],[8.5847,52.08197],[8.58042,52.07555],[8.57069,52.07576]]]},"properties":{"plz":"33729","name":"33729 Bielefeld"}},{"type":"Feature","geometry":{"type":"Polygon","coordinates":[[[8.55915,52.10775],[8.55466,52.10152],[8.54778,52.10586],[8.51859,52.1109],[8.5149,52.11451],[8.50073,52.10729],[8.48841,52.10939],[8.47155,52.10078],[8.47251,52.09051],[8.45754,52.0848],[8.45742,52.07285],[8.46738,52.0682],[8.47937,52.06904],[8.49633,52.06442],[8.50491,52.06565],[8.51379,52.05891],[8.53484,52.05934],[8.55434,52.05912],[8.56704,52.06433],[8.57069,52.07576],[8.56335,52.09154],[8.5729,52.09783],[8.56897,52.1062],[8.55915,52.10775]]]},"properties":{"plz":"33739","name":"33739 Bielefeld"}},{"type":"Feature","geometry":{"type":"Polygon","coordinates":[[[8.68382,51.91564],[8.67455,51.91894],[8.63714,51.92122],[8.63358,51.92639],[8.61483,51.9303],[8.60698,51.92731],[8.58144,51.92014],[8.56203,51.92539],[8.5568,51.91893],[8.57849,51.90348],[8.56652,51.89933],[8.57665,51.884],[8.59108,51.88693],[8.59647,51.87773],[8.58944,51.86495],[8.60149,51.85385],[8.62821,51.86247],[8.63803,51.87814],[8.65277,51.86605],[8.66247,51.85199],[8.6899,51.85746],[8.71767,51.85457],[8.74834,51.85858],[8.74585,51.86068],[8.71996,51.89142],[8.68382,51.91564]]]},"properties":{"plz":"33758","name":"33758 Schloß Holte-Stukenbrock"}},{"type":"Feature","geometry":{"type":"Polygon","coordinates":[[[8.24403,52.01074],[8.24575,52.02272],[8.2516,52.02568],[8.26016,52.04488],[8.25637,52.05645],[8.24407,52.06907],[8.25114,52.07371],[8.24522,52.07955],[8.222,52.08588],[8.21567,52.08271],[8.20141,52.08753],[8.19432,52.07294],[8.17495,52.07292],[8.15182,52.07644],[8.13505,52.07288],[8.0964,52.05706],[8.0756,52.01071],[8.09121,51.99721],[8.11097,52.00109],[8.12176,52.00464],[8.13517,52.00307],[8.13751,52.00899],[8.15208,52.01054],[8.1743,52.00448],[8.24403,52.01074]]]},"properties":{"plz":"33775","name":"33775 Versmold"}},{"type":"Feature","geometry":{"type":"Polygon","coordinates":[[[8.29029,51.994],[8.30066,51.99873],[8.30904,52.00861],[8.34773,52.01801],[8.36747,52.01309],[8.3656,52.01956],[8.38254,52.02052],[8.40979,52.03627],[8.41861,52.04494],[8.39287,52.06615],[8.38725,52.07808],[8.36638,52.08422],[8.3676,52.08745],[8.35195,52.09493],[8.34128,52.08259],[8.33024,52.08522],[8.32912,52.07766],[8.31175,52.07963],[8.31388,52.07399],[8.29919,52.06231],[8.30081,52.05887],[8.28325,52.05583],[8.26016,52.04488],[8.2516,52.02568],[8.24575,52.02272],[8.24403,52.01074],[8.25736,52.00846],[8.26625,52.00042],[8.29029,51.994]]]},"properties":{"plz":"33790","name":"33790 Halle (Westfalen)"}},{"type":"Feature","geometry":{"type":"Polygon","coordinates":[[[8.38069,51.97489],[8.39787,51.96976],[8.42698,51.97462],[8.43394,51.98547],[8.45094,51.98896],[8.44789,51.99447],[8.46008,52.0177],[8.43599,52.02742],[8.42095,52.04369],[8.41861,52.04494],[8.40979,52.03627],[8.38254,52.02052],[8.3656,52.01956],[8.36747,52.01309],[8.34773,52.01801],[8.30904,52.00861],[8.30066,51.99873],[8.29029,51.994],[8.31388,51.96776],[8.32596,51.96628],[8.34794,51.97569],[8.38069,51.97489]]]},"properties":{"plz":"33803","name":"33803 Steinhagen"}},{"type":"Feature","geometry":{"type":"Polygon","coordinates":[[[8.71877,51.98143],[8.70425,51.97663],[8.69903,51.98239],[8.68906,51.98145],[8.66848,51.96784],[8.65807,51.97236],[8.6435,51.97101],[8.64692,51.95876],[8.62949,51.94506],[8.62525,51.93587],[8.60698,51.92731],[8.61483,51.9303],[8.63358,51.92639],[8.63714,51.92122],[8.67455,51.91894],[8.68382,51.91564],[8.70171,51.92168],[8.6923,51.92745],[8.71008,51.93557],[8.71313,51.9569],[8.71886,51.95374],[8.73125,51.95768],[8.71762,51.96481],[8.72698,51.97303],[8.71662,51.97363],[8.71877,51.98143]]]},"properties":{"plz":"33813","name":"33813 Oerlinghausen"}},{"type":"Feature","geometry":{"type":"Polygon","coordinates":[[[8.66095,52.04476],[8.6552,52.03448],[8.64232,52.02763],[8.6523,52.01919],[8.66222,52.01249],[8.64884,51.99544],[8.65406,51.97759],[8.6435,51.97101],[8.65807,51.97236],[8.66848,51.96784],[8.68906,51.98145],[8.69903,51.98239],[8.70425,51.97663],[8.71877,51.98143],[8.72941,51.9836],[8.72797,51.99392],[8.71529,52.00033],[8.7305,52.01437],[8.7237,52.02528],[8.73266,52.02924],[8.73132,52.03834],[8.69299,52.03981],[8.68176,52.04495],[8.66095,52.04476]]]},"properties":{"plz":"33818","name":"33818 Leopoldshöhe"}},{"type":"Feature","geometry":{"type":"Polygon","coordinates":[[[8.4105,52.11497],[8.38915,52.10795],[8.36889,52.11278],[8.36232,52.11036],[8.36666,52.10082],[8.35195,52.09493],[8.3676,52.08745],[8.36638,52.08422],[8.38725,52.07808],[8.39287,52.06615],[8.41861,52.04494],[8.42095,52.04369],[8.43453,52.04933],[8.44111,52.04606],[8.45337,52.05011],[8.44684,52.05773],[8.44651,52.06742],[8.45742,52.07285],[8.45754,52.0848],[8.47251,52.09051],[8.47155,52.10078],[8.46046,52.10442],[8.45628,52.11146],[8.44698,52.10642],[8.42814,52.10466],[8.4105,52.11497]]]},"properties":{"plz":"33824","name":"33824 Werther (Westf.)"}},{"type":"Feature","geometry":{"type":"Polygon","coordinates":[[[8.26016,52.04488],[8.28325,52.05583],[8.30081,52.05887],[8.29919,52.06231],[8.31388,52.07399],[8.31175,52.07963],[8.32912,52.07766],[8.33024,52.08522],[8.34128,52.08259],[8.35195,52.09493],[8.36666,52.10082],[8.36232,52.11036],[8.36889,52.11278],[8.36346,52.11839],[8.32392,52.12594],[8.31133,52.11825],[8.28547,52.12561],[8.28806,52.13493],[8.26791,52.13189],[8.2628,52.12043],[8.24642,52.12149],[8.23279,52.11016],[8.22002,52.10555],[8.20141,52.08753],[8.21567,52.08271],[8.222,52.08588],[8.24522,52.07955],[8.25114,52.07371],[8.24407,52.06907],[8.25637,52.05645],[8.26016,52.04488]]]},"properties":{"plz":"33829","name":"33829 Borgholzhausen"}},{"type":"Feature","geometry":{"type":"Polygon","coordinates":[[[8.11097,52.00109],[8.09121,51.99721],[8.0756,52.01071],[8.0964,52.05706],[8.0922,52.06382],[8.05786,52.06754],[8.05543,52.0642],[8.03654,52.06377],[8.03018,52.06761],[8.01891,52.05849],[7.99391,52.04964],[7.98103,52.03589],[8.00449,52.01449],[7.98666,52.008],[7.98329,51.99117],[7.99304,51.97944],[8.00794,51.97707],[8.00794,51.97117],[8.02379,51.9688],[8.02716,51.96176],[8.03429,51.96701],[8.0423,51.96143],[8.05904,51.95949],[8.06754,51.96315],[8.09204,51.96282],[8.10047,51.95683],[8.11294,51.95587],[8.10553,51.96869],[8.11439,51.97179],[8.10733,51.99291],[8.11097,52.00109]]]},"properties":{"plz":"48336","name":"48336 Sassenberg"}},{"type":"Feature","geometry":{"type":"Polygon","coordinates":[[[8.11294,51.95587],[8.10047,51.95683],[8.08569,51.94731],[8.077,51.93473],[8.07851,51.9181],[8.06933,51.91025],[8.08282,51.90412],[8.11295,51.90677],[8.1253,51.89329],[8.1504,51.89861],[8.17033,51.91123],[8.16943,51.92635],[8.1292,51.95178],[8.11294,51.95587]]]},"properties":{"plz":"48361","name":"48361 Beelen"}},{"type":"Feature","geometry":{"type":"Polygon","coordinates":[[[8.10995,52.17238],[8.11207,52.15307],[8.11682,52.14644],[8.11141,52.13701],[8.1288,52.12337],[8.13154,52.11708],[8.14761,52.1246],[8.16751,52.1333],[8.1681,52.13982],[8.1805,52.1526],[8.21346,52.14704],[8.20459,52.16352],[8.22037,52.17639],[8.23596,52.17968],[8.2281,52.18886],[8.23315,52.19369],[8.21982,52.1983],[8.22147,52.2029],[8.20741,52.20879],[8.20746,52.21437],[8.19313,52.20563],[8.18265,52.20962],[8.16787,52.20258],[8.15119,52.20744],[8.13086,52.20261],[8.13663,52.19848],[8.13416,52.18023],[8.10995,52.17238]]]},"properties":{"plz":"49176","name":"49176 Hilter"}},{"type":"Feature","geometry":{"type":"Polygon","coordinates":[[[8.13505,52.07288],[8.1301,52.09305],[8.13154,52.11708],[8.1288,52.12337],[8.11141,52.13701],[8.09698,52.13306],[8.09729,52.13731],[8.08259,52.13548],[8.06814,52.12946],[8.07216,52.12143],[8.0649,52.11957],[8.06184,52.12762],[8.03368,52.12237],[8.02088,52.11323],[8.01959,52.09971],[8.0291,52.09632],[8.04602,52.08298],[8.04987,52.07191],[8.05786,52.06754],[8.0922,52.06382],[8.0964,52.05706],[8.13505,52.07288]]]},"properties":{"plz":"49196","name":"49196 Bad Laer"}},{"type":"Feature","geometry":{"type":"Polygon","coordinates":[[[8.20141,52.08753],[8.22002,52.10555],[8.23279,52.11016],[8.24642,52.12149],[8.2628,52.12043],[8.26791,52.13189],[8.23739,52.14467],[8.23635,52.14792],[8.21346,52.14704],[8.1805,52.1526],[8.1681,52.13982],[8.16751,52.1333],[8.14761,52.1246],[8.1631,52.12276],[8.18038,52.11386],[8.18638,52.10581],[8.17805,52.08962],[8.18649,52.08323],[8.17495,52.07292],[8.19432,52.07294],[8.20141,52.08753]]]},"properties":{"plz":"49201","name":"49201 Dissen"}},{"type":"Feature","geometry":{"type":"Polygon","coordinates":[[[8.17495,52.07292],[8.18649,52.08323],[8.17805,52.08962],[8.18638,52.10581],[8.18038,52.11386],[8.1631,52.12276],[8.14761,52.1246],[8.13154,52.11708],[8.1301,52.09305],[8.13505,52.07288],[8.15182,52.07644],[8.17495,52.07292]]]},"properties":{"plz":"49214","name":"49214 Bad Rothenfelde"}},{"type":"Feature","geometry":{"type":"Polygon","coordinates":[[[8.26905,52.23313],[8.289,52.22915],[8.30734,52.20569],[8.31025,52.19184],[8.28916,52.17975],[8.28856,52.17463],[8.31363,52.17103],[8.31112,52.16218],[8.32149,52.16516],[8.3165,52.15741],[8.32518,52.1583],[8.3287,52.15007],[8.34125,52.15244],[8.36436,52.15046],[8.37149,52.15699],[8.37013,52.16935],[8.37655,52.18127],[8.38369,52.20912],[8.39576,52.20943],[8.39958,52.22858],[8.37488,52.22733],[8.35109,52.2317],[8.35075,52.24568],[8.33304,52.2561],[8.34152,52.2675],[8.3294,52.2768],[8.32186,52.27631],[8.3085,52.26538],[8.28088,52.25753],[8.26144,52.24045],[8.26905,52.23313]]]},"properties":{"plz":"49324","name":"49324 Melle"}},{"type":"Feature","geometry":{"type":"Polygon","coordinates":[[[8.44987,52.15371],[8.43495,52.16188],[8.40385,52.16346],[8.37655,52.18127],[8.37013,52.16935],[8.37149,52.15699],[8.36436,52.15046],[8.34125,52.15244],[8.3287,52.15007],[8.32518,52.1583],[8.3165,52.15741],[8.32149,52.16516],[8.31112,52.16218],[8.31363,52.17103],[8.28856,52.17463],[8.28916,52.17975],[8.31025,52.19184],[8.30734,52.20569],[8.289,52.22915],[8.26905,52.23313],[8.25436,52.23312],[8.24379,52.22245],[8.22437,52.22162],[8.22104,52.21407],[8.20746,52.21437],[8.20741,52.20879],[8.22147,52.2029],[8.21982,52.1983],[8.23315,52.19369],[8.2281,52.18886],[8.23596,52.17968],[8.22037,52.17639],[8.20459,52.16352],[8.21346,52.14704],[8.23635,52.14792],[8.23739,52.14467],[8.26791,52.13189],[8.28806,52.13493],[8.28547,52.12561],[8.31133,52.11825],[8.32392,52.12594],[8.36346,52.11839],[8.36889,52.11278],[8.38915,52.10795],[8.4105,52.11497],[8.40376,52.12391],[8.4108,52.1366],[8.44987,52.15371]]]},"properties":{"plz":"49326","name":"49326 Melle"}},{"type":"Feature","geometry":{"type":"Polygon","coordinates":[[[8.5171,52.18526],[8.49076,52.19277],[8.47507,52.19437],[8.45485,52.19946],[8.44228,52.21371],[8.45276,52.22545],[8.46123,52.22903],[8.45966,52.24291],[8.46853,52.2476],[8.45878,52.25805],[8.46614,52.2677],[8.46301,52.27596],[8.45237,52.27264],[8.42169,52.28008],[8.41104,52.27812],[8.39267,52.28313],[8.3795,52.28228],[8.373,52.27547],[8.35551,52.2732],[8.33473,52.27828],[8.3294,52.2768],[8.34152,52.2675],[8.33304,52.2561],[8.35075,52.24568],[8.35109,52.2317],[8.37488,52.22733],[8.39958,52.22858],[8.39576,52.20943],[8.38369,52.20912],[8.37655,52.18127],[8.40385,52.16346],[8.43495,52.16188],[8.44987,52.15371],[8.46394,52.15341],[8.49391,52.16701],[8.50499,52.18014],[8.5171,52.18526]]]},"properties":{"plz":"49328","name":"49328 Melle"}},{"type":"Feature","geometry":{"type":"Polygon","coordinates":[[[8.21994,51.84302],[8.20071,51.86226],[8.18476,51.86234],[8.18133,51.87483],[8.17523,51.87461],[8.17255,51.8882],[8.15882,51.89101],[8.1504,51.89861],[8.1253,51.89329],[8.13102,51.88226],[8.13164,51.86987],[8.14043,51.85199],[8.13124,51.85208],[8.09569,51.83919],[8.08366,51.83928],[8.0866,51.83089],[8.08214,51.81869],[8.09154,51.81422],[8.10214,51.8101],[8.11278,51.79867],[8.10774,51.78774],[8.11681,51.77136],[8.13756,51.76237],[8.15148,51.76351],[8.17954,51.7581],[8.19442,51.76586],[8.1964,51.76089],[8.20953,51.77348],[8.21919,51.7781],[8.25272,51.77624],[8.25251,51.78609],[8.25956,51.79061],[8.25752,51.80264],[8.2407,51.80908],[8.2346,51.82151],[8.20756,51.82335],[8.20009,51.82774],[8.20623,51.83639],[8.21469,51.83394],[8.21994,51.84302]]]},"properties":{"plz":"59302","name":"59302 Oelde"}}]}