{"type":"FeatureCollection","features":[{"type":"Feature","geometry":{"type":"Polygon","coordinates":[[[11.61548,52.119],[11.62302,52.11816],[11.63702,52.09937],[11.64209,52.09022],[11.64166,52.09775],[11.65985,52.10534],[11.64403,52.10839],[11.63626,52.11723],[11.63872,52.12471],[11.65406,52.13669],[11.63076,52.13975],[11.63028,52.13984],[11.61548,52.119]]]},"properties":{"plz":"39104","name":"39104 Magdeburg"}},{"type":"Feature","geometry":{"type":"Polygon","coordinates":[[[11.65406,52.13669],[11.66765,52.14896],[11.6566,52.15303],[11.63937,52.14788],[11.63252,52.14169],[11.63076,52.13975],[11.65406,52.13669]]]},"properties":{"plz":"39106","name":"39106 Magdeburg"}},{"type":"Feature","geometry":{"type":"Polygon","coordinates":[[[11.63028,52.13984],[11.59462,52.14174],[11.60102,52.13926],[11.60652,52.11966],[11.61548,52.119],[11.63028,52.13984]]]},"properties":{"plz":"39108","name":"39108 Magdeburg"}},{"type":"Feature","geometry":{"type":"Polygon","coordinates":[[[11.60102,52.13926],[11.56078,52.14198],[11.54664,52.14234],[11.53639,52.11519],[11.53624,52.11048],[11.55059,52.11052],[11.56078,52.10367],[11.57486,52.10386],[11.57498,52.11792],[11.58895,52.12111],[11.60652,52.11966],[11.60102,52.13926]]]},"properties":{"plz":"39110","name":"39110 Magdeburg"}},{"type":"Feature","geometry":{"type":"Polygon","coordinates":[[[11.61548,52.119],[11.60652,52.11966],[11.58895,52.12111],[11.59516,52.11311],[11.59379,52.10433],[11.60378,52.10352],[11.61684,52.10562],[11.62463,52.09831],[11.63702,52.09937],[11.62302,52.11816],[11.61548,52.119]]]},"properties":{"plz":"39112","name":"39112 Magdeburg"}},{"type":"Feature","geometry":{"type":"Polygon","coordinates":[[[11.65985,52.10534],[11.6774,52.09275],[11.67655,52.07517],[11.69459,52.04994],[11.70839,52.04181],[11.71328,52.04484],[11.72623,52.03947],[11.74158,52.04706],[11.7324,52.05414],[11.74605,52.05335],[11.74887,52.06243],[11.75605,52.06357],[11.74884,52.07266],[11.76199,52.07315],[11.76336,52.07656],[11.74988,52.07939],[11.73601,52.09049],[11.74828,52.09331],[11.74411,52.10085],[11.72625,52.09928],[11.71943,52.10231],[11.71478,52.11464],[11.72398,52.14213],[11.70605,52.14935],[11.70741,52.16574],[11.71206,52.16908],[11.69908,52.17414],[11.68737,52.18702],[11.67785,52.15797],[11.66765,52.14896],[11.65406,52.13669],[11.63872,52.12471],[11.63626,52.11723],[11.64403,52.10839],[11.65985,52.10534]]]},"properties":{"plz":"39114","name":"39114 Magdeburg"}},{"type":"Feature","geometry":{"type":"Polygon","coordinates":[[[11.53624,52.11048],[11.53007,52.10276],[11.5329,52.09381],[11.52565,52.08074],[11.51723,52.07866],[11.52098,52.06981],[11.52509,52.06511],[11.54608,52.0617],[11.55406,52.0694],[11.57236,52.0665],[11.57512,52.07616],[11.58939,52.08222],[11.60318,52.09338],[11.5845,52.09204],[11.59379,52.10433],[11.59516,52.11311],[11.58895,52.12111],[11.57498,52.11792],[11.57486,52.10386],[11.56078,52.10367],[11.55059,52.11052],[11.53624,52.11048]]]},"properties":{"plz":"39116","name":"39116 Magdeburg"}},{"type":"Feature","geometry":{"type":"Polygon","coordinates":[[[11.59379,52.10433],[11.5845,52.09204],[11.60318,52.09338],[11.58939,52.08222],[11.62047,52.07925],[11.62058,52.09839],[11.60378,52.10352],[11.59379,52.10433]]]},"properties":{"plz":"39118","name":"39118 Magdeburg"}},{"type":"Feature","geometry":{"type":"Polygon","coordinates":[[[11.63702,52.09937],[11.62463,52.09831],[11.61684,52.10562],[11.60378,52.10352],[11.62058,52.09839],[11.62047,52.07925],[11.58939,52.08222],[11.57512,52.07616],[11.57236,52.0665],[11.59991,52.06979],[11.60272,52.06754],[11.6229,52.06914],[11.63477,52.0661],[11.64391,52.07805],[11.64209,52.09022],[11.63702,52.09937]]]},"properties":{"plz":"39120","name":"39120 Magdeburg"}},{"type":"Feature","geometry":{"type":"Polygon","coordinates":[[[11.64209,52.09022],[11.64391,52.07805],[11.63477,52.0661],[11.6229,52.06914],[11.60272,52.06754],[11.60316,52.05999],[11.62293,52.05133],[11.62761,52.03667],[11.64025,52.03024],[11.64581,52.02384],[11.66168,52.03277],[11.66353,52.03768],[11.69459,52.04994],[11.67655,52.07517],[11.6774,52.09275],[11.65985,52.10534],[11.64166,52.09775],[11.64209,52.09022]]]},"properties":{"plz":"39122","name":"39122 Magdeburg"}},{"type":"Feature","geometry":{"type":"Polygon","coordinates":[[[11.6566,52.15303],[11.66034,52.15707],[11.65563,52.17001],[11.62845,52.16618],[11.6278,52.14411],[11.63252,52.14169],[11.63937,52.14788],[11.6566,52.15303]]]},"properties":{"plz":"39124","name":"39124 Magdeburg"}},{"type":"Feature","geometry":{"type":"Polygon","coordinates":[[[11.66765,52.14896],[11.67785,52.15797],[11.68737,52.18702],[11.70514,52.19949],[11.68955,52.19897],[11.68849,52.20679],[11.67446,52.22716],[11.63595,52.22835],[11.63878,52.22034],[11.64627,52.19992],[11.625,52.18706],[11.62845,52.16618],[11.65563,52.17001],[11.66034,52.15707],[11.6566,52.15303],[11.66765,52.14896]]]},"properties":{"plz":"39126","name":"39126 Magdeburg"}},{"type":"Feature","geometry":{"type":"Polygon","coordinates":[[[11.63076,52.13975],[11.63252,52.14169],[11.6278,52.14411],[11.62845,52.16618],[11.625,52.18706],[11.58367,52.17741],[11.59447,52.17212],[11.591,52.15735],[11.60284,52.15836],[11.60362,52.15168],[11.59258,52.15055],[11.59462,52.14174],[11.63028,52.13984],[11.63076,52.13975]]]},"properties":{"plz":"39128","name":"39128 Magdeburg"}},{"type":"Feature","geometry":{"type":"Polygon","coordinates":[[[11.59462,52.14174],[11.59258,52.15055],[11.60362,52.15168],[11.60284,52.15836],[11.591,52.15735],[11.59447,52.17212],[11.58367,52.17741],[11.56987,52.17369],[11.56106,52.16837],[11.55773,52.15444],[11.56078,52.14198],[11.60102,52.13926],[11.59462,52.14174]]]},"properties":{"plz":"39130","name":"39130 Magdeburg"}},{"type":"Feature","geometry":{"type":"Polygon","coordinates":[[[11.53639,52.11519],[11.51339,52.11757],[11.51124,52.12045],[11.47327,52.11245],[11.4635,52.13183],[11.44817,52.12777],[11.42937,52.129],[11.4192,52.12449],[11.40596,52.127],[11.41336,52.14136],[11.40941,52.14411],[11.36692,52.13891],[11.35794,52.13611],[11.33735,52.14175],[11.32522,52.15101],[11.31901,52.14667],[11.29706,52.15077],[11.27852,52.14403],[11.29259,52.13394],[11.29446,52.12359],[11.2776,52.12024],[11.26469,52.11169],[11.24948,52.11754],[11.24936,52.12433],[11.23369,52.12587],[11.21517,52.10738],[11.204,52.10434],[11.21805,52.0827],[11.23959,52.08636],[11.24774,52.08445],[11.27326,52.09057],[11.28455,52.08411],[11.28264,52.07964],[11.31864,52.07644],[11.33868,52.06822],[11.34448,52.06057],[11.33531,52.05625],[11.34548,52.04971],[11.36287,52.04833],[11.37022,52.05296],[11.36845,52.03873],[11.39432,52.03394],[11.39142,52.00953],[11.37883,52.00682],[11.40555,52.00737],[11.40954,52.00119],[11.4136,52.00469],[11.44677,52.00676],[11.45274,52.0187],[11.48788,52.02658],[11.48571,52.03156],[11.49999,52.06002],[11.4972,52.06516],[11.52098,52.06981],[11.51723,52.07866],[11.52565,52.08074],[11.5329,52.09381],[11.53007,52.10276],[11.53624,52.11048],[11.53639,52.11519]]]},"properties":{"plz":"39164","name":"39164 Wanzleben-Börde"}},{"type":"Feature","geometry":{"type":"Polygon","coordinates":[[[11.56078,52.14198],[11.55773,52.15444],[11.56106,52.16837],[11.56987,52.17369],[11.5537,52.16976],[11.54694,52.17526],[11.52967,52.15505],[11.50556,52.15912],[11.5045,52.16483],[11.49224,52.1663],[11.48486,52.17568],[11.46759,52.1757],[11.45259,52.17318],[11.42863,52.18021],[11.39167,52.18431],[11.38868,52.19106],[11.37231,52.1824],[11.37583,52.17333],[11.36413,52.16768],[11.36692,52.13891],[11.40941,52.14411],[11.41336,52.14136],[11.40596,52.127],[11.4192,52.12449],[11.42937,52.129],[11.44817,52.12777],[11.4635,52.13183],[11.47327,52.11245],[11.51124,52.12045],[11.51339,52.11757],[11.53639,52.11519],[11.54664,52.14234],[11.56078,52.14198]]]},"properties":{"plz":"39167","name":"39167 Eichenbarleben, Ochtmersleben, Irxleben, Schnarsleben, Wellen etc"}},{"type":"Feature","geometry":{"type":"Polygon","coordinates":[[[11.52098,52.06981],[11.4972,52.06516],[11.49999,52.06002],[11.48571,52.03156],[11.48788,52.02658],[11.45274,52.0187],[11.44677,52.00676],[11.44728,51.99138],[11.45894,51.985],[11.48158,51.98156],[11.49138,51.97253],[11.50577,51.96843],[11.51095,51.96255],[11.57372,51.96746],[11.59704,51.9658],[11.6032,51.96952],[11.60625,51.99163],[11.60152,52.0197],[11.62388,52.02148],[11.61995,52.02976],[11.64025,52.03024],[11.62761,52.03667],[11.62293,52.05133],[11.60316,52.05999],[11.60272,52.06754],[11.59991,52.06979],[11.57236,52.0665],[11.55406,52.0694],[11.54608,52.0617],[11.52509,52.06511],[11.52098,52.06981]]]},"properties":{"plz":"39171","name":"39171 Sülzetal"}},{"type":"Feature","geometry":{"type":"Polygon","coordinates":[[[11.74828,52.09331],[11.7514,52.09274],[11.76652,52.09301],[11.79116,52.09326],[11.79388,52.1016],[11.8081,52.11187],[11.8044,52.11874],[11.79481,52.11868],[11.78905,52.12935],[11.81223,52.13664],[11.79854,52.14094],[11.79913,52.14827],[11.81461,52.15431],[11.78202,52.16155],[11.78043,52.1706],[11.82679,52.17553],[11.83375,52.18641],[11.83268,52.19474],[11.80945,52.19868],[11.77809,52.21143],[11.74957,52.19146],[11.73285,52.19424],[11.71453,52.18376],[11.72152,52.17864],[11.71206,52.16908],[11.70741,52.16574],[11.70605,52.14935],[11.72398,52.14213],[11.71478,52.11464],[11.71943,52.10231],[11.72625,52.09928],[11.74411,52.10085],[11.74828,52.09331]]]},"properties":{"plz":"39175","name":"39175 Gerwisch, Biederitz, Menz, Körbelitz etc"}},{"type":"Feature","geometry":{"type":"Polygon","coordinates":[[[11.63878,52.22034],[11.61778,52.22429],[11.5822,52.21683],[11.59097,52.2327],[11.58022,52.23683],[11.56337,52.22138],[11.55052,52.2242],[11.5439,52.22007],[11.54871,52.20928],[11.53655,52.20374],[11.57651,52.20274],[11.57112,52.1906],[11.56268,52.18918],[11.54694,52.17526],[11.5537,52.16976],[11.56987,52.17369],[11.58367,52.17741],[11.625,52.18706],[11.64627,52.19992],[11.63878,52.22034]]]},"properties":{"plz":"39179","name":"39179 Barleben"}},{"type":"Feature","geometry":{"type":"MultiPolygon","coordinates":[[[[11.76336,52.07656],[11.76668,52.07916],[11.7514,52.09274],[11.74828,52.09331],[11.73601,52.09049],[11.74988,52.07939],[11.76336,52.07656]]],[[[11.75605,52.06357],[11.77078,52.05293],[11.7797,52.05905],[11.78888,52.05219],[11.7898,52.04174],[11.78458,52.03294],[11.79546,52.02941],[11.80412,52.0183],[11.82007,52.0107],[11.83998,52.00884],[11.84906,52.01314],[11.86183,52.02584],[11.83651,52.0375],[11.84785,52.04311],[11.85406,52.05187],[11.83378,52.06332],[11.81493,52.06258],[11.80089,52.06858],[11.77049,52.06709],[11.76199,52.07315],[11.74884,52.07266],[11.75605,52.06357]]]]},"properties":{"plz":"39217","name":"39217 Schönebeck (Elbe)"}},{"type":"Feature","geometry":{"type":"Polygon","coordinates":[[[11.69459,52.04994],[11.66353,52.03768],[11.66168,52.03277],[11.68588,52.01937],[11.67628,52.01596],[11.68108,52.00271],[11.67547,51.99755],[11.68646,51.99004],[11.72594,51.98285],[11.72652,51.97772],[11.76581,51.97572],[11.78687,51.98903],[11.77803,51.99167],[11.79465,52.00854],[11.7958,52.01649],[11.80412,52.0183],[11.79546,52.02941],[11.78458,52.03294],[11.7898,52.04174],[11.78888,52.05219],[11.7797,52.05905],[11.77078,52.05293],[11.75605,52.06357],[11.74887,52.06243],[11.74605,52.05335],[11.7324,52.05414],[11.74158,52.04706],[11.72623,52.03947],[11.71328,52.04484],[11.70839,52.04181],[11.69459,52.04994]]]},"properties":{"plz":"39218","name":"39218 Schönebeck"}},{"type":"Feature","geometry":{"type":"Polygon","coordinates":[[[11.64025,52.03024],[11.61995,52.02976],[11.62388,52.02148],[11.60152,52.0197],[11.60625,51.99163],[11.6032,51.96952],[11.60781,51.95732],[11.60852,51.95253],[11.63062,51.94638],[11.62281,51.93124],[11.64238,51.92942],[11.66135,51.92034],[11.67411,51.93185],[11.69747,51.93099],[11.699,51.91324],[11.70712,51.91367],[11.71745,51.92518],[11.7387,51.92556],[11.74421,51.93836],[11.79218,51.94314],[11.7989,51.9591],[11.78181,51.96392],[11.78313,51.95914],[11.76193,51.96524],[11.76581,51.97572],[11.72652,51.97772],[11.72594,51.98285],[11.68646,51.99004],[11.67547,51.99755],[11.68108,52.00271],[11.67628,52.01596],[11.68588,52.01937],[11.66168,52.03277],[11.64581,52.02384],[11.64025,52.03024]]]},"properties":{"plz":"39221","name":"39221 Welsleben, Biere, Eickendorf, Eggersdorf, Großmühlingen etc"}},{"type":"Feature","geometry":{"type":"Polygon","coordinates":[[[12.01927,51.87354],[12.01348,51.88816],[11.97453,51.90909],[11.96785,51.91469],[11.96615,51.92502],[11.94739,51.93293],[11.92913,51.94911],[11.91559,51.9547],[11.92516,51.94612],[11.89765,51.94466],[11.8993,51.93392],[11.88445,51.93064],[11.86475,51.93219],[11.86734,51.9241],[11.88441,51.91975],[11.84991,51.91338],[11.83772,51.92339],[11.81893,51.92393],[11.82005,51.93144],[11.81207,51.93787],[11.79218,51.94314],[11.74421,51.93836],[11.7387,51.92556],[11.71745,51.92518],[11.70712,51.91367],[11.70838,51.91085],[11.74277,51.90364],[11.73545,51.90177],[11.72863,51.88204],[11.71348,51.87162],[11.72517,51.86736],[11.76474,51.86342],[11.77037,51.87713],[11.78329,51.88102],[11.81411,51.87273],[11.8158,51.87706],[11.82804,51.87221],[11.82885,51.8593],[11.85748,51.83753],[11.86782,51.84935],[11.91179,51.86633],[11.9273,51.8747],[11.92204,51.87944],[11.93723,51.88134],[11.95897,51.86909],[11.97713,51.86909],[11.9816,51.87585],[11.99578,51.87186],[12.00414,51.87949],[12.01927,51.87354]]]},"properties":{"plz":"39240","name":"39240 Calbe, Rosenburg, Lödderitz etc"}},{"type":"Feature","geometry":{"type":"Polygon","coordinates":[[[11.76199,52.07315],[11.77049,52.06709],[11.80089,52.06858],[11.81493,52.06258],[11.83378,52.06332],[11.85406,52.05187],[11.87447,52.04656],[11.87646,52.03886],[11.89559,52.04431],[11.89208,52.04933],[11.90789,52.06271],[11.88688,52.05768],[11.89397,52.06797],[11.90488,52.06733],[11.90136,52.07752],[11.87479,52.07951],[11.87287,52.09],[11.84517,52.09611],[11.83864,52.08598],[11.8142,52.08956],[11.81587,52.09565],[11.80254,52.09246],[11.76652,52.09301],[11.7514,52.09274],[11.76668,52.07916],[11.76336,52.07656],[11.76199,52.07315]]]},"properties":{"plz":"39245","name":"39245 Gommern, Dannigkow"}},{"type":"Feature","geometry":{"type":"Polygon","coordinates":[[[11.80412,52.0183],[11.7958,52.01649],[11.79465,52.00854],[11.77803,51.99167],[11.78687,51.98903],[11.76581,51.97572],[11.76193,51.96524],[11.78313,51.95914],[11.78181,51.96392],[11.7989,51.9591],[11.79218,51.94314],[11.81207,51.93787],[11.82005,51.93144],[11.81893,51.92393],[11.83772,51.92339],[11.84991,51.91338],[11.88441,51.91975],[11.86734,51.9241],[11.86475,51.93219],[11.88445,51.93064],[11.8993,51.93392],[11.89765,51.94466],[11.92516,51.94612],[11.91559,51.9547],[11.88413,51.97943],[11.88427,51.98972],[11.89092,52.00119],[11.88937,52.01118],[11.87556,52.02559],[11.86183,52.02584],[11.84906,52.01314],[11.83998,52.00884],[11.82007,52.0107],[11.80412,52.0183]]]},"properties":{"plz":"39249","name":"39249 Barby"}},{"type":"Feature","geometry":{"type":"Polygon","coordinates":[[[12.256,52.13476],[12.24315,52.14094],[12.2317,52.15488],[12.23368,52.1628],[12.21586,52.17113],[12.19471,52.16729],[12.14208,52.1441],[12.08853,52.1472],[12.08979,52.15308],[12.05413,52.15928],[12.03295,52.166],[12.01927,52.15763],[12.01458,52.14077],[12.00234,52.12396],[11.95944,52.11916],[11.9585,52.09707],[11.92064,52.10458],[11.91224,52.10339],[11.90136,52.07752],[11.90488,52.06733],[11.89397,52.06797],[11.88688,52.05768],[11.90789,52.06271],[11.89208,52.04933],[11.89559,52.04431],[11.90751,52.04139],[11.92084,52.046],[11.93794,52.0434],[11.93954,52.03773],[11.95784,52.0376],[11.95764,52.03308],[11.98327,52.03276],[11.98652,52.02601],[11.99206,52.03325],[12.00622,52.03021],[12.0172,52.0388],[12.02075,52.05002],[12.0277,52.05187],[12.033,52.06461],[12.05817,52.05762],[12.07965,52.07614],[12.13383,52.06916],[12.18409,52.07859],[12.19446,52.08689],[12.2044,52.08868],[12.21248,52.10222],[12.23438,52.10305],[12.26778,52.10021],[12.27649,52.10393],[12.26503,52.13058],[12.256,52.13476]]]},"properties":{"plz":"39279","name":"39279 Loburg, Leitzkau"}},{"type":"Feature","geometry":{"type":"Polygon","coordinates":[[[11.72494,52.25049],[11.74353,52.24251],[11.74572,52.23011],[11.73238,52.22352],[11.76161,52.21829],[11.77602,52.21193],[11.78482,52.2195],[11.78211,52.22512],[11.79254,52.22583],[11.79932,52.23711],[11.81922,52.24255],[11.84011,52.23951],[11.84921,52.21861],[11.85827,52.21687],[11.86414,52.22329],[11.87756,52.21961],[11.90565,52.2265],[11.90132,52.2439],[11.91723,52.24336],[11.91357,52.25278],[11.92985,52.26547],[11.93003,52.27018],[11.97801,52.27587],[11.98684,52.28145],[11.98393,52.2923],[11.97605,52.29408],[11.97382,52.31373],[11.94444,52.31745],[11.94855,52.32755],[11.96794,52.3319],[11.94693,52.33349],[11.92632,52.35635],[11.91583,52.37217],[11.90913,52.36843],[11.90166,52.35479],[11.8514,52.33154],[11.837,52.32996],[11.80531,52.33462],[11.79379,52.32909],[11.79671,52.32346],[11.78663,52.32247],[11.76723,52.31125],[11.76504,52.29525],[11.75415,52.27759],[11.72494,52.25049]]]},"properties":{"plz":"39288","name":"39288 Burg"}},{"type":"Feature","geometry":{"type":"Polygon","coordinates":[[[12.24541,52.24986],[12.24351,52.24342],[12.22713,52.24736],[12.20553,52.2449],[12.19474,52.24882],[12.17535,52.26847],[12.16192,52.25499],[12.15611,52.25848],[12.13592,52.25564],[12.14066,52.24783],[12.1226,52.24078],[12.09195,52.24427],[12.0883,52.25377],[12.10574,52.26341],[12.11499,52.27528],[12.12198,52.27712],[12.09771,52.28131],[12.08338,52.27952],[12.07774,52.28836],[12.07726,52.30462],[12.06873,52.30656],[12.06355,52.29974],[12.04847,52.30426],[12.02345,52.30411],[12.0201,52.29546],[11.9932,52.29519],[11.98393,52.2923],[11.98684,52.28145],[11.97801,52.27587],[11.93003,52.27018],[11.92985,52.26547],[11.91357,52.25278],[11.91723,52.24336],[11.90132,52.2439],[11.90565,52.2265],[11.87756,52.21961],[11.86414,52.22329],[11.85827,52.21687],[11.84921,52.21861],[11.84011,52.23951],[11.81922,52.24255],[11.79932,52.23711],[11.79254,52.22583],[11.78211,52.22512],[11.78482,52.2195],[11.77602,52.21193],[11.76161,52.21829],[11.73238,52.22352],[11.74572,52.23011],[11.74353,52.24251],[11.72494,52.25049],[11.70106,52.24145],[11.70339,52.21887],[11.71452,52.2093],[11.70514,52.19949],[11.68737,52.18702],[11.69908,52.17414],[11.71206,52.16908],[11.72152,52.17864],[11.71453,52.18376],[11.73285,52.19424],[11.74957,52.19146],[11.77809,52.21143],[11.80945,52.19868],[11.83268,52.19474],[11.83375,52.18641],[11.82679,52.17553],[11.78043,52.1706],[11.78202,52.16155],[11.81461,52.15431],[11.79913,52.14827],[11.79854,52.14094],[11.81223,52.13664],[11.78905,52.12935],[11.79481,52.11868],[11.8044,52.11874],[11.8081,52.11187],[11.79388,52.1016],[11.79116,52.09326],[11.76652,52.09301],[11.80254,52.09246],[11.81587,52.09565],[11.8142,52.08956],[11.83864,52.08598],[11.84517,52.09611],[11.87287,52.09],[11.87479,52.07951],[11.90136,52.07752],[11.91224,52.10339],[11.92064,52.10458],[11.9585,52.09707],[11.95944,52.11916],[12.00234,52.12396],[12.01458,52.14077],[12.01927,52.15763],[12.03295,52.166],[12.05413,52.15928],[12.08979,52.15308],[12.08853,52.1472],[12.14208,52.1441],[12.19471,52.16729],[12.21586,52.17113],[12.22826,52.18624],[12.24733,52.18388],[12.24402,52.19125],[12.24178,52.1956],[12.2535,52.20567],[12.24522,52.20745],[12.26015,52.21647],[12.28219,52.21668],[12.29713,52.2289],[12.25796,52.24325],[12.26219,52.24678],[12.24541,52.24986]]]},"properties":{"plz":"39291","name":"39291 Möckern, Schermen, Nedlitz etc"}},{"type":"Feature","geometry":{"type":"Polygon","coordinates":[[[11.70514,52.19949],[11.71452,52.2093],[11.70339,52.21887],[11.70106,52.24145],[11.72494,52.25049],[11.75415,52.27759],[11.76504,52.29525],[11.76723,52.31125],[11.78663,52.32247],[11.79671,52.32346],[11.79379,52.32909],[11.80531,52.33462],[11.7957,52.3402],[11.79098,52.33606],[11.78328,52.34356],[11.79021,52.35229],[11.77947,52.35578],[11.77433,52.36468],[11.76109,52.37438],[11.77244,52.3923],[11.77189,52.40053],[11.75877,52.40244],[11.75591,52.38198],[11.7487,52.38143],[11.74477,52.36904],[11.72301,52.36982],[11.72178,52.37895],[11.70991,52.37642],[11.70819,52.37029],[11.69607,52.3722],[11.69007,52.36437],[11.66959,52.35021],[11.65225,52.3547],[11.62846,52.35222],[11.6126,52.38211],[11.59913,52.38547],[11.60787,52.39066],[11.57623,52.38427],[11.58326,52.37145],[11.56203,52.36716],[11.541,52.36289],[11.54811,52.35003],[11.53757,52.34791],[11.54114,52.34139],[11.53059,52.33926],[11.53411,52.33284],[11.52357,52.33069],[11.53063,52.31784],[11.5201,52.3157],[11.53007,52.29731],[11.5433,52.29208],[11.51784,52.29596],[11.51169,52.28824],[11.51394,52.26959],[11.50618,52.2427],[11.49445,52.24714],[11.46951,52.24514],[11.4585,52.23407],[11.45781,52.21487],[11.46759,52.1757],[11.48486,52.17568],[11.49224,52.1663],[11.5045,52.16483],[11.50556,52.15912],[11.52967,52.15505],[11.54694,52.17526],[11.56268,52.18918],[11.57112,52.1906],[11.57651,52.20274],[11.53655,52.20374],[11.54871,52.20928],[11.5439,52.22007],[11.55052,52.2242],[11.56337,52.22138],[11.58022,52.23683],[11.59097,52.2327],[11.5822,52.21683],[11.61778,52.22429],[11.63878,52.22034],[11.63595,52.22835],[11.67446,52.22716],[11.68849,52.20679],[11.68955,52.19897],[11.70514,52.19949]]]},"properties":{"plz":"39326","name":"39326 Wolmirstedt u.a."}},{"type":"Feature","geometry":{"type":"Polygon","coordinates":[[[11.36236,52.29838],[11.35439,52.29101],[11.35761,52.28553],[11.34648,52.28228],[11.37251,52.26316],[11.38182,52.26612],[11.39968,52.26527],[11.41213,52.25355],[11.4175,52.25812],[11.44542,52.25981],[11.45212,52.25203],[11.44634,52.26977],[11.46129,52.28122],[11.44543,52.28706],[11.45064,52.29541],[11.44577,52.30979],[11.4148,52.31999],[11.3947,52.31844],[11.38144,52.31282],[11.37454,52.32014],[11.36245,52.31204],[11.3697,52.29725],[11.36236,52.29838]]]},"properties":{"plz":"39340","name":"39340 Haldensleben"}},{"type":"Feature","geometry":{"type":"MultiPolygon","coordinates":[[[[11.0752,52.21986],[11.09357,52.2079],[11.10142,52.2114],[11.12598,52.20741],[11.12765,52.20002],[11.15556,52.20394],[11.16189,52.19406],[11.18421,52.19754],[11.21379,52.18533],[11.23559,52.18266],[11.23766,52.1722],[11.26134,52.15813],[11.28411,52.15884],[11.30344,52.17001],[11.33058,52.17192],[11.33059,52.16566],[11.36413,52.16768],[11.37583,52.17333],[11.37231,52.1824],[11.38868,52.19106],[11.39167,52.18431],[11.42863,52.18021],[11.45259,52.17318],[11.46759,52.1757],[11.45781,52.21487],[11.4585,52.23407],[11.46951,52.24514],[11.45212,52.25203],[11.44542,52.25981],[11.4175,52.25812],[11.41213,52.25355],[11.39968,52.26527],[11.38182,52.26612],[11.37251,52.26316],[11.34648,52.28228],[11.35761,52.28553],[11.35439,52.29101],[11.36236,52.29838],[11.3499,52.30065],[11.32713,52.31039],[11.31705,52.30555],[11.30439,52.30625],[11.29853,52.31493],[11.28506,52.30379],[11.24123,52.31089],[11.22916,52.30074],[11.2288,52.28908],[11.21682,52.28779],[11.21055,52.29736],[11.19435,52.29765],[11.17107,52.29414],[11.18107,52.28197],[11.18391,52.27032],[11.15651,52.26854],[11.14649,52.27407],[11.1344,52.27121],[11.09482,52.27974],[11.07647,52.27076],[11.07408,52.26185],[11.05624,52.25873],[11.05222,52.25356],[11.05871,52.24053],[11.07339,52.24326],[11.08621,52.22865],[11.0752,52.21986]]],[[[11.5201,52.3157],[11.5083,52.31844],[11.4776,52.31136],[11.47639,52.30208],[11.48877,52.30033],[11.48213,52.29503],[11.46753,52.29648],[11.46616,52.28212],[11.48812,52.27083],[11.50091,52.2674],[11.51394,52.26959],[11.51169,52.28824],[11.51784,52.29596],[11.5433,52.29208],[11.53007,52.29731],[11.5201,52.3157]]]]},"properties":{"plz":"39343","name":"39343 Erxleben, Nordgermersleben u.a."}},{"type":"Feature","geometry":{"type":"Polygon","coordinates":[[[11.51394,52.26959],[11.50091,52.2674],[11.48812,52.27083],[11.46616,52.28212],[11.46753,52.29648],[11.48213,52.29503],[11.48877,52.30033],[11.47639,52.30208],[11.4776,52.31136],[11.5083,52.31844],[11.5201,52.3157],[11.53063,52.31784],[11.52357,52.33069],[11.53411,52.33284],[11.53059,52.33926],[11.54114,52.34139],[11.53757,52.34791],[11.54811,52.35003],[11.541,52.36289],[11.56203,52.36716],[11.55859,52.37359],[11.56909,52.37571],[11.55861,52.39504],[11.50385,52.3841],[11.49584,52.39671],[11.44654,52.38672],[11.43053,52.38849],[11.40712,52.38704],[11.40252,52.3709],[11.37443,52.37562],[11.35387,52.36784],[11.3403,52.38124],[11.34106,52.37528],[11.32998,52.37189],[11.33471,52.36453],[11.31814,52.36683],[11.2861,52.36058],[11.28507,52.35191],[11.29237,52.34384],[11.304,52.34541],[11.30473,52.32764],[11.28617,52.33699],[11.26934,52.35176],[11.22767,52.35098],[11.22072,52.3574],[11.2059,52.35764],[11.199,52.36322],[11.17569,52.36436],[11.17443,52.35023],[11.18185,52.34514],[11.16035,52.34303],[11.16709,52.33051],[11.19227,52.32611],[11.19435,52.29765],[11.21055,52.29736],[11.21682,52.28779],[11.2288,52.28908],[11.22916,52.30074],[11.24123,52.31089],[11.28506,52.30379],[11.29853,52.31493],[11.30439,52.30625],[11.31705,52.30555],[11.32713,52.31039],[11.3499,52.30065],[11.36236,52.29838],[11.3697,52.29725],[11.36245,52.31204],[11.37454,52.32014],[11.38144,52.31282],[11.3947,52.31844],[11.4148,52.31999],[11.44577,52.30979],[11.45064,52.29541],[11.44543,52.28706],[11.46129,52.28122],[11.44634,52.26977],[11.45212,52.25203],[11.46951,52.24514],[11.49445,52.24714],[11.50618,52.2427],[11.51394,52.26959]]]},"properties":{"plz":"39345","name":"39345 Haldensleben, Flechtingen, Bülstringen u.a."}},{"type":"Feature","geometry":{"type":"Polygon","coordinates":[[[11.204,52.10434],[11.1906,52.10922],[11.18326,52.10686],[11.1791,52.10328],[11.1513,52.1031],[11.13789,52.09615],[11.15364,52.0826],[11.16891,52.0907],[11.18837,52.08676],[11.17091,52.08489],[11.16361,52.06918],[11.15381,52.07164],[11.12857,52.05801],[11.13123,52.03201],[11.16528,52.02594],[11.17184,52.02131],[11.1673,52.005],[11.15391,52.00089],[11.15236,51.98887],[11.18445,51.99328],[11.1951,51.98819],[11.20512,51.99354],[11.22658,51.98794],[11.24686,51.99103],[11.25715,51.97124],[11.26293,51.9716],[11.26485,51.95643],[11.29622,51.95832],[11.29849,51.97195],[11.34474,51.96234],[11.36549,51.9796],[11.37185,51.97431],[11.37945,51.98319],[11.39786,51.97949],[11.40954,52.00119],[11.40555,52.00737],[11.37883,52.00682],[11.39142,52.00953],[11.39432,52.03394],[11.36845,52.03873],[11.37022,52.05296],[11.36287,52.04833],[11.34548,52.04971],[11.33531,52.05625],[11.34448,52.06057],[11.33868,52.06822],[11.31864,52.07644],[11.28264,52.07964],[11.28455,52.08411],[11.27326,52.09057],[11.24774,52.08445],[11.23959,52.08636],[11.21805,52.0827],[11.204,52.10434]]]},"properties":{"plz":"39387","name":"39387 Oschersleben (Bode)"}},{"type":"Feature","geometry":{"type":"Polygon","coordinates":[[[11.45894,51.985],[11.44156,51.98097],[11.43107,51.96428],[11.41136,51.96551],[11.4174,51.95358],[11.39754,51.95061],[11.37292,51.93177],[11.39683,51.91773],[11.39609,51.91054],[11.42584,51.90304],[11.42422,51.90877],[11.43751,51.91026],[11.44534,51.92083],[11.46653,51.91292],[11.50534,51.91285],[11.52674,51.91351],[11.53103,51.9098],[11.56018,51.9065],[11.56949,51.91083],[11.56639,51.92717],[11.57033,51.93244],[11.58021,51.93029],[11.59021,51.94431],[11.60781,51.95732],[11.6032,51.96952],[11.59704,51.9658],[11.57372,51.96746],[11.51095,51.96255],[11.50577,51.96843],[11.49138,51.97253],[11.48158,51.98156],[11.45894,51.985]]]},"properties":{"plz":"39435","name":"39435 Egeln, Unseburg, Wolmirsleben, Borne etc"}},{"type":"Feature","geometry":{"type":"Polygon","coordinates":[[[11.6606,51.82626],[11.65844,51.83259],[11.66752,51.84069],[11.66937,51.85436],[11.68957,51.85479],[11.69265,51.85959],[11.67421,51.86837],[11.68735,51.87374],[11.69173,51.86962],[11.71348,51.87162],[11.72863,51.88204],[11.73545,51.90177],[11.74277,51.90364],[11.70838,51.91085],[11.70712,51.91367],[11.699,51.91324],[11.69747,51.93099],[11.67411,51.93185],[11.66135,51.92034],[11.64238,51.92942],[11.62281,51.93124],[11.63062,51.94638],[11.60852,51.95253],[11.60781,51.95732],[11.59021,51.94431],[11.58021,51.93029],[11.57033,51.93244],[11.56639,51.92717],[11.56949,51.91083],[11.56018,51.9065],[11.57381,51.89661],[11.57747,51.88681],[11.59815,51.88847],[11.59526,51.88245],[11.6026,51.87586],[11.62093,51.87976],[11.62172,51.87098],[11.63283,51.87134],[11.63297,51.86221],[11.61615,51.85903],[11.6078,51.853],[11.6202,51.83835],[11.66049,51.82624],[11.6606,51.82626]]]},"properties":{"plz":"39443","name":"39443 Staßfurt"}},{"type":"Feature","geometry":{"type":"Polygon","coordinates":[[[11.59526,51.88245],[11.59815,51.88847],[11.57747,51.88681],[11.57381,51.89661],[11.56018,51.9065],[11.53103,51.9098],[11.52674,51.91351],[11.50534,51.91285],[11.50738,51.90523],[11.49525,51.90296],[11.49901,51.89093],[11.51543,51.88021],[11.53244,51.87976],[11.53212,51.87099],[11.54385,51.86374],[11.54235,51.8719],[11.56784,51.87108],[11.55104,51.8865],[11.56055,51.88764],[11.56796,51.87122],[11.58002,51.87168],[11.58086,51.87897],[11.59526,51.88245]]]},"properties":{"plz":"39446","name":"39446 Staßfurt"}},{"type":"Feature","geometry":{"type":"Polygon","coordinates":[[[11.3403,51.90062],[11.35413,51.89178],[11.35284,51.8864],[11.36478,51.88361],[11.3826,51.90333],[11.39301,51.90455],[11.39609,51.91054],[11.39683,51.91773],[11.37292,51.93177],[11.39754,51.95061],[11.4174,51.95358],[11.41136,51.96551],[11.43107,51.96428],[11.44156,51.98097],[11.45894,51.985],[11.44728,51.99138],[11.44677,52.00676],[11.4136,52.00469],[11.40954,52.00119],[11.39786,51.97949],[11.37945,51.98319],[11.37185,51.97431],[11.36549,51.9796],[11.34474,51.96234],[11.35295,51.96092],[11.35185,51.95046],[11.36519,51.94872],[11.36087,51.94049],[11.37305,51.94056],[11.37334,51.93349],[11.34629,51.91351],[11.34107,51.90179],[11.3403,51.90062]]]},"properties":{"plz":"39448","name":"39448 Börde-Hakel"}}]}