{"type":"FeatureCollection","features":[{"type":"Feature","geometry":{"type":"Polygon","coordinates":[[[8.19266,53.14355],[8.19028,53.14115],[8.19234,53.12897],[8.20865,53.12803],[8.2186,53.14021],[8.24311,53.14143],[8.24311,53.14549],[8.23218,53.14217],[8.21499,53.14534],[8.20873,53.14121],[8.19266,53.14355]]]},"properties":{"plz":"26122","name":"26122 Oldenburg"}},{"type":"Feature","geometry":{"type":"Polygon","coordinates":[[[8.21499,53.14534],[8.23218,53.14217],[8.24311,53.14549],[8.25159,53.16014],[8.24041,53.15864],[8.22403,53.16393],[8.21499,53.14534]]]},"properties":{"plz":"26123","name":"26123 Oldenburg (Oldenburg)"}},{"type":"Feature","geometry":{"type":"Polygon","coordinates":[[[8.24311,53.14143],[8.27256,53.15249],[8.28781,53.15378],[8.30681,53.15019],[8.31221,53.15278],[8.2966,53.16665],[8.29294,53.17911],[8.30388,53.18899],[8.29793,53.19188],[8.27541,53.19143],[8.24801,53.19499],[8.24398,53.20043],[8.22691,53.19812],[8.22182,53.20164],[8.20148,53.20118],[8.20173,53.2006],[8.20126,53.18016],[8.22616,53.17601],[8.22403,53.16393],[8.24041,53.15864],[8.25159,53.16014],[8.24311,53.14549],[8.24311,53.14143]]]},"properties":{"plz":"26125","name":"26125 Oldenburg (Oldenburg)"}},{"type":"Feature","geometry":{"type":"Polygon","coordinates":[[[8.20074,53.11413],[8.20308,53.10215],[8.19425,53.09199],[8.22433,53.08321],[8.24386,53.08843],[8.23792,53.12369],[8.21383,53.12662],[8.20074,53.11413]]]},"properties":{"plz":"26133","name":"26133 Oldenburg (Oldenburg)"}},{"type":"Feature","geometry":{"type":"Polygon","coordinates":[[[8.20865,53.12803],[8.21383,53.12662],[8.23792,53.12369],[8.24386,53.08843],[8.28014,53.09714],[8.27958,53.10729],[8.28681,53.11894],[8.28794,53.13044],[8.30082,53.13982],[8.30681,53.15019],[8.28781,53.15378],[8.27256,53.15249],[8.24311,53.14143],[8.2186,53.14021],[8.20865,53.12803]]]},"properties":{"plz":"26135","name":"26135 Oldenburg (Oldenburg)"}},{"type":"Feature","geometry":{"type":"Polygon","coordinates":[[[8.22433,53.08321],[8.22669,53.07502],[8.21107,53.07308],[8.22184,53.05752],[8.23953,53.04927],[8.24106,53.04113],[8.2537,53.03854],[8.25111,53.01963],[8.25807,53.01481],[8.27213,53.01158],[8.30357,52.99918],[8.31607,52.9922],[8.36653,52.99802],[8.36537,53.00083],[8.40867,53.00567],[8.4245,53.02292],[8.43027,53.02333],[8.42516,53.0342],[8.43366,53.05572],[8.41791,53.05952],[8.40047,53.05646],[8.36548,53.06123],[8.35612,53.06672],[8.33957,53.06658],[8.29064,53.09691],[8.27958,53.10729],[8.28014,53.09714],[8.24386,53.08843],[8.22433,53.08321]]]},"properties":{"plz":"26209","name":"26209 Hatten"}},{"type":"Feature","geometry":{"type":"Polygon","coordinates":[[[8.42457,53.3699],[8.42794,53.35052],[8.43758,53.35061],[8.45095,53.33834],[8.42901,53.3338],[8.43253,53.32048],[8.42045,53.30604],[8.43968,53.29386],[8.46111,53.2936],[8.46066,53.2898],[8.4792,53.28505],[8.48985,53.28599],[8.49274,53.29846],[8.48917,53.32531],[8.50131,53.35263],[8.49324,53.36677],[8.48417,53.37219],[8.47532,53.37662],[8.42457,53.3699]]]},"properties":{"plz":"26919","name":"26919 Brake"}},{"type":"Feature","geometry":{"type":"Polygon","coordinates":[[[8.31221,53.15278],[8.32387,53.16242],[8.3375,53.16131],[8.3523,53.16567],[8.37116,53.16507],[8.38884,53.17066],[8.41456,53.18097],[8.42253,53.19108],[8.43816,53.19334],[8.45083,53.20145],[8.44735,53.21337],[8.46573,53.22732],[8.48741,53.21979],[8.4853,53.22715],[8.48071,53.24629],[8.48985,53.28599],[8.4792,53.28505],[8.46066,53.2898],[8.46111,53.2936],[8.43968,53.29386],[8.44272,53.2915],[8.43783,53.27136],[8.42672,53.26037],[8.38815,53.26811],[8.36551,53.26302],[8.35416,53.26452],[8.33406,53.25171],[8.29576,53.23866],[8.31573,53.19696],[8.30388,53.18899],[8.29294,53.17911],[8.2966,53.16665],[8.31221,53.15278]]]},"properties":{"plz":"26931","name":"26931 Elsfleth"}},{"type":"Feature","geometry":{"type":"Polygon","coordinates":[[[8.29576,53.23866],[8.33406,53.25171],[8.35416,53.26452],[8.36551,53.26302],[8.38815,53.26811],[8.42672,53.26037],[8.43783,53.27136],[8.44272,53.2915],[8.43968,53.29386],[8.42045,53.30604],[8.43253,53.32048],[8.42901,53.3338],[8.45095,53.33834],[8.43758,53.35061],[8.42794,53.35052],[8.42457,53.3699],[8.42469,53.37733],[8.40567,53.39215],[8.36403,53.38489],[8.37265,53.37889],[8.35403,53.37367],[8.35481,53.3701],[8.31287,53.36349],[8.30994,53.35575],[8.29189,53.35354],[8.31947,53.30116],[8.27522,53.30103],[8.26992,53.28448],[8.2739,53.26082],[8.29184,53.24472],[8.27897,53.23377],[8.29576,53.23866]]]},"properties":{"plz":"26939","name":"26939 Ovelgönne"}},{"type":"Feature","geometry":{"type":"Polygon","coordinates":[[[8.68437,52.95793],[8.68535,52.94163],[8.6929,52.9298],[8.6939,52.92018],[8.67278,52.91337],[8.65353,52.91795],[8.64462,52.91187],[8.65656,52.90151],[8.64685,52.90457],[8.643,52.89493],[8.64677,52.88658],[8.63959,52.88412],[8.63761,52.87122],[8.64343,52.86153],[8.62771,52.85875],[8.63378,52.85101],[8.64324,52.84064],[8.65787,52.83345],[8.66673,52.81885],[8.68336,52.81305],[8.69988,52.81247],[8.70315,52.79518],[8.69517,52.78809],[8.70389,52.78312],[8.72187,52.78227],[8.72149,52.77326],[8.73763,52.77527],[8.74028,52.79016],[8.7518,52.78225],[8.77183,52.78048],[8.7764,52.77555],[8.798,52.77699],[8.80298,52.77195],[8.80484,52.77473],[8.80424,52.79881],[8.81477,52.79955],[8.81485,52.8159],[8.82637,52.82769],[8.84747,52.83111],[8.84963,52.81911],[8.8681,52.82386],[8.88482,52.81591],[8.88153,52.82209],[8.88837,52.82921],[8.88232,52.83757],[8.86139,52.83537],[8.84467,52.85129],[8.84455,52.85785],[8.83249,52.85843],[8.8248,52.8511],[8.80631,52.8509],[8.80747,52.87297],[8.80045,52.87137],[8.7905,52.89247],[8.78463,52.89001],[8.7748,52.9078],[8.75055,52.91452],[8.74308,52.93064],[8.73252,52.9215],[8.73267,52.93456],[8.7385,52.93565],[8.72603,52.94324],[8.69113,52.94773],[8.69306,52.96085],[8.68437,52.95793]]]},"properties":{"plz":"27211","name":"27211 Bassum"}},{"type":"Feature","geometry":{"type":"Polygon","coordinates":[[[8.63378,52.85101],[8.53933,52.83113],[8.54678,52.81925],[8.5309,52.8164],[8.51686,52.80533],[8.47865,52.79789],[8.45902,52.80087],[8.44993,52.78632],[8.46377,52.77371],[8.45778,52.76267],[8.46838,52.75387],[8.5022,52.76041],[8.50586,52.77243],[8.5006,52.77562],[8.52063,52.7788],[8.52497,52.77443],[8.54474,52.77048],[8.55436,52.75682],[8.57262,52.75939],[8.58964,52.74478],[8.60728,52.73866],[8.62503,52.73888],[8.6345,52.72835],[8.62971,52.73652],[8.63133,52.74912],[8.64689,52.75647],[8.64083,52.76786],[8.6434,52.77301],[8.66583,52.7732],[8.68229,52.77716],[8.69517,52.78809],[8.70315,52.79518],[8.69988,52.81247],[8.68336,52.81305],[8.66673,52.81885],[8.65787,52.83345],[8.64324,52.84064],[8.63378,52.85101]]]},"properties":{"plz":"27239","name":"27239 Twistringen"}},{"type":"Feature","geometry":{"type":"Polygon","coordinates":[[[8.68437,52.95793],[8.68833,52.96677],[8.65747,52.96907],[8.65433,52.96296],[8.64301,52.97727],[8.6432,52.98713],[8.6568,53.00152],[8.65709,53.00919],[8.64344,53.00547],[8.62745,53.01879],[8.61191,53.0082],[8.62171,53.00009],[8.59154,52.98678],[8.56302,52.97702],[8.56402,52.97147],[8.54991,52.98503],[8.54676,52.97571],[8.53503,52.96832],[8.5151,52.96577],[8.50825,52.95767],[8.48507,52.94155],[8.47551,52.94051],[8.46378,52.92723],[8.46929,52.92658],[8.4568,52.90782],[8.47703,52.9061],[8.47413,52.89814],[8.48202,52.88653],[8.46679,52.8823],[8.47518,52.86911],[8.47219,52.85967],[8.47779,52.85672],[8.48043,52.84385],[8.47318,52.82275],[8.46976,52.8041],[8.45902,52.80087],[8.47865,52.79789],[8.51686,52.80533],[8.5309,52.8164],[8.54678,52.81925],[8.53933,52.83113],[8.63378,52.85101],[8.62771,52.85875],[8.64343,52.86153],[8.63761,52.87122],[8.63959,52.88412],[8.64677,52.88658],[8.643,52.89493],[8.64685,52.90457],[8.65656,52.90151],[8.64462,52.91187],[8.65353,52.91795],[8.67278,52.91337],[8.6939,52.92018],[8.6929,52.9298],[8.68535,52.94163],[8.68437,52.95793]]]},"properties":{"plz":"27243","name":"27243 Harpstedt, Groß Ippener, Colnrade u.a."}},{"type":"Feature","geometry":{"type":"Polygon","coordinates":[[[8.73497,52.71926],[8.73665,52.73197],[8.74443,52.73331],[8.74202,52.74283],[8.74809,52.75303],[8.73424,52.75151],[8.72907,52.75871],[8.71556,52.76489],[8.69553,52.76219],[8.68229,52.77716],[8.66583,52.7732],[8.6434,52.77301],[8.64083,52.76786],[8.64689,52.75647],[8.63133,52.74912],[8.62971,52.73652],[8.6345,52.72835],[8.64034,52.71803],[8.64814,52.71993],[8.66335,52.68851],[8.66617,52.6842],[8.68016,52.68431],[8.67515,52.69049],[8.69968,52.69635],[8.70914,52.70218],[8.70623,52.70687],[8.71692,52.71974],[8.73497,52.71926]]]},"properties":{"plz":"27248","name":"27248 Ehrenburg"}},{"type":"Feature","geometry":{"type":"Polygon","coordinates":[[[8.69517,52.78809],[8.68229,52.77716],[8.69553,52.76219],[8.71556,52.76489],[8.72907,52.75871],[8.73424,52.75151],[8.74809,52.75303],[8.74202,52.74283],[8.74443,52.73331],[8.73665,52.73197],[8.73497,52.71926],[8.74864,52.71],[8.77825,52.71454],[8.77949,52.72628],[8.78585,52.73402],[8.80161,52.74044],[8.80575,52.75945],[8.80298,52.77195],[8.798,52.77699],[8.7764,52.77555],[8.77183,52.78048],[8.7518,52.78225],[8.74028,52.79016],[8.73763,52.77527],[8.72149,52.77326],[8.72187,52.78227],[8.70389,52.78312],[8.69517,52.78809]]]},"properties":{"plz":"27251","name":"27251 Neuenkirchen, Scholen"}},{"type":"Feature","geometry":{"type":"Polygon","coordinates":[[[8.80298,52.77195],[8.80575,52.75945],[8.80161,52.74044],[8.78585,52.73402],[8.77949,52.72628],[8.77825,52.71454],[8.78716,52.72659],[8.81374,52.72599],[8.81429,52.7196],[8.85385,52.71517],[8.86408,52.71931],[8.85673,52.72569],[8.87144,52.72322],[8.87761,52.73113],[8.89117,52.7323],[8.89103,52.74831],[8.88585,52.75682],[8.87048,52.75885],[8.85429,52.75577],[8.8445,52.76123],[8.82515,52.76144],[8.82078,52.75424],[8.80772,52.76259],[8.81109,52.77522],[8.80484,52.77473],[8.80298,52.77195]]]},"properties":{"plz":"27252","name":"27252 Schwaförden"}},{"type":"Feature","geometry":{"type":"Polygon","coordinates":[[[8.80484,52.77473],[8.81109,52.77522],[8.80772,52.76259],[8.82078,52.75424],[8.82515,52.76144],[8.8445,52.76123],[8.85429,52.75577],[8.87048,52.75885],[8.88585,52.75682],[8.89072,52.77673],[8.89743,52.77846],[8.8949,52.79288],[8.88729,52.80248],[8.88482,52.81591],[8.8681,52.82386],[8.84963,52.81911],[8.84747,52.83111],[8.82637,52.82769],[8.81485,52.8159],[8.81477,52.79955],[8.80424,52.79881],[8.80484,52.77473]]]},"properties":{"plz":"27257","name":"27257 Affinghausen und Sudwalde"}},{"type":"Feature","geometry":{"type":"Polygon","coordinates":[[[9.15998,52.96248],[9.17801,52.95608],[9.1889,52.93906],[9.17274,52.93349],[9.17308,52.92749],[9.18634,52.92024],[9.16678,52.90967],[9.17706,52.88659],[9.19257,52.88364],[9.20303,52.87725],[9.20963,52.88222],[9.21225,52.89847],[9.22507,52.90623],[9.23897,52.89992],[9.2406,52.90723],[9.25108,52.90333],[9.25857,52.90728],[9.2789,52.90165],[9.30579,52.90954],[9.29703,52.92214],[9.29925,52.9327],[9.28147,52.94268],[9.29535,52.94803],[9.29108,52.95328],[9.29276,52.96851],[9.31459,52.97422],[9.29279,52.975],[9.27661,52.97975],[9.27836,52.99782],[9.26783,53.00385],[9.2553,53.0018],[9.2585,52.98571],[9.24205,52.98011],[9.2477,52.96709],[9.21844,52.97035],[9.20069,52.96457],[9.19467,52.96728],[9.16417,52.96841],[9.15998,52.96248]]]},"properties":{"plz":"27283","name":"27283 Verden"}},{"type":"Feature","geometry":{"type":"Polygon","coordinates":[[[9.26783,53.00385],[9.27803,53.02188],[9.29087,53.02788],[9.2441,53.03569],[9.23117,53.03601],[9.22219,53.04257],[9.20464,53.03573],[9.20221,53.02425],[9.18589,53.01582],[9.1739,53.0261],[9.16892,53.03593],[9.15945,53.03346],[9.16578,53.02874],[9.15016,53.02612],[9.13403,53.03157],[9.12707,53.03177],[9.10444,53.01839],[9.10272,52.99314],[9.11083,52.99163],[9.10252,52.9811],[9.08844,52.98001],[9.07581,52.98508],[9.07743,52.97489],[9.09664,52.96363],[9.10459,52.96592],[9.1101,52.97345],[9.12681,52.96416],[9.14595,52.96558],[9.15998,52.96248],[9.16417,52.96841],[9.19467,52.96728],[9.20069,52.96457],[9.21844,52.97035],[9.2477,52.96709],[9.24205,52.98011],[9.2585,52.98571],[9.2553,53.0018],[9.26783,53.00385]]]},"properties":{"plz":"27299","name":"27299 Langwedel"}},{"type":"Feature","geometry":{"type":"Polygon","coordinates":[[[8.88482,52.81591],[8.88729,52.80248],[8.8949,52.79288],[8.89743,52.77846],[8.89072,52.77673],[8.88585,52.75682],[8.89103,52.74831],[8.90405,52.74837],[8.90347,52.7535],[8.94105,52.76537],[8.95079,52.76244],[8.95167,52.7689],[8.97381,52.76994],[8.97779,52.78656],[8.99124,52.78999],[8.9951,52.79713],[9.0201,52.8004],[9.01421,52.80529],[9.04201,52.80632],[9.03646,52.80003],[9.05456,52.79565],[9.06008,52.79662],[9.06609,52.80733],[9.05476,52.80775],[9.03666,52.81662],[9.05782,52.81719],[9.06029,52.82686],[9.03429,52.83867],[9.03602,52.84161],[9.01484,52.84905],[8.98845,52.86709],[8.982,52.8887],[8.96557,52.8978],[8.95208,52.88893],[8.93654,52.87329],[8.91727,52.87078],[8.87761,52.85566],[8.8871,52.84216],[8.88232,52.83757],[8.88837,52.82921],[8.88153,52.82209],[8.88482,52.81591]]]},"properties":{"plz":"27305","name":"27305 Bruchhausen-Vilsen, Süstedt"}},{"type":"Feature","geometry":{"type":"Polygon","coordinates":[[[9.16678,52.90967],[9.16031,52.90675],[9.16759,52.89982],[9.16074,52.89397],[9.11619,52.89686],[9.1077,52.8812],[9.10264,52.88016],[9.10962,52.86305],[9.09714,52.8615],[9.09399,52.85353],[9.07897,52.84922],[9.05713,52.85283],[9.05379,52.84174],[9.03602,52.84161],[9.03429,52.83867],[9.06029,52.82686],[9.05782,52.81719],[9.03666,52.81662],[9.05476,52.80775],[9.06609,52.80733],[9.06008,52.79662],[9.06368,52.79337],[9.09705,52.80578],[9.10724,52.80082],[9.1203,52.80315],[9.13141,52.79715],[9.14735,52.79868],[9.15731,52.79416],[9.16009,52.78567],[9.17257,52.78632],[9.16232,52.79091],[9.1747,52.80025],[9.16746,52.80711],[9.17858,52.80876],[9.19242,52.81621],[9.20212,52.8314],[9.20107,52.84021],[9.21771,52.84392],[9.21941,52.84946],[9.19728,52.85651],[9.1809,52.85658],[9.18348,52.86271],[9.20086,52.863],[9.20977,52.87019],[9.20303,52.87725],[9.19257,52.88364],[9.17706,52.88659],[9.16678,52.90967]]]},"properties":{"plz":"27318","name":"27318 Hoya, Hoyerhagen, Hilgermissen"}},{"type":"Feature","geometry":{"type":"Polygon","coordinates":[[[9.07581,52.98508],[9.07627,52.996],[9.04141,52.99455],[9.02476,52.98843],[8.99995,52.9955],[8.98623,52.9944],[8.99181,53.0067],[8.98647,53.00934],[8.96551,53.0047],[8.94995,52.99719],[8.97467,52.99064],[8.97041,52.97894],[8.97234,52.95487],[8.95772,52.93909],[8.93517,52.92761],[8.92886,52.92734],[8.93197,52.9153],[8.94559,52.90224],[8.95208,52.88893],[8.96557,52.8978],[8.982,52.8887],[8.99087,52.89843],[8.9938,52.91246],[9.0042,52.92695],[9.03522,52.92643],[9.059,52.92348],[9.07295,52.9142],[9.08654,52.91932],[9.08893,52.92705],[9.10922,52.93455],[9.12485,52.95062],[9.11936,52.95909],[9.10459,52.96592],[9.09664,52.96363],[9.07743,52.97489],[9.07581,52.98508]]]},"properties":{"plz":"27321","name":"27321 Thedinghausen, Emtinghausen"}},{"type":"Feature","geometry":{"type":"Polygon","coordinates":[[[9.03602,52.84161],[9.05379,52.84174],[9.05713,52.85283],[9.07897,52.84922],[9.09399,52.85353],[9.09714,52.8615],[9.10962,52.86305],[9.10264,52.88016],[9.1077,52.8812],[9.11619,52.89686],[9.10977,52.90409],[9.09346,52.90024],[9.08724,52.90547],[9.07946,52.90218],[9.07295,52.9142],[9.059,52.92348],[9.03522,52.92643],[9.0042,52.92695],[8.9938,52.91246],[8.99087,52.89843],[8.982,52.8887],[8.98845,52.86709],[9.01484,52.84905],[9.03602,52.84161]]]},"properties":{"plz":"27327","name":"27327 Martfeld, Schwarme"}},{"type":"Feature","geometry":{"type":"Polygon","coordinates":[[[8.937,52.73079],[8.94779,52.72611],[8.95618,52.73198],[8.97643,52.73023],[8.97908,52.73827],[8.99428,52.73943],[9.00681,52.73292],[9.00647,52.72211],[9.01365,52.71636],[9.03777,52.71927],[9.05174,52.72876],[9.05875,52.74303],[9.05262,52.76344],[9.06418,52.76263],[9.06361,52.77471],[9.04492,52.78675],[9.05456,52.79565],[9.03646,52.80003],[9.04201,52.80632],[9.01421,52.80529],[9.0201,52.8004],[8.9951,52.79713],[8.99124,52.78999],[8.97779,52.78656],[8.97381,52.76994],[8.95167,52.7689],[8.95079,52.76244],[8.94105,52.76537],[8.90347,52.7535],[8.90405,52.74837],[8.91856,52.74075],[8.93033,52.74007],[8.937,52.73079]]]},"properties":{"plz":"27330","name":"27330 Asendorf"}},{"type":"Feature","geometry":{"type":"Polygon","coordinates":[[[9.15998,52.96248],[9.14595,52.96558],[9.12681,52.96416],[9.1101,52.97345],[9.10459,52.96592],[9.11936,52.95909],[9.12485,52.95062],[9.10922,52.93455],[9.08893,52.92705],[9.08654,52.91932],[9.07295,52.9142],[9.07946,52.90218],[9.08724,52.90547],[9.09346,52.90024],[9.10977,52.90409],[9.11619,52.89686],[9.16074,52.89397],[9.16759,52.89982],[9.16031,52.90675],[9.16678,52.90967],[9.18634,52.92024],[9.17308,52.92749],[9.17274,52.93349],[9.1889,52.93906],[9.17801,52.95608],[9.15998,52.96248]]]},"properties":{"plz":"27337","name":"27337 Blender"}},{"type":"Feature","geometry":{"type":"Polygon","coordinates":[[[8.94995,52.99719],[8.94043,53.00771],[8.92747,53.00947],[8.91908,53.00299],[8.93188,52.99854],[8.93257,52.99077],[8.91664,52.98048],[8.90876,52.98257],[8.90503,52.96252],[8.91222,52.94736],[8.92886,52.92734],[8.93517,52.92761],[8.95772,52.93909],[8.97234,52.95487],[8.97041,52.97894],[8.97467,52.99064],[8.94995,52.99719]]]},"properties":{"plz":"27339","name":"27339 Riede"}},{"type":"Feature","geometry":{"type":"Polygon","coordinates":[[[9.28078,53.185],[9.28158,53.17451],[9.2713,53.16548],[9.28654,53.16344],[9.2996,53.16797],[9.32063,53.16308],[9.34109,53.16639],[9.33963,53.15605],[9.34691,53.15461],[9.33713,53.14471],[9.34333,53.135],[9.33987,53.12496],[9.3127,53.1248],[9.29578,53.1197],[9.29682,53.10427],[9.28603,53.10158],[9.28424,53.08432],[9.31011,53.08986],[9.32705,53.08883],[9.32787,53.07044],[9.3631,53.05182],[9.41491,53.05854],[9.43039,53.05552],[9.42122,53.06161],[9.43345,53.08412],[9.42526,53.09386],[9.44228,53.10032],[9.46751,53.10279],[9.4709,53.11289],[9.45418,53.11741],[9.44256,53.12965],[9.42861,53.13233],[9.41145,53.14181],[9.39389,53.14148],[9.37311,53.15],[9.38059,53.15763],[9.37217,53.16404],[9.38422,53.17327],[9.38232,53.18275],[9.36041,53.18668],[9.3398,53.17562],[9.31919,53.17928],[9.3116,53.19129],[9.29612,53.19195],[9.28078,53.185]]]},"properties":{"plz":"27356","name":"27356 Rotenburg"}},{"type":"Feature","geometry":{"type":"Polygon","coordinates":[[[9.29087,53.02788],[9.29604,53.01995],[9.31118,53.01299],[9.32151,53.01596],[9.33671,53.02368],[9.34576,53.04496],[9.3631,53.05182],[9.32787,53.07044],[9.32705,53.08883],[9.31011,53.08986],[9.28424,53.08432],[9.28603,53.10158],[9.29682,53.10427],[9.29578,53.1197],[9.3127,53.1248],[9.33987,53.12496],[9.34333,53.135],[9.33713,53.14471],[9.34691,53.15461],[9.33963,53.15605],[9.34109,53.16639],[9.32063,53.16308],[9.2996,53.16797],[9.28654,53.16344],[9.2713,53.16548],[9.28158,53.17451],[9.28078,53.185],[9.25231,53.18322],[9.22226,53.19463],[9.22333,53.2129],[9.19972,53.20956],[9.19269,53.21134],[9.18403,53.19472],[9.19187,53.19217],[9.17589,53.18452],[9.18285,53.18305],[9.19529,53.16967],[9.18418,53.16437],[9.16931,53.16893],[9.16911,53.16107],[9.18727,53.16019],[9.1936,53.14742],[9.17978,53.1405],[9.17303,53.1268],[9.18196,53.11626],[9.16837,53.10808],[9.17023,53.10015],[9.15254,53.10306],[9.15986,53.09114],[9.15123,53.08886],[9.17017,53.07124],[9.17867,53.07188],[9.18586,53.0636],[9.18208,53.05774],[9.18802,53.04758],[9.20464,53.03573],[9.22219,53.04257],[9.23117,53.03601],[9.2441,53.03569],[9.29087,53.02788]]]},"properties":{"plz":"27367","name":"27367 Sottrum, Reeßum, Bötersen u.a."}},{"type":"Feature","geometry":{"type":"Polygon","coordinates":[[[9.3594,53.38733],[9.34131,53.38162],[9.3362,53.37125],[9.30793,53.35947],[9.30317,53.35438],[9.26908,53.35913],[9.24736,53.35703],[9.22556,53.3639],[9.21303,53.34876],[9.23088,53.33747],[9.21789,53.33225],[9.20917,53.33527],[9.20307,53.32913],[9.17952,53.33381],[9.16714,53.34297],[9.15511,53.34599],[9.15145,53.35692],[9.14256,53.35765],[9.14622,53.3666],[9.12086,53.36339],[9.12005,53.35737],[9.10032,53.34783],[9.09657,53.33861],[9.08702,53.3328],[9.07659,53.33404],[9.08596,53.31564],[9.10493,53.31371],[9.10784,53.30444],[9.10326,53.29624],[9.14578,53.27382],[9.16789,53.27499],[9.1748,53.26825],[9.20356,53.25848],[9.20027,53.25264],[9.21243,53.24119],[9.23978,53.23988],[9.25423,53.24184],[9.24461,53.23107],[9.22619,53.22538],[9.22333,53.2129],[9.22226,53.19463],[9.25231,53.18322],[9.28078,53.185],[9.29612,53.19195],[9.3116,53.19129],[9.31919,53.17928],[9.3398,53.17562],[9.36041,53.18668],[9.36588,53.19792],[9.36108,53.20976],[9.37511,53.21635],[9.39985,53.21917],[9.44086,53.24667],[9.43329,53.27596],[9.41775,53.29233],[9.42922,53.30387],[9.41965,53.30399],[9.4115,53.31696],[9.4122,53.32954],[9.42071,53.33329],[9.43619,53.33296],[9.44631,53.34548],[9.39471,53.36639],[9.38135,53.37818],[9.3594,53.38733]]]},"properties":{"plz":"27404","name":"27404 Zeven, Elsdorf"}},{"type":"Feature","geometry":{"type":"Polygon","coordinates":[[[9.22333,53.2129],[9.22619,53.22538],[9.24461,53.23107],[9.25423,53.24184],[9.23978,53.23988],[9.21243,53.24119],[9.20027,53.25264],[9.20356,53.25848],[9.1748,53.26825],[9.16789,53.27499],[9.14578,53.27382],[9.10326,53.29624],[9.10784,53.30444],[9.10493,53.31371],[9.08596,53.31564],[9.07659,53.33404],[9.08702,53.3328],[9.07336,53.3361],[9.0347,53.31931],[9.02532,53.32229],[8.99812,53.3162],[8.99143,53.30485],[9.02627,53.29779],[9.02944,53.28363],[9.00283,53.27796],[8.99136,53.27224],[9.00629,53.25819],[9.0184,53.25484],[9.02541,53.2473],[9.02634,53.23212],[9.03221,53.21766],[9.02793,53.21364],[9.02922,53.19608],[9.03989,53.18628],[9.03427,53.18472],[9.06103,53.17117],[9.07135,53.15115],[9.1091,53.14411],[9.13178,53.15757],[9.13231,53.16736],[9.14172,53.16629],[9.1476,53.17256],[9.16152,53.17134],[9.17589,53.18452],[9.19187,53.19217],[9.18403,53.19472],[9.19269,53.21134],[9.19972,53.20956],[9.22333,53.2129]]]},"properties":{"plz":"27412","name":"27412 Tarmstedt, Breddorf u.a."}},{"type":"Feature","geometry":{"type":"Polygon","coordinates":[[[9.12086,53.36339],[9.10041,53.38997],[9.09059,53.38816],[9.068,53.39646],[9.06568,53.40077],[9.0797,53.41062],[9.09782,53.4045],[9.09568,53.41631],[9.1016,53.42791],[9.10924,53.43411],[9.10108,53.45077],[9.08781,53.45112],[9.06385,53.44539],[9.05184,53.43878],[9.05254,53.42892],[8.99744,53.4285],[8.99029,53.42268],[8.97529,53.42455],[8.96343,53.40886],[8.95451,53.41152],[8.91646,53.38567],[8.90596,53.38949],[8.90194,53.38446],[8.91069,53.38003],[8.90703,53.37412],[8.94036,53.36595],[8.9379,53.35908],[8.94685,53.35349],[8.94098,53.34216],[8.96193,53.33307],[8.97251,53.33768],[8.99681,53.32357],[8.99812,53.3162],[9.02532,53.32229],[9.0347,53.31931],[9.07336,53.3361],[9.08702,53.3328],[9.09657,53.33861],[9.10032,53.34783],[9.12005,53.35737],[9.12086,53.36339]]]},"properties":{"plz":"27442","name":"27442 Gnarrenburg"}},{"type":"Feature","geometry":{"type":"Polygon","coordinates":[[[8.50374,53.40251],[8.50499,53.36513],[8.51429,53.36076],[8.51262,53.35247],[8.51729,53.31991],[8.504,53.29365],[8.51766,53.29316],[8.5207,53.28524],[8.5265,53.29008],[8.54819,53.28505],[8.56401,53.29757],[8.5871,53.29393],[8.59647,53.28611],[8.62488,53.28769],[8.62335,53.2817],[8.64637,53.28611],[8.66081,53.28193],[8.66067,53.28975],[8.67696,53.28912],[8.67594,53.29715],[8.70653,53.30067],[8.72332,53.29933],[8.72809,53.30474],[8.72224,53.31467],[8.75195,53.31799],[8.75781,53.32686],[8.7693,53.32512],[8.76251,53.33154],[8.76472,53.33944],[8.75473,53.34385],[8.75218,53.3556],[8.73589,53.36171],[8.76027,53.36703],[8.77265,53.37283],[8.77558,53.37946],[8.75812,53.37862],[8.75242,53.38291],[8.7118,53.37676],[8.7002,53.38133],[8.69361,53.39932],[8.68497,53.40303],[8.68107,53.42894],[8.65123,53.4365],[8.64878,53.41272],[8.62907,53.40331],[8.62479,53.40619],[8.61566,53.39556],[8.58711,53.39597],[8.57708,53.40299],[8.54819,53.40112],[8.54582,53.40475],[8.50374,53.40251]]]},"properties":{"plz":"27628","name":"27628 Hagen"}},{"type":"Feature","geometry":{"type":"Polygon","coordinates":[[[8.66081,53.28193],[8.66821,53.26135],[8.70299,53.25804],[8.69635,53.24557],[8.6974,53.22684],[8.70113,53.2223],[8.70188,53.21816],[8.71724,53.2214],[8.73386,53.21636],[8.74551,53.20909],[8.74832,53.19646],[8.76409,53.19424],[8.77165,53.18829],[8.76397,53.18357],[8.8061,53.19695],[8.824,53.20363],[8.8471,53.20895],[8.87376,53.2219],[8.88488,53.2363],[8.90007,53.24346],[8.9117,53.24469],[8.93394,53.25927],[8.95005,53.25914],[8.94164,53.26549],[8.95038,53.27286],[8.93884,53.27619],[8.93784,53.28606],[8.90492,53.29915],[8.87662,53.28289],[8.86411,53.26901],[8.8455,53.27416],[8.81439,53.27043],[8.79908,53.27644],[8.77974,53.29162],[8.79133,53.29733],[8.78797,53.30754],[8.7911,53.3169],[8.77788,53.3158],[8.7693,53.32512],[8.75781,53.32686],[8.75195,53.31799],[8.72224,53.31467],[8.72809,53.30474],[8.72332,53.29933],[8.70653,53.30067],[8.67594,53.29715],[8.67696,53.28912],[8.66067,53.28975],[8.66081,53.28193]]]},"properties":{"plz":"27711","name":"27711 Osterholz-Scharmbeck"}},{"type":"Feature","geometry":{"type":"Polygon","coordinates":[[[8.70113,53.2223],[8.68653,53.22324],[8.67417,53.21527],[8.66491,53.21597],[8.66271,53.20821],[8.68062,53.19977],[8.67507,53.19321],[8.67486,53.17876],[8.67546,53.17589],[8.69943,53.18544],[8.70136,53.17791],[8.71069,53.17899],[8.71428,53.18327],[8.72898,53.18061],[8.73517,53.17243],[8.74329,53.17178],[8.74157,53.16404],[8.76169,53.16518],[8.77665,53.15821],[8.78171,53.1633],[8.80772,53.19372],[8.8061,53.19695],[8.76397,53.18357],[8.77165,53.18829],[8.76409,53.19424],[8.74832,53.19646],[8.74551,53.20909],[8.73386,53.21636],[8.71724,53.2214],[8.70188,53.21816],[8.70113,53.2223]]]},"properties":{"plz":"27721","name":"27721 Ritterhude"}},{"type":"Feature","geometry":{"type":"Polygon","coordinates":[[[8.99812,53.3162],[8.99681,53.32357],[8.97251,53.33768],[8.96193,53.33307],[8.94743,53.31626],[8.95871,53.30225],[8.96547,53.30077],[8.94448,53.29341],[8.93784,53.28606],[8.93884,53.27619],[8.95038,53.27286],[8.94164,53.26549],[8.95005,53.25914],[8.93394,53.25927],[8.9117,53.24469],[8.90007,53.24346],[8.88488,53.2363],[8.87376,53.2219],[8.8471,53.20895],[8.824,53.20363],[8.83721,53.19222],[8.86492,53.19107],[8.87631,53.19607],[8.91337,53.18512],[8.90407,53.19473],[8.92751,53.20383],[8.93623,53.20237],[8.96053,53.21165],[8.96379,53.22495],[9.00958,53.24226],[9.02634,53.23212],[9.02541,53.2473],[9.0184,53.25484],[9.00629,53.25819],[8.99136,53.27224],[9.00283,53.27796],[9.02944,53.28363],[9.02627,53.29779],[8.99143,53.30485],[8.99812,53.3162]]]},"properties":{"plz":"27726","name":"27726 Worpswede"}},{"type":"Feature","geometry":{"type":"Polygon","coordinates":[[[8.91069,53.38003],[8.86772,53.39563],[8.85406,53.39221],[8.83337,53.39166],[8.81896,53.38741],[8.78925,53.38919],[8.79215,53.38208],[8.77265,53.37283],[8.76027,53.36703],[8.73589,53.36171],[8.75218,53.3556],[8.75473,53.34385],[8.76472,53.33944],[8.76251,53.33154],[8.7693,53.32512],[8.77788,53.3158],[8.7911,53.3169],[8.78797,53.30754],[8.79133,53.29733],[8.77974,53.29162],[8.79908,53.27644],[8.81439,53.27043],[8.8455,53.27416],[8.86411,53.26901],[8.87662,53.28289],[8.90492,53.29915],[8.93784,53.28606],[8.94448,53.29341],[8.96547,53.30077],[8.95871,53.30225],[8.94743,53.31626],[8.96193,53.33307],[8.94098,53.34216],[8.94685,53.35349],[8.9379,53.35908],[8.94036,53.36595],[8.90703,53.37412],[8.91069,53.38003]]]},"properties":{"plz":"27729","name":"27729 Hambergen, Holste u.a."}},{"type":"Feature","geometry":{"type":"Polygon","coordinates":[[[8.63411,53.06159],[8.63313,53.05293],[8.62472,53.05212],[8.62497,53.04443],[8.64752,53.0368],[8.65744,53.04891],[8.64612,53.05283],[8.64545,53.05985],[8.63411,53.06159]]]},"properties":{"plz":"27749","name":"27749 Delmenhorst"}},{"type":"Feature","geometry":{"type":"Polygon","coordinates":[[[8.64752,53.0368],[8.65463,53.03118],[8.67175,53.03074],[8.68066,53.0266],[8.68328,53.03554],[8.70229,53.03765],[8.7116,53.04419],[8.70682,53.05243],[8.70991,53.07211],[8.70083,53.08294],[8.67461,53.08622],[8.66487,53.09561],[8.67047,53.10246],[8.65423,53.1089],[8.64143,53.10638],[8.63551,53.09899],[8.62262,53.08576],[8.63305,53.07908],[8.64457,53.07516],[8.63411,53.06159],[8.64545,53.05985],[8.64612,53.05283],[8.65744,53.04891],[8.64752,53.0368]]]},"properties":{"plz":"27751","name":"27751 Delmenhorst"}},{"type":"Feature","geometry":{"type":"Polygon","coordinates":[[[8.63411,53.06159],[8.64457,53.07516],[8.63305,53.07908],[8.63251,53.07519],[8.59731,53.06272],[8.58115,53.04068],[8.58691,53.03679],[8.60481,53.03447],[8.62497,53.04443],[8.62472,53.05212],[8.63313,53.05293],[8.63411,53.06159]]]},"properties":{"plz":"27753","name":"27753 Delmenhorst"}},{"type":"Feature","geometry":{"type":"Polygon","coordinates":[[[8.65709,53.00919],[8.66427,53.01984],[8.67891,53.01825],[8.68066,53.0266],[8.67175,53.03074],[8.65463,53.03118],[8.64752,53.0368],[8.62497,53.04443],[8.60481,53.03447],[8.58691,53.03679],[8.60789,53.03088],[8.60031,53.02608],[8.59425,53.01164],[8.57907,53.00156],[8.59154,52.98678],[8.62171,53.00009],[8.61191,53.0082],[8.62745,53.01879],[8.64344,53.00547],[8.65709,53.00919]]]},"properties":{"plz":"27755","name":"27755 Delmenhorst"}},{"type":"Feature","geometry":{"type":"Polygon","coordinates":[[[8.43027,53.02333],[8.43426,53.01484],[8.44773,53.00921],[8.47178,53.01511],[8.49125,53.01422],[8.49646,53.00611],[8.48592,52.98653],[8.49608,52.96955],[8.50746,52.97445],[8.5151,52.96577],[8.53503,52.96832],[8.54676,52.97571],[8.54991,52.98503],[8.56402,52.97147],[8.56302,52.97702],[8.59154,52.98678],[8.57907,53.00156],[8.59425,53.01164],[8.60031,53.02608],[8.60789,53.03088],[8.58691,53.03679],[8.58115,53.04068],[8.59731,53.06272],[8.63251,53.07519],[8.63305,53.07908],[8.62262,53.08576],[8.63551,53.09899],[8.60993,53.10657],[8.59087,53.11529],[8.59367,53.11883],[8.57826,53.12246],[8.5709,53.11348],[8.5643,53.11752],[8.53549,53.12458],[8.52057,53.12776],[8.4952,53.09754],[8.50649,53.08591],[8.45721,53.05668],[8.43366,53.05572],[8.42516,53.0342],[8.43027,53.02333]]]},"properties":{"plz":"27777","name":"27777 Ganderkesee"}},{"type":"Feature","geometry":{"type":"Polygon","coordinates":[[[8.33226,52.88437],[8.35577,52.8526],[8.37785,52.85543],[8.38573,52.85035],[8.40638,52.84847],[8.40697,52.84051],[8.39286,52.83132],[8.3964,52.8255],[8.42553,52.82407],[8.43606,52.82619],[8.45092,52.8202],[8.47318,52.82275],[8.48043,52.84385],[8.47779,52.85672],[8.47219,52.85967],[8.47518,52.86911],[8.46679,52.8823],[8.48202,52.88653],[8.47413,52.89814],[8.47703,52.9061],[8.4568,52.90782],[8.42567,52.90483],[8.42372,52.91189],[8.40932,52.91914],[8.38751,52.92527],[8.38002,52.93209],[8.36337,52.93117],[8.35222,52.93984],[8.34053,52.94098],[8.33081,52.92247],[8.31859,52.92444],[8.30656,52.9117],[8.32334,52.91139],[8.32044,52.90064],[8.33226,52.88437]]]},"properties":{"plz":"27793","name":"27793 Wildeshausen"}},{"type":"Feature","geometry":{"type":"Polygon","coordinates":[[[8.30681,53.15019],[8.30082,53.13982],[8.28794,53.13044],[8.28681,53.11894],[8.27958,53.10729],[8.29064,53.09691],[8.33957,53.06658],[8.35612,53.06672],[8.36548,53.06123],[8.40047,53.05646],[8.41791,53.05952],[8.43366,53.05572],[8.45721,53.05668],[8.50649,53.08591],[8.4952,53.09754],[8.52057,53.12776],[8.5085,53.12623],[8.50475,53.119],[8.47191,53.13802],[8.46194,53.14082],[8.44781,53.13168],[8.4017,53.1207],[8.39807,53.142],[8.38622,53.16529],[8.38884,53.17066],[8.37116,53.16507],[8.3523,53.16567],[8.3375,53.16131],[8.32387,53.16242],[8.31221,53.15278],[8.30681,53.15019]]]},"properties":{"plz":"27798","name":"27798 Hude (Oldenburg)"}},{"type":"Feature","geometry":{"type":"Polygon","coordinates":[[[8.34053,52.94098],[8.35222,52.93984],[8.36337,52.93117],[8.38002,52.93209],[8.38751,52.92527],[8.40932,52.91914],[8.42372,52.91189],[8.42567,52.90483],[8.4568,52.90782],[8.46929,52.92658],[8.46378,52.92723],[8.47551,52.94051],[8.48507,52.94155],[8.50825,52.95767],[8.5151,52.96577],[8.50746,52.97445],[8.49608,52.96955],[8.48592,52.98653],[8.49646,53.00611],[8.49125,53.01422],[8.47178,53.01511],[8.44773,53.00921],[8.43426,53.01484],[8.43027,53.02333],[8.4245,53.02292],[8.40867,53.00567],[8.36537,53.00083],[8.36653,52.99802],[8.31607,52.9922],[8.31546,52.98326],[8.3279,52.98365],[8.33657,52.97332],[8.32715,52.96237],[8.34053,52.94098]]]},"properties":{"plz":"27801","name":"27801 Dötlingen"}},{"type":"Feature","geometry":{"type":"Polygon","coordinates":[[[8.38884,53.17066],[8.38622,53.16529],[8.39807,53.142],[8.4017,53.1207],[8.44781,53.13168],[8.46194,53.14082],[8.47191,53.13802],[8.50475,53.119],[8.5085,53.12623],[8.52057,53.12776],[8.53549,53.12458],[8.55348,53.15376],[8.56579,53.15636],[8.57856,53.16786],[8.57335,53.17592],[8.55715,53.18135],[8.53395,53.18685],[8.51544,53.198],[8.5063,53.20002],[8.48741,53.21979],[8.46573,53.22732],[8.44735,53.21337],[8.45083,53.20145],[8.43816,53.19334],[8.42253,53.19108],[8.41456,53.18097],[8.38884,53.17066]]]},"properties":{"plz":"27804","name":"27804 Berne"}},{"type":"Feature","geometry":{"type":"Polygon","coordinates":[[[8.65423,53.1089],[8.65728,53.1176],[8.64461,53.12789],[8.63061,53.13846],[8.62075,53.16619],[8.60709,53.17094],[8.58641,53.17279],[8.57335,53.17592],[8.57856,53.16786],[8.56579,53.15636],[8.55348,53.15376],[8.53549,53.12458],[8.5643,53.11752],[8.5709,53.11348],[8.57826,53.12246],[8.59367,53.11883],[8.59087,53.11529],[8.60993,53.10657],[8.63551,53.09899],[8.64143,53.10638],[8.65423,53.1089]]]},"properties":{"plz":"27809","name":"27809 Lemwerder"}},{"type":"Feature","geometry":{"type":"Polygon","coordinates":[[[8.78881,53.08035],[8.81323,53.06981],[8.81958,53.08057],[8.81582,53.08273],[8.8005,53.0914],[8.78881,53.08035]]]},"properties":{"plz":"28195","name":"28195 Bremen"}},{"type":"Feature","geometry":{"type":"Polygon","coordinates":[[[8.70991,53.07211],[8.72336,53.07489],[8.75366,53.07128],[8.7641,53.06703],[8.78147,53.07242],[8.78881,53.08035],[8.77066,53.08564],[8.74623,53.10582],[8.72982,53.11609],[8.66948,53.12503],[8.64461,53.12789],[8.65728,53.1176],[8.65423,53.1089],[8.67047,53.10246],[8.66487,53.09561],[8.67461,53.08622],[8.70083,53.08294],[8.70991,53.07211]]]},"properties":{"plz":"28197","name":"28197 Bremen"}},{"type":"Feature","geometry":{"type":"Polygon","coordinates":[[[8.78881,53.08035],[8.78147,53.07242],[8.7641,53.06703],[8.77056,53.05315],[8.77769,53.03952],[8.7918,53.03632],[8.79768,53.04473],[8.81218,53.04464],[8.81618,53.04905],[8.80466,53.05032],[8.78806,53.06281],[8.80183,53.06875],[8.81158,53.06217],[8.81497,53.06923],[8.81323,53.06981],[8.78881,53.08035]]]},"properties":{"plz":"28199","name":"28199 Bremen"}},{"type":"Feature","geometry":{"type":"Polygon","coordinates":[[[8.81618,53.04905],[8.83713,53.05109],[8.8367,53.06379],[8.83098,53.06759],[8.81497,53.06923],[8.81158,53.06217],[8.80183,53.06875],[8.78806,53.06281],[8.80466,53.05032],[8.81618,53.04905]]]},"properties":{"plz":"28201","name":"28201 Bremen"}},{"type":"Feature","geometry":{"type":"Polygon","coordinates":[[[8.81323,53.06981],[8.81497,53.06923],[8.83098,53.06759],[8.83794,53.0782],[8.82751,53.07975],[8.81958,53.08057],[8.81323,53.06981]]]},"properties":{"plz":"28203","name":"28203 Bremen"}},{"type":"Feature","geometry":{"type":"Polygon","coordinates":[[[8.8367,53.06379],[8.84988,53.05937],[8.85466,53.07579],[8.83794,53.0782],[8.83098,53.06759],[8.8367,53.06379]]]},"properties":{"plz":"28205","name":"28205 Bremen"}},{"type":"Feature","geometry":{"type":"Polygon","coordinates":[[[8.84988,53.05937],[8.87024,53.05716],[8.8811,53.05867],[8.87966,53.06564],[8.86822,53.07478],[8.85466,53.07579],[8.84988,53.05937]]]},"properties":{"plz":"28207","name":"28207 Bremen"}},{"type":"Feature","geometry":{"type":"Polygon","coordinates":[[[8.81958,53.08057],[8.82751,53.07975],[8.85003,53.08515],[8.82221,53.09541],[8.81358,53.09035],[8.81582,53.08273],[8.81958,53.08057]]]},"properties":{"plz":"28209","name":"28209 Bremen"}},{"type":"Feature","geometry":{"type":"Polygon","coordinates":[[[8.83794,53.0782],[8.85466,53.07579],[8.86822,53.07478],[8.85409,53.08237],[8.87454,53.08221],[8.87068,53.09132],[8.86723,53.09099],[8.85003,53.08515],[8.82751,53.07975],[8.83794,53.0782]]]},"properties":{"plz":"28211","name":"28211 Bremen"}},{"type":"Feature","geometry":{"type":"Polygon","coordinates":[[[8.85003,53.08515],[8.86723,53.09099],[8.84132,53.10617],[8.82456,53.11076],[8.82554,53.10278],[8.82221,53.09541],[8.85003,53.08515]]]},"properties":{"plz":"28213","name":"28213 Bremen"}},{"type":"Feature","geometry":{"type":"Polygon","coordinates":[[[8.81582,53.08273],[8.81358,53.09035],[8.82221,53.09541],[8.82554,53.10278],[8.80176,53.10176],[8.7967,53.09467],[8.8005,53.0914],[8.81582,53.08273]]]},"properties":{"plz":"28215","name":"28215 Bremen"}},{"type":"Feature","geometry":{"type":"Polygon","coordinates":[[[8.8005,53.0914],[8.7967,53.09467],[8.78983,53.09988],[8.77612,53.09731],[8.76622,53.1067],[8.75094,53.11212],[8.74623,53.10582],[8.77066,53.08564],[8.78881,53.08035],[8.8005,53.0914]]]},"properties":{"plz":"28217","name":"28217 Bremen"}},{"type":"Feature","geometry":{"type":"Polygon","coordinates":[[[8.82456,53.11076],[8.8215,53.11418],[8.79841,53.12889],[8.79237,53.1285],[8.77976,53.11516],[8.76622,53.1067],[8.77612,53.09731],[8.78983,53.09988],[8.7967,53.09467],[8.80176,53.10176],[8.82554,53.10278],[8.82456,53.11076]]]},"properties":{"plz":"28219","name":"28219 Bremen"}},{"type":"Feature","geometry":{"type":"Polygon","coordinates":[[[8.74623,53.10582],[8.75094,53.11212],[8.76622,53.1067],[8.77976,53.11516],[8.79237,53.1285],[8.76094,53.13869],[8.75787,53.13238],[8.76805,53.12587],[8.75884,53.11611],[8.75403,53.12032],[8.71708,53.13475],[8.71934,53.14156],[8.67085,53.15247],[8.65553,53.13552],[8.67445,53.12818],[8.66948,53.12503],[8.72982,53.11609],[8.74623,53.10582]]]},"properties":{"plz":"28237","name":"28237 Bremen"}},{"type":"Feature","geometry":{"type":"Polygon","coordinates":[[[8.76094,53.13869],[8.73063,53.15002],[8.73029,53.14168],[8.71934,53.14156],[8.71708,53.13475],[8.75403,53.12032],[8.75884,53.11611],[8.76805,53.12587],[8.75787,53.13238],[8.76094,53.13869]]]},"properties":{"plz":"28239","name":"28239 Bremen"}},{"type":"Feature","geometry":{"type":"Polygon","coordinates":[[[8.7116,53.04419],[8.73396,53.03361],[8.73927,53.04025],[8.75662,53.03911],[8.77056,53.05315],[8.7641,53.06703],[8.75366,53.07128],[8.72336,53.07489],[8.70991,53.07211],[8.70682,53.05243],[8.7116,53.04419]]]},"properties":{"plz":"28259","name":"28259 Bremen"}},{"type":"Feature","geometry":{"type":"Polygon","coordinates":[[[8.7918,53.03632],[8.80885,53.031],[8.8174,53.0238],[8.82924,53.02384],[8.84371,53.04402],[8.83105,53.04747],[8.83713,53.05109],[8.81618,53.04905],[8.81218,53.04464],[8.79768,53.04473],[8.7918,53.03632]]]},"properties":{"plz":"28277","name":"28277 Bremen"}},{"type":"Feature","geometry":{"type":"Polygon","coordinates":[[[8.83713,53.05109],[8.83105,53.04747],[8.84371,53.04402],[8.82924,53.02384],[8.8174,53.0238],[8.81754,53.02298],[8.83816,53.01813],[8.84919,53.0241],[8.84797,53.01654],[8.86913,53.02475],[8.86197,53.03565],[8.86633,53.0407],[8.87502,53.054],[8.87024,53.05716],[8.84988,53.05937],[8.8367,53.06379],[8.83713,53.05109]]]},"properties":{"plz":"28279","name":"28279 Bremen"}},{"type":"Feature","geometry":{"type":"Polygon","coordinates":[[[8.91676,53.05959],[8.91561,53.04686],[8.90663,53.04772],[8.90405,53.03867],[8.91036,53.03686],[8.89768,53.02678],[8.896,53.01309],[8.91583,53.01104],[8.92179,53.01494],[8.93591,53.01353],[8.93825,53.02479],[8.94578,53.03061],[8.96658,53.03669],[8.97801,53.04558],[8.96517,53.05764],[8.9305,53.059],[8.91676,53.05959]]]},"properties":{"plz":"28307","name":"28307 Bremen"}},{"type":"Feature","geometry":{"type":"Polygon","coordinates":[[[8.87024,53.05716],[8.87502,53.054],[8.86633,53.0407],[8.86685,53.03278],[8.896,53.01309],[8.89768,53.02678],[8.91036,53.03686],[8.90405,53.03867],[8.90663,53.04772],[8.91561,53.04686],[8.91676,53.05959],[8.91688,53.07067],[8.88579,53.06957],[8.87966,53.06564],[8.8811,53.05867],[8.87024,53.05716]]]},"properties":{"plz":"28309","name":"28309 Bremen"}},{"type":"Feature","geometry":{"type":"Polygon","coordinates":[[[8.96517,53.05764],[8.96394,53.08372],[8.94866,53.07809],[8.93209,53.07913],[8.93666,53.07485],[8.9305,53.059],[8.96517,53.05764]]]},"properties":{"plz":"28325","name":"28325 Bremen"}},{"type":"Feature","geometry":{"type":"Polygon","coordinates":[[[8.9305,53.059],[8.93666,53.07485],[8.93209,53.07913],[8.9075,53.08215],[8.89123,53.08254],[8.89213,53.0762],[8.91406,53.07546],[8.91688,53.07067],[8.91676,53.05959],[8.9305,53.059]]]},"properties":{"plz":"28327","name":"28327 Bremen"}},{"type":"Feature","geometry":{"type":"Polygon","coordinates":[[[8.87966,53.06564],[8.88579,53.06957],[8.91688,53.07067],[8.91406,53.07546],[8.89213,53.0762],[8.89123,53.08254],[8.9075,53.08215],[8.89642,53.08922],[8.87853,53.08826],[8.87068,53.09132],[8.87454,53.08221],[8.85409,53.08237],[8.86822,53.07478],[8.87966,53.06564]]]},"properties":{"plz":"28329","name":"28329 Bremen"}},{"type":"Feature","geometry":{"type":"Polygon","coordinates":[[[8.96394,53.08372],[8.96541,53.0898],[8.99073,53.09656],[8.97035,53.10168],[8.96324,53.10043],[8.94933,53.11749],[8.92411,53.12197],[8.89962,53.10531],[8.89735,53.09472],[8.89642,53.08922],[8.9075,53.08215],[8.93209,53.07913],[8.94866,53.07809],[8.96394,53.08372]]]},"properties":{"plz":"28355","name":"28355 Bremen"}},{"type":"Feature","geometry":{"type":"Polygon","coordinates":[[[8.77665,53.15821],[8.78452,53.14957],[8.79536,53.14562],[8.79841,53.12889],[8.8215,53.11418],[8.82175,53.11637],[8.85707,53.11406],[8.87797,53.1054],[8.88632,53.09648],[8.89735,53.09472],[8.89962,53.10531],[8.92411,53.12197],[8.94933,53.11749],[8.98329,53.12574],[8.95661,53.14716],[8.94478,53.15211],[8.92085,53.14443],[8.91252,53.13255],[8.90316,53.13853],[8.89779,53.13403],[8.86357,53.13139],[8.86153,53.13798],[8.84114,53.14776],[8.83986,53.15785],[8.81473,53.16401],[8.78868,53.16021],[8.78171,53.1633],[8.77665,53.15821]]]},"properties":{"plz":"28357","name":"28357 Bremen"}},{"type":"Feature","geometry":{"type":"Polygon","coordinates":[[[8.87068,53.09132],[8.87853,53.08826],[8.89642,53.08922],[8.89735,53.09472],[8.88632,53.09648],[8.87797,53.1054],[8.85707,53.11406],[8.82175,53.11637],[8.8215,53.11418],[8.82456,53.11076],[8.84132,53.10617],[8.86723,53.09099],[8.87068,53.09132]]]},"properties":{"plz":"28359","name":"28359 Bremen"}},{"type":"Feature","geometry":{"type":"Polygon","coordinates":[[[8.67546,53.17589],[8.66585,53.17528],[8.67574,53.16183],[8.70225,53.16449],[8.71595,53.17284],[8.71069,53.17899],[8.70136,53.17791],[8.69943,53.18544],[8.67546,53.17589]]]},"properties":{"plz":"28717","name":"28717 Bremen"}},{"type":"Feature","geometry":{"type":"Polygon","coordinates":[[[8.71069,53.17899],[8.71595,53.17284],[8.70225,53.16449],[8.67574,53.16183],[8.66111,53.1588],[8.64205,53.15964],[8.62313,53.16764],[8.62075,53.16619],[8.63061,53.13846],[8.64461,53.12789],[8.66948,53.12503],[8.67445,53.12818],[8.65553,53.13552],[8.67085,53.15247],[8.71934,53.14156],[8.73029,53.14168],[8.73063,53.15002],[8.76094,53.13869],[8.79237,53.1285],[8.79841,53.12889],[8.79536,53.14562],[8.78452,53.14957],[8.77665,53.15821],[8.76169,53.16518],[8.74157,53.16404],[8.74329,53.17178],[8.73517,53.17243],[8.72898,53.18061],[8.71428,53.18327],[8.71069,53.17899]]]},"properties":{"plz":"28719","name":"28719 Bremen"}},{"type":"Feature","geometry":{"type":"Polygon","coordinates":[[[8.60709,53.17094],[8.6207,53.1779],[8.61835,53.18375],[8.63412,53.18218],[8.64295,53.18939],[8.62795,53.19829],[8.60855,53.19317],[8.60676,53.18765],[8.592,53.18454],[8.58641,53.17279],[8.60709,53.17094]]]},"properties":{"plz":"28755","name":"28755 Bremen"}},{"type":"Feature","geometry":{"type":"Polygon","coordinates":[[[8.62075,53.16619],[8.62313,53.16764],[8.63762,53.17253],[8.65659,53.1725],[8.65896,53.17737],[8.65509,53.18698],[8.64295,53.18939],[8.63412,53.18218],[8.61835,53.18375],[8.6207,53.1779],[8.60709,53.17094],[8.62075,53.16619]]]},"properties":{"plz":"28757","name":"28757 Bremen"}},{"type":"Feature","geometry":{"type":"Polygon","coordinates":[[[8.67486,53.17876],[8.65896,53.17737],[8.65659,53.1725],[8.63762,53.17253],[8.62313,53.16764],[8.64205,53.15964],[8.66111,53.1588],[8.67574,53.16183],[8.66585,53.17528],[8.67546,53.17589],[8.67486,53.17876]]]},"properties":{"plz":"28759","name":"28759 Bremen"}},{"type":"Feature","geometry":{"type":"Polygon","coordinates":[[[8.48741,53.21979],[8.5063,53.20002],[8.51544,53.198],[8.53395,53.18685],[8.55715,53.18135],[8.55705,53.18909],[8.56759,53.19432],[8.55397,53.20778],[8.54074,53.21539],[8.53022,53.21591],[8.5175,53.22855],[8.4853,53.22715],[8.48741,53.21979]]]},"properties":{"plz":"28777","name":"28777 Bremen"}},{"type":"Feature","geometry":{"type":"Polygon","coordinates":[[[8.57335,53.17592],[8.58641,53.17279],[8.592,53.18454],[8.58039,53.19004],[8.5815,53.19945],[8.59501,53.20619],[8.5991,53.21277],[8.57857,53.21744],[8.55397,53.20778],[8.56759,53.19432],[8.55705,53.18909],[8.55715,53.18135],[8.57335,53.17592]]]},"properties":{"plz":"28779","name":"28779 Bremen"}},{"type":"Feature","geometry":{"type":"Polygon","coordinates":[[[8.48985,53.28599],[8.48071,53.24629],[8.4853,53.22715],[8.5175,53.22855],[8.53022,53.21591],[8.54074,53.21539],[8.55397,53.20778],[8.57857,53.21744],[8.5991,53.21277],[8.59501,53.20619],[8.5815,53.19945],[8.58039,53.19004],[8.592,53.18454],[8.60676,53.18765],[8.60855,53.19317],[8.62795,53.19829],[8.64295,53.18939],[8.65509,53.18698],[8.65896,53.17737],[8.67486,53.17876],[8.67507,53.19321],[8.68062,53.19977],[8.66271,53.20821],[8.66491,53.21597],[8.67417,53.21527],[8.68653,53.22324],[8.70113,53.2223],[8.6974,53.22684],[8.69635,53.24557],[8.70299,53.25804],[8.66821,53.26135],[8.66081,53.28193],[8.64637,53.28611],[8.62335,53.2817],[8.62488,53.28769],[8.59647,53.28611],[8.5871,53.29393],[8.56401,53.29757],[8.54819,53.28505],[8.5265,53.29008],[8.5207,53.28524],[8.51766,53.29316],[8.504,53.29365],[8.51729,53.31991],[8.51262,53.35247],[8.50131,53.35263],[8.48917,53.32531],[8.49274,53.29846],[8.48985,53.28599]]]},"properties":{"plz":"28790","name":"28790 Schwanewede"}},{"type":"Feature","geometry":{"type":"Polygon","coordinates":[[[8.7385,52.93565],[8.74848,52.94459],[8.7436,52.94826],[8.7499,52.95606],[8.74236,52.96323],[8.77029,52.9739],[8.783,52.98598],[8.78963,53.00215],[8.80375,53.00246],[8.80533,53.01486],[8.81754,53.02298],[8.8174,53.0238],[8.80885,53.031],[8.7918,53.03632],[8.77769,53.03952],[8.77056,53.05315],[8.75662,53.03911],[8.73927,53.04025],[8.73396,53.03361],[8.7116,53.04419],[8.70229,53.03765],[8.68328,53.03554],[8.68066,53.0266],[8.67891,53.01825],[8.66427,53.01984],[8.65709,53.00919],[8.6568,53.00152],[8.6432,52.98713],[8.64301,52.97727],[8.65433,52.96296],[8.65747,52.96907],[8.68833,52.96677],[8.68437,52.95793],[8.69306,52.96085],[8.69113,52.94773],[8.72603,52.94324],[8.7385,52.93565]]]},"properties":{"plz":"28816","name":"28816 Stuhr"}},{"type":"Feature","geometry":{"type":"Polygon","coordinates":[[[9.13403,53.03157],[9.1446,53.03773],[9.12497,53.05198],[9.12937,53.05632],[9.10128,53.04688],[9.08513,53.05375],[9.08201,53.0461],[9.04847,53.05212],[9.04212,53.04692],[9.02667,53.05067],[9.01616,53.04114],[9.01,53.04567],[8.99389,53.03599],[8.97801,53.04558],[8.96658,53.03669],[8.94578,53.03061],[8.93825,53.02479],[8.93591,53.01353],[8.92179,53.01494],[8.91583,53.01104],[8.92747,53.00947],[8.94043,53.00771],[8.94995,52.99719],[8.96551,53.0047],[8.98647,53.00934],[8.99181,53.0067],[8.98623,52.9944],[8.99995,52.9955],[9.02476,52.98843],[9.04141,52.99455],[9.07627,52.996],[9.07581,52.98508],[9.08844,52.98001],[9.10252,52.9811],[9.11083,52.99163],[9.10272,52.99314],[9.10444,53.01839],[9.12707,53.03177],[9.13403,53.03157]]]},"properties":{"plz":"28832","name":"28832 Achim"}},{"type":"Feature","geometry":{"type":"Polygon","coordinates":[[[8.92747,53.00947],[8.91583,53.01104],[8.896,53.01309],[8.86685,53.03278],[8.86633,53.0407],[8.86197,53.03565],[8.86913,53.02475],[8.84797,53.01654],[8.84919,53.0241],[8.83816,53.01813],[8.81754,53.02298],[8.80533,53.01486],[8.80375,53.00246],[8.78963,53.00215],[8.783,52.98598],[8.77029,52.9739],[8.76754,52.97115],[8.79314,52.95615],[8.81695,52.96205],[8.83208,52.96014],[8.8376,52.96417],[8.84631,52.95436],[8.87314,52.95295],[8.87484,52.95673],[8.90503,52.96252],[8.90876,52.98257],[8.91664,52.98048],[8.93257,52.99077],[8.93188,52.99854],[8.91908,53.00299],[8.92747,53.00947]]]},"properties":{"plz":"28844","name":"28844 Weyhe"}},{"type":"Feature","geometry":{"type":"Polygon","coordinates":[[[8.88232,52.83757],[8.8871,52.84216],[8.87761,52.85566],[8.91727,52.87078],[8.93654,52.87329],[8.95208,52.88893],[8.94559,52.90224],[8.93197,52.9153],[8.92886,52.92734],[8.91222,52.94736],[8.90503,52.96252],[8.87484,52.95673],[8.87314,52.95295],[8.84631,52.95436],[8.8376,52.96417],[8.83208,52.96014],[8.81695,52.96205],[8.79314,52.95615],[8.76754,52.97115],[8.77029,52.9739],[8.74236,52.96323],[8.7499,52.95606],[8.7436,52.94826],[8.74848,52.94459],[8.7385,52.93565],[8.73267,52.93456],[8.73252,52.9215],[8.74308,52.93064],[8.75055,52.91452],[8.7748,52.9078],[8.78463,52.89001],[8.7905,52.89247],[8.80045,52.87137],[8.80747,52.87297],[8.80631,52.8509],[8.8248,52.8511],[8.83249,52.85843],[8.84455,52.85785],[8.84467,52.85129],[8.86139,52.83537],[8.88232,52.83757]]]},"properties":{"plz":"28857","name":"28857 Syke"}},{"type":"Feature","geometry":{"type":"Polygon","coordinates":[[[8.8061,53.19695],[8.80772,53.19372],[8.78171,53.1633],[8.78868,53.16021],[8.81473,53.16401],[8.83986,53.15785],[8.84114,53.14776],[8.86153,53.13798],[8.86357,53.13139],[8.89779,53.13403],[8.90316,53.13853],[8.91252,53.13255],[8.92085,53.14443],[8.94478,53.15211],[8.95661,53.14716],[8.98329,53.12574],[8.98205,53.13025],[9.00403,53.13068],[9.00396,53.13591],[8.99125,53.13784],[8.99756,53.14494],[8.98265,53.14707],[8.98745,53.1571],[8.98499,53.16501],[8.97073,53.171],[8.9631,53.16674],[8.95577,53.18684],[8.97753,53.19513],[8.96053,53.21165],[8.93623,53.20237],[8.92751,53.20383],[8.90407,53.19473],[8.91337,53.18512],[8.87631,53.19607],[8.86492,53.19107],[8.83721,53.19222],[8.824,53.20363],[8.8061,53.19695]]]},"properties":{"plz":"28865","name":"28865 Lilienthal"}},{"type":"Feature","geometry":{"type":"Polygon","coordinates":[[[9.20464,53.03573],[9.18802,53.04758],[9.18208,53.05774],[9.18586,53.0636],[9.17867,53.07188],[9.17017,53.07124],[9.15123,53.08886],[9.15986,53.09114],[9.15254,53.10306],[9.17023,53.10015],[9.16837,53.10808],[9.18196,53.11626],[9.17303,53.1268],[9.17978,53.1405],[9.1936,53.14742],[9.18727,53.16019],[9.16911,53.16107],[9.16931,53.16893],[9.18418,53.16437],[9.19529,53.16967],[9.18285,53.18305],[9.17589,53.18452],[9.16152,53.17134],[9.1476,53.17256],[9.14172,53.16629],[9.13231,53.16736],[9.13178,53.15757],[9.1091,53.14411],[9.07135,53.15115],[9.06609,53.15214],[9.0576,53.13366],[9.03643,53.13241],[9.03711,53.12575],[9.00403,53.13068],[8.98205,53.13025],[8.98329,53.12574],[8.94933,53.11749],[8.96324,53.10043],[8.97035,53.10168],[8.99073,53.09656],[8.99408,53.09846],[9.03527,53.09757],[9.06781,53.10365],[9.08147,53.1007],[9.10638,53.10436],[9.09688,53.09986],[9.10183,53.08942],[9.11952,53.09017],[9.13387,53.08226],[9.14504,53.08164],[9.15109,53.06414],[9.12937,53.05632],[9.12497,53.05198],[9.1446,53.03773],[9.13403,53.03157],[9.15016,53.02612],[9.16578,53.02874],[9.15945,53.03346],[9.16892,53.03593],[9.1739,53.0261],[9.18589,53.01582],[9.20221,53.02425],[9.20464,53.03573]]]},"properties":{"plz":"28870","name":"28870 Ottersberg"}},{"type":"Feature","geometry":{"type":"Polygon","coordinates":[[[8.97801,53.04558],[8.99389,53.03599],[9.01,53.04567],[9.01616,53.04114],[9.02667,53.05067],[9.04212,53.04692],[9.04847,53.05212],[9.08201,53.0461],[9.08513,53.05375],[9.10128,53.04688],[9.12937,53.05632],[9.15109,53.06414],[9.14504,53.08164],[9.13387,53.08226],[9.11952,53.09017],[9.10183,53.08942],[9.09688,53.09986],[9.10638,53.10436],[9.08147,53.1007],[9.06781,53.10365],[9.03527,53.09757],[8.99408,53.09846],[8.99073,53.09656],[8.96541,53.0898],[8.96394,53.08372],[8.96517,53.05764],[8.97801,53.04558]]]},"properties":{"plz":"28876","name":"28876 Oyten"}},{"type":"Feature","geometry":{"type":"Polygon","coordinates":[[[9.02634,53.23212],[9.00958,53.24226],[8.96379,53.22495],[8.96053,53.21165],[8.97753,53.19513],[8.95577,53.18684],[8.9631,53.16674],[8.97073,53.171],[8.98499,53.16501],[8.98745,53.1571],[8.98265,53.14707],[8.99756,53.14494],[8.99125,53.13784],[9.00396,53.13591],[9.00403,53.13068],[9.03711,53.12575],[9.03643,53.13241],[9.0576,53.13366],[9.06609,53.15214],[9.07135,53.15115],[9.06103,53.17117],[9.03427,53.18472],[9.03989,53.18628],[9.02922,53.19608],[9.02793,53.21364],[9.03221,53.21766],[9.02634,53.23212]]]},"properties":{"plz":"28879","name":"28879 Grasberg"}}]}