{"type":"FeatureCollection","features":[{"type":"Feature","geometry":{"type":"Polygon","coordinates":[[[12.12867,54.09422],[12.12645,54.08038],[12.13761,54.07378],[12.15877,54.0686],[12.16987,54.06689],[12.19056,54.06928],[12.19089,54.07813],[12.19894,54.08085],[12.20111,54.0968],[12.19469,54.10488],[12.17208,54.09009],[12.15363,54.08811],[12.15065,54.09611],[12.12867,54.09422]]]},"properties":{"plz":"18055","name":"18055 Rostock"}},{"type":"Feature","geometry":{"type":"Polygon","coordinates":[[[12.12867,54.09422],[12.1136,54.09703],[12.10286,54.10447],[12.09663,54.10169],[12.10019,54.09286],[12.0928,54.08632],[12.07966,54.08774],[12.07048,54.08345],[12.09655,54.07931],[12.10963,54.08384],[12.12645,54.08038],[12.12867,54.09422]]]},"properties":{"plz":"18057","name":"18057 Rostock"}},{"type":"Feature","geometry":{"type":"Polygon","coordinates":[[[12.12645,54.08038],[12.10963,54.08384],[12.09655,54.07931],[12.07048,54.08345],[12.06462,54.08139],[12.06053,54.0759],[12.07365,54.06734],[12.07241,54.05709],[12.07944,54.05195],[12.06714,54.0441],[12.07145,54.03564],[12.05941,54.02826],[12.05023,54.03556],[12.03183,54.0308],[11.99988,54.03021],[11.99645,54.02034],[12.0069,54.00165],[12.0229,53.98916],[12.00514,53.98036],[12.01271,53.97679],[12.03894,53.97199],[12.05392,53.9774],[12.07287,53.97543],[12.0639,53.98215],[12.07045,53.98797],[12.06992,54.00221],[12.08446,53.99924],[12.08766,53.98934],[12.10414,53.98171],[12.12535,53.98689],[12.11822,53.99485],[12.12199,54.00962],[12.13443,54.01405],[12.13322,54.02183],[12.13998,54.03166],[12.17746,54.05265],[12.1754,54.06245],[12.15877,54.0686],[12.13761,54.07378],[12.12645,54.08038]]]},"properties":{"plz":"18059","name":"18059 Rostock, Papendorf u.a."}},{"type":"Feature","geometry":{"type":"Polygon","coordinates":[[[12.10286,54.10447],[12.09314,54.11784],[12.09488,54.12964],[12.07903,54.13146],[12.06907,54.12265],[12.07354,54.11807],[12.04804,54.11425],[12.0223,54.12297],[12.01862,54.11757],[11.99983,54.11658],[11.99393,54.10279],[11.98553,54.10243],[11.99173,54.09424],[11.9843,54.08869],[11.99762,54.07518],[12.01379,54.07531],[12.0169,54.08441],[12.03489,54.08598],[12.04641,54.09477],[12.06462,54.08139],[12.07048,54.08345],[12.07966,54.08774],[12.0928,54.08632],[12.10019,54.09286],[12.09663,54.10169],[12.10286,54.10447]]]},"properties":{"plz":"18069","name":"18069 Rostock, Lambrechtshagen"}},{"type":"Feature","geometry":{"type":"Polygon","coordinates":[[[12.09488,54.12964],[12.09163,54.1441],[12.07271,54.14362],[12.06485,54.13792],[12.06414,54.12988],[12.03388,54.13068],[12.01933,54.12878],[12.0223,54.12297],[12.04804,54.11425],[12.07354,54.11807],[12.06907,54.12265],[12.07903,54.13146],[12.09488,54.12964]]]},"properties":{"plz":"18106","name":"18106 Rostock"}},{"type":"Feature","geometry":{"type":"Polygon","coordinates":[[[12.06485,54.13792],[12.04859,54.15021],[12.02736,54.14402],[12.01957,54.15511],[12.03289,54.16296],[11.9984,54.17491],[11.98755,54.17254],[11.98774,54.16517],[11.97625,54.14704],[11.99385,54.14602],[11.99628,54.13958],[12.01019,54.12982],[12.01933,54.12878],[12.03388,54.13068],[12.06414,54.12988],[12.06485,54.13792]]]},"properties":{"plz":"18107","name":"18107 Elmenhorst/Lichtenhagen, Rostock"}},{"type":"Feature","geometry":{"type":"Polygon","coordinates":[[[12.09163,54.1441],[12.09746,54.15794],[12.08375,54.15599],[12.06912,54.16574],[12.03289,54.16296],[12.01957,54.15511],[12.02736,54.14402],[12.04859,54.15021],[12.06485,54.13792],[12.07271,54.14362],[12.09163,54.1441]]]},"properties":{"plz":"18109","name":"18109 Rostock"}},{"type":"Feature","geometry":{"type":"Polygon","coordinates":[[[12.03289,54.16296],[12.06912,54.16574],[12.08375,54.15599],[12.09746,54.15794],[12.09868,54.16181],[12.12647,54.16776],[12.14016,54.17329],[12.13939,54.18447],[12.13041,54.18765],[12.109,54.17857],[12.09116,54.18721],[12.06552,54.17851],[12.03628,54.17615],[12.01174,54.17821],[11.9984,54.17491],[12.03289,54.16296]]]},"properties":{"plz":"18119","name":"18119 Rostock"}},{"type":"Feature","geometry":{"type":"Polygon","coordinates":[[[12.19469,54.10488],[12.17148,54.11569],[12.17294,54.12887],[12.1842,54.13459],[12.19009,54.14797],[12.18295,54.159],[12.17555,54.1617],[12.20006,54.16892],[12.21318,54.18529],[12.22634,54.18262],[12.26677,54.18411],[12.29547,54.19535],[12.26344,54.21506],[12.26497,54.2276],[12.22187,54.22197],[12.18789,54.22388],[12.17807,54.23094],[12.13041,54.18765],[12.13939,54.18447],[12.14016,54.17329],[12.12647,54.16776],[12.14312,54.16135],[12.14983,54.15212],[12.16027,54.15081],[12.16502,54.14332],[12.15324,54.13709],[12.13755,54.14039],[12.14644,54.12997],[12.1641,54.13181],[12.15678,54.12449],[12.16627,54.11766],[12.15637,54.10852],[12.14465,54.11342],[12.14144,54.10639],[12.15411,54.10063],[12.15065,54.09611],[12.15363,54.08811],[12.17208,54.09009],[12.19469,54.10488]]]},"properties":{"plz":"18146","name":"18146 Rostock"}},{"type":"Feature","geometry":{"type":"Polygon","coordinates":[[[12.15065,54.09611],[12.15411,54.10063],[12.14144,54.10639],[12.14465,54.11342],[12.15637,54.10852],[12.16627,54.11766],[12.15678,54.12449],[12.1641,54.13181],[12.14644,54.12997],[12.13755,54.14039],[12.15324,54.13709],[12.16502,54.14332],[12.16027,54.15081],[12.14983,54.15212],[12.14312,54.16135],[12.12647,54.16776],[12.09868,54.16181],[12.09746,54.15794],[12.09163,54.1441],[12.09488,54.12964],[12.09314,54.11784],[12.10286,54.10447],[12.1136,54.09703],[12.12867,54.09422],[12.15065,54.09611]]]},"properties":{"plz":"18147","name":"18147 Rostock"}},{"type":"Feature","geometry":{"type":"Polygon","coordinates":[[[12.26497,54.2276],[12.2679,54.24672],[12.25542,54.25221],[12.28087,54.25798],[12.28012,54.26094],[12.28459,54.27464],[12.19972,54.24462],[12.17807,54.23094],[12.18789,54.22388],[12.22187,54.22197],[12.26497,54.2276]]]},"properties":{"plz":"18181","name":"18181 Rostock, Graal-Müritz"}},{"type":"Feature","geometry":{"type":"Polygon","coordinates":[[[12.20111,54.0968],[12.22521,54.1],[12.23355,54.10532],[12.24922,54.1034],[12.25079,54.11091],[12.27427,54.1149],[12.27909,54.12252],[12.26996,54.12795],[12.27298,54.13797],[12.28885,54.14706],[12.28921,54.15472],[12.28004,54.16378],[12.30251,54.1695],[12.32093,54.16544],[12.31642,54.16168],[12.3338,54.15799],[12.30548,54.142],[12.32319,54.13657],[12.32273,54.12777],[12.35252,54.12407],[12.34891,54.11032],[12.36574,54.11876],[12.38455,54.12106],[12.3841,54.13579],[12.37296,54.15276],[12.38227,54.15739],[12.36534,54.16291],[12.37499,54.17707],[12.35832,54.17852],[12.35547,54.18463],[12.37293,54.19063],[12.37144,54.2081],[12.35197,54.21129],[12.34963,54.22196],[12.32982,54.2245],[12.33185,54.22893],[12.31149,54.23417],[12.31201,54.24967],[12.3004,54.25541],[12.28012,54.26094],[12.28087,54.25798],[12.25542,54.25221],[12.2679,54.24672],[12.26497,54.2276],[12.26344,54.21506],[12.29547,54.19535],[12.26677,54.18411],[12.22634,54.18262],[12.21318,54.18529],[12.20006,54.16892],[12.17555,54.1617],[12.18295,54.159],[12.19009,54.14797],[12.1842,54.13459],[12.17294,54.12887],[12.17148,54.11569],[12.19469,54.10488],[12.20111,54.0968]]]},"properties":{"plz":"18182","name":"18182 Rostock, Gelbensande, Rövershagen u.a."}},{"type":"Feature","geometry":{"type":"Polygon","coordinates":[[[12.19056,54.06928],[12.20261,54.06386],[12.19741,54.05723],[12.22204,54.05096],[12.24755,54.04938],[12.2581,54.06136],[12.26809,54.0641],[12.3152,54.05412],[12.31688,54.0617],[12.30083,54.07269],[12.29709,54.08449],[12.33201,54.08536],[12.3542,54.09613],[12.34891,54.11032],[12.35252,54.12407],[12.32273,54.12777],[12.32319,54.13657],[12.30548,54.142],[12.3338,54.15799],[12.31642,54.16168],[12.32093,54.16544],[12.30251,54.1695],[12.28004,54.16378],[12.28921,54.15472],[12.28885,54.14706],[12.27298,54.13797],[12.26996,54.12795],[12.27909,54.12252],[12.27427,54.1149],[12.25079,54.11091],[12.24922,54.1034],[12.23355,54.10532],[12.22521,54.1],[12.20111,54.0968],[12.19894,54.08085],[12.19089,54.07813],[12.19056,54.06928]]]},"properties":{"plz":"18184","name":"18184 Roggentin, Broderstorf u.a."}},{"type":"Feature","geometry":{"type":"Polygon","coordinates":[[[12.34891,54.11032],[12.3542,54.09613],[12.33201,54.08536],[12.29709,54.08449],[12.30083,54.07269],[12.31688,54.0617],[12.3152,54.05412],[12.33536,54.03783],[12.3318,54.02631],[12.33776,54.02192],[12.33044,54.01613],[12.33002,54.00128],[12.33977,53.99558],[12.36594,54.00912],[12.37881,54.02667],[12.39238,54.02414],[12.40099,54.02988],[12.42284,54.03267],[12.42219,54.05459],[12.43007,54.05796],[12.44787,54.05636],[12.45562,54.06236],[12.44616,54.07929],[12.46391,54.09305],[12.45515,54.10509],[12.46055,54.10664],[12.44987,54.11686],[12.43558,54.12441],[12.42442,54.11617],[12.39555,54.11169],[12.38594,54.11332],[12.38455,54.12106],[12.36574,54.11876],[12.34891,54.11032]]]},"properties":{"plz":"18190","name":"18190 Sanitz"}},{"type":"Feature","geometry":{"type":"Polygon","coordinates":[[[12.65924,54.0465],[12.6278,54.06761],[12.61351,54.07041],[12.60719,54.07811],[12.59334,54.07067],[12.58065,54.07142],[12.55654,54.09342],[12.53979,54.08785],[12.51837,54.09546],[12.49453,54.0912],[12.48371,54.09761],[12.46391,54.09305],[12.44616,54.07929],[12.45562,54.06236],[12.44787,54.05636],[12.43007,54.05796],[12.42219,54.05459],[12.42284,54.03267],[12.40099,54.02988],[12.39238,54.02414],[12.37881,54.02667],[12.36594,54.00912],[12.33977,53.99558],[12.34455,53.98459],[12.33563,53.98085],[12.34552,53.96473],[12.36785,53.95953],[12.37523,53.96948],[12.40086,53.97892],[12.4098,53.97797],[12.42594,53.98482],[12.4547,53.98281],[12.46753,53.97591],[12.4771,53.97645],[12.47487,53.96946],[12.48022,53.9579],[12.49634,53.95727],[12.51324,53.95113],[12.51749,53.95722],[12.51046,53.97424],[12.55198,53.97786],[12.5468,53.98243],[12.55976,53.99361],[12.53894,54.00433],[12.52348,54.0054],[12.51986,54.01081],[12.55087,54.00573],[12.56858,54.01549],[12.61695,54.0049],[12.62923,54.03231],[12.64634,54.03396],[12.6582,54.0403],[12.65924,54.0465]]]},"properties":{"plz":"18195","name":"18195 Tessin, Grammow u.a."}},{"type":"Feature","geometry":{"type":"Polygon","coordinates":[[[12.15877,54.0686],[12.1754,54.06245],[12.17746,54.05265],[12.13998,54.03166],[12.13322,54.02183],[12.13443,54.01405],[12.12199,54.00962],[12.11822,53.99485],[12.12535,53.98689],[12.12644,53.9758],[12.13925,53.9712],[12.16199,53.96985],[12.17744,53.97343],[12.18946,53.96237],[12.19161,53.97689],[12.20564,53.97748],[12.2142,53.96226],[12.24862,53.96486],[12.28127,53.95476],[12.30083,53.95517],[12.28263,53.97295],[12.30012,53.99037],[12.30874,53.98898],[12.33002,54.00128],[12.33044,54.01613],[12.33776,54.02192],[12.3318,54.02631],[12.33536,54.03783],[12.3152,54.05412],[12.26809,54.0641],[12.2581,54.06136],[12.24755,54.04938],[12.22204,54.05096],[12.19741,54.05723],[12.20261,54.06386],[12.19056,54.06928],[12.16987,54.06689],[12.15877,54.0686]]]},"properties":{"plz":"18196","name":"18196 Dummerstorf"}},{"type":"Feature","geometry":{"type":"Polygon","coordinates":[[[12.06462,54.08139],[12.04641,54.09477],[12.03489,54.08598],[12.0169,54.08441],[12.01379,54.07531],[11.99762,54.07518],[11.99065,54.06142],[12.00273,54.05071],[11.98172,54.04555],[11.97103,54.03566],[11.984,54.03695],[11.99988,54.03021],[12.03183,54.0308],[12.05023,54.03556],[12.05941,54.02826],[12.07145,54.03564],[12.06714,54.0441],[12.07944,54.05195],[12.07241,54.05709],[12.07365,54.06734],[12.06053,54.0759],[12.06462,54.08139]]]},"properties":{"plz":"18198","name":"18198 Stäbelow, Kritzmow"}},{"type":"Feature","geometry":{"type":"Polygon","coordinates":[[[11.98553,54.10243],[11.97562,54.1107],[11.94861,54.11245],[11.93829,54.12177],[11.91806,54.12584],[11.90573,54.13552],[11.87723,54.13755],[11.85857,54.14604],[11.81548,54.14522],[11.78357,54.1489],[11.78566,54.13856],[11.77655,54.13037],[11.77596,54.11428],[11.78286,54.10456],[11.79218,54.10748],[11.80945,54.10022],[11.80988,54.08966],[11.82899,54.08602],[11.82996,54.0776],[11.84846,54.07427],[11.85658,54.07657],[11.86987,54.07866],[11.87116,54.08857],[11.8949,54.09673],[11.90369,54.08455],[11.89238,54.06708],[11.89416,54.06124],[11.91359,54.05849],[11.92693,54.07852],[11.9513,54.07934],[11.9378,54.07209],[11.94038,54.06264],[11.9603,54.06744],[11.96863,54.06265],[11.98208,54.07026],[11.99065,54.06142],[11.99762,54.07518],[11.9843,54.08869],[11.99173,54.09424],[11.98553,54.10243]]]},"properties":{"plz":"18209","name":"18209 Bad Doberan, Bartenshagen-Parkentin u.a."}},{"type":"Feature","geometry":{"type":"MultiPolygon","coordinates":[[[[12.0223,54.12297],[12.01933,54.12878],[12.01019,54.12982],[11.99628,54.13958],[11.99385,54.14602],[11.97625,54.14704],[11.98774,54.16517],[11.98755,54.17254],[11.85857,54.14604],[11.87723,54.13755],[11.90573,54.13552],[11.91806,54.12584],[11.93829,54.12177],[11.94861,54.11245],[11.97562,54.1107],[11.98553,54.10243],[11.99393,54.10279],[11.99983,54.11658],[12.01862,54.11757],[12.0223,54.12297]]],[[[11.85658,54.07657],[11.86225,54.0739],[11.86318,54.05471],[11.84751,54.05845],[11.83804,54.05336],[11.84503,54.04316],[11.85345,54.04456],[11.86432,54.03285],[11.8968,54.03321],[11.90946,54.04741],[11.90731,54.05124],[11.93695,54.05253],[11.94038,54.06264],[11.9378,54.07209],[11.9513,54.07934],[11.92693,54.07852],[11.91359,54.05849],[11.89416,54.06124],[11.89238,54.06708],[11.90369,54.08455],[11.8949,54.09673],[11.87116,54.08857],[11.86987,54.07866],[11.85658,54.07657]]]]},"properties":{"plz":"18211","name":"18211 Retschow, Admannshagen-Bargeshagen u.a."}},{"type":"Feature","geometry":{"type":"Polygon","coordinates":[[[11.78357,54.1489],[11.76842,54.15589],[11.74256,54.15363],[11.69468,54.15396],[11.69357,54.14089],[11.73072,54.13425],[11.72988,54.12311],[11.75636,54.12252],[11.77596,54.11428],[11.77655,54.13037],[11.78566,54.13856],[11.78357,54.1489]]]},"properties":{"plz":"18225","name":"18225 Kühlungsborn"}},{"type":"Feature","geometry":{"type":"Polygon","coordinates":[[[11.69468,54.15396],[11.67769,54.15103],[11.60635,54.10503],[11.58949,54.09947],[11.56451,54.09793],[11.55358,54.09333],[11.52575,54.07171],[11.51381,54.05819],[11.51534,54.03775],[11.51755,54.0613],[11.53469,54.07399],[11.5372,54.05623],[11.54267,54.05544],[11.54843,54.06689],[11.55576,54.06804],[11.60011,54.10005],[11.61417,54.10237],[11.62658,54.08949],[11.62548,54.07711],[11.61398,54.06991],[11.62181,54.06122],[11.63607,54.05901],[11.63911,54.04852],[11.66632,54.0469],[11.67483,54.0595],[11.6948,54.04991],[11.68287,54.03729],[11.69352,54.0412],[11.69867,54.02781],[11.71143,54.02817],[11.73955,54.01889],[11.76209,54.01756],[11.77441,54.02518],[11.76724,54.04202],[11.76203,54.04237],[11.76497,54.05616],[11.74626,54.05872],[11.74893,54.07107],[11.74264,54.07209],[11.75149,54.08827],[11.74058,54.09495],[11.7174,54.10225],[11.72046,54.11781],[11.72988,54.12311],[11.73072,54.13425],[11.69357,54.14089],[11.69468,54.15396]]]},"properties":{"plz":"18230","name":"18230 Rerik, Bastorf, Biendorf"}},{"type":"Feature","geometry":{"type":"Polygon","coordinates":[[[11.61398,54.06991],[11.58217,54.0636],[11.58761,54.04684],[11.57758,54.03632],[11.56154,54.02802],[11.5794,54.01884],[11.58041,54.00654],[11.58891,54.00225],[11.58172,53.99305],[11.58692,53.98692],[11.61368,53.98595],[11.61306,53.99411],[11.65762,53.98524],[11.66013,53.97983],[11.65164,53.97324],[11.66261,53.9716],[11.67772,53.96196],[11.66683,53.95496],[11.67382,53.93579],[11.68661,53.93419],[11.69992,53.94889],[11.69755,53.95374],[11.72498,53.95619],[11.73158,53.95287],[11.74714,53.95921],[11.74107,53.96918],[11.74581,53.97401],[11.7602,53.9729],[11.76446,53.97732],[11.75917,53.9912],[11.75108,53.99482],[11.73213,53.99412],[11.72513,54.00153],[11.73955,54.01889],[11.71143,54.02817],[11.69867,54.02781],[11.69352,54.0412],[11.68287,54.03729],[11.6948,54.04991],[11.67483,54.0595],[11.66632,54.0469],[11.63911,54.04852],[11.63607,54.05901],[11.62181,54.06122],[11.61398,54.06991]]]},"properties":{"plz":"18233","name":"18233 Neubukow, Ravensberg u.a."}},{"type":"Feature","geometry":{"type":"Polygon","coordinates":[[[11.77596,54.11428],[11.75636,54.12252],[11.72988,54.12311],[11.72046,54.11781],[11.7174,54.10225],[11.74058,54.09495],[11.75149,54.08827],[11.74264,54.07209],[11.74893,54.07107],[11.74626,54.05872],[11.76497,54.05616],[11.76203,54.04237],[11.76724,54.04202],[11.77441,54.02518],[11.76209,54.01756],[11.73955,54.01889],[11.72513,54.00153],[11.73213,53.99412],[11.75108,53.99482],[11.75917,53.9912],[11.76446,53.97732],[11.78184,53.97459],[11.79095,53.98316],[11.78755,53.98987],[11.79065,54.00508],[11.81844,54.00185],[11.8282,54.00732],[11.84609,54.00931],[11.8462,54.02039],[11.86432,54.03285],[11.85345,54.04456],[11.84503,54.04316],[11.83804,54.05336],[11.84751,54.05845],[11.86318,54.05471],[11.86225,54.0739],[11.85658,54.07657],[11.84846,54.07427],[11.82996,54.0776],[11.82899,54.08602],[11.80988,54.08966],[11.80945,54.10022],[11.79218,54.10748],[11.78286,54.10456],[11.77596,54.11428]]]},"properties":{"plz":"18236","name":"18236 Kröpelin, Carinerland"}},{"type":"Feature","geometry":{"type":"Polygon","coordinates":[[[11.99988,54.03021],[11.984,54.03695],[11.97103,54.03566],[11.98172,54.04555],[12.00273,54.05071],[11.99065,54.06142],[11.98208,54.07026],[11.96863,54.06265],[11.9603,54.06744],[11.94038,54.06264],[11.93695,54.05253],[11.90731,54.05124],[11.90946,54.04741],[11.8968,54.03321],[11.86432,54.03285],[11.8462,54.02039],[11.84609,54.00931],[11.8282,54.00732],[11.81844,54.00185],[11.79065,54.00508],[11.78755,53.98987],[11.79095,53.98316],[11.78184,53.97459],[11.80495,53.96629],[11.79791,53.96277],[11.79525,53.94242],[11.80402,53.93803],[11.82784,53.94158],[11.84677,53.93342],[11.84635,53.9434],[11.8581,53.95246],[11.86553,53.94847],[11.87582,53.9681],[11.8907,53.96966],[11.90451,53.98186],[11.92895,53.9855],[11.92456,53.97469],[11.9382,53.95933],[11.96986,53.96263],[11.98564,53.96848],[11.99836,53.96291],[12.01271,53.97679],[12.00514,53.98036],[12.0229,53.98916],[12.0069,54.00165],[11.99645,54.02034],[11.99988,54.03021]]]},"properties":{"plz":"18239","name":"18239 Satow"}},{"type":"Feature","geometry":{"type":"Polygon","coordinates":[[[11.79525,53.94242],[11.79065,53.93561],[11.80132,53.9296],[11.80513,53.91854],[11.78791,53.89494],[11.79831,53.89132],[11.79228,53.8857],[11.77061,53.88241],[11.7618,53.87274],[11.77862,53.86282],[11.75911,53.85161],[11.76719,53.84553],[11.76067,53.83335],[11.77067,53.83042],[11.75733,53.82408],[11.77893,53.82],[11.79062,53.82245],[11.80341,53.83103],[11.80839,53.84307],[11.81779,53.84391],[11.83211,53.85254],[11.81438,53.85737],[11.81559,53.86828],[11.82573,53.87542],[11.86339,53.8839],[11.86694,53.89099],[11.85948,53.89455],[11.83899,53.89041],[11.83651,53.89548],[11.85771,53.90897],[11.85888,53.91715],[11.8751,53.91778],[11.8756,53.92398],[11.89458,53.93232],[11.91144,53.94515],[11.90759,53.92635],[11.93382,53.92448],[11.94153,53.9287],[11.95,53.91393],[11.9437,53.903],[11.90688,53.8855],[11.88763,53.88261],[11.88526,53.87245],[11.88967,53.85917],[11.87758,53.85552],[11.88002,53.8478],[11.89244,53.83695],[11.86651,53.83198],[11.85192,53.83522],[11.84349,53.82208],[11.82469,53.81638],[11.8368,53.79937],[11.84752,53.80096],[11.85333,53.79409],[11.8676,53.795],[11.87727,53.79077],[11.88246,53.79484],[11.91263,53.79868],[11.9291,53.81097],[11.94547,53.81665],[11.95842,53.80704],[11.98561,53.81039],[11.99167,53.80361],[12.01257,53.8042],[12.01887,53.81224],[12.02775,53.81778],[12.04956,53.81837],[12.06778,53.82519],[12.06771,53.83572],[12.07401,53.83711],[12.07773,53.85164],[12.0939,53.86327],[12.08141,53.86347],[12.04543,53.88278],[12.02102,53.87266],[12.03624,53.90174],[12.01855,53.90965],[12.00164,53.91354],[11.98839,53.91287],[11.98571,53.92395],[11.99662,53.92942],[11.98871,53.9405],[11.99659,53.9409],[12.00682,53.9569],[11.99836,53.96291],[11.98564,53.96848],[11.96986,53.96263],[11.9382,53.95933],[11.92456,53.97469],[11.92895,53.9855],[11.90451,53.98186],[11.8907,53.96966],[11.87582,53.9681],[11.86553,53.94847],[11.8581,53.95246],[11.84635,53.9434],[11.84677,53.93342],[11.82784,53.94158],[11.80402,53.93803],[11.79525,53.94242]]]},"properties":{"plz":"18246","name":"18246 Bützow u.a."}},{"type":"Feature","geometry":{"type":"Polygon","coordinates":[[[11.79062,53.82245],[11.80141,53.81825],[11.80225,53.80921],[11.81056,53.79521],[11.7917,53.77841],[11.79711,53.77092],[11.82662,53.76263],[11.84144,53.76395],[11.83817,53.75133],[11.86921,53.74419],[11.88293,53.7368],[11.90478,53.7322],[11.90783,53.73797],[11.92901,53.73919],[11.93495,53.74278],[11.95869,53.73823],[11.97833,53.74367],[11.99653,53.73603],[12.01537,53.74498],[12.00935,53.75221],[12.04386,53.77051],[12.0495,53.79267],[12.03532,53.79169],[12.03609,53.79945],[12.02365,53.80393],[12.01887,53.81224],[12.01257,53.8042],[11.99167,53.80361],[11.98561,53.81039],[11.95842,53.80704],[11.94547,53.81665],[11.9291,53.81097],[11.91263,53.79868],[11.88246,53.79484],[11.87727,53.79077],[11.8676,53.795],[11.85333,53.79409],[11.84752,53.80096],[11.8368,53.79937],[11.82469,53.81638],[11.84349,53.82208],[11.85192,53.83522],[11.86651,53.83198],[11.89244,53.83695],[11.88002,53.8478],[11.87758,53.85552],[11.88967,53.85917],[11.88526,53.87245],[11.88763,53.88261],[11.90688,53.8855],[11.9437,53.903],[11.95,53.91393],[11.94153,53.9287],[11.93382,53.92448],[11.90759,53.92635],[11.91144,53.94515],[11.89458,53.93232],[11.8756,53.92398],[11.8751,53.91778],[11.85888,53.91715],[11.85771,53.90897],[11.83651,53.89548],[11.83899,53.89041],[11.85948,53.89455],[11.86694,53.89099],[11.86339,53.8839],[11.82573,53.87542],[11.81559,53.86828],[11.81438,53.85737],[11.83211,53.85254],[11.81779,53.84391],[11.80839,53.84307],[11.80341,53.83103],[11.79062,53.82245]]]},"properties":{"plz":"18249","name":"18249 Bernitt, Qualitz, Warnow, Zernin u.a."}},{"type":"Feature","geometry":{"type":"Polygon","coordinates":[[[12.01271,53.97679],[11.99836,53.96291],[12.00682,53.9569],[11.99659,53.9409],[11.98871,53.9405],[11.99662,53.92942],[11.98571,53.92395],[11.98839,53.91287],[12.00164,53.91354],[12.01855,53.90965],[12.03624,53.90174],[12.02102,53.87266],[12.04543,53.88278],[12.08141,53.86347],[12.0939,53.86327],[12.09991,53.86019],[12.11159,53.86484],[12.11357,53.87672],[12.1229,53.87979],[12.11183,53.90292],[12.13389,53.89432],[12.1755,53.89275],[12.17234,53.90426],[12.17862,53.91101],[12.16584,53.91357],[12.15989,53.92825],[12.17523,53.94578],[12.18511,53.94558],[12.18946,53.96237],[12.17744,53.97343],[12.16199,53.96985],[12.13925,53.9712],[12.12644,53.9758],[12.12535,53.98689],[12.10414,53.98171],[12.08766,53.98934],[12.08446,53.99924],[12.06992,54.00221],[12.07045,53.98797],[12.0639,53.98215],[12.07287,53.97543],[12.05392,53.9774],[12.03894,53.97199],[12.01271,53.97679]]]},"properties":{"plz":"18258","name":"18258 Schwaan u.a."}},{"type":"Feature","geometry":{"type":"Polygon","coordinates":[[[12.28677,53.79117],[12.25598,53.79272],[12.2651,53.7996],[12.24438,53.81758],[12.25692,53.83111],[12.2336,53.83173],[12.20662,53.83711],[12.19582,53.83596],[12.18372,53.82139],[12.17193,53.82364],[12.15329,53.81689],[12.14299,53.81932],[12.12904,53.81637],[12.13016,53.81043],[12.11902,53.79697],[12.1334,53.7877],[12.12627,53.78579],[12.13705,53.77884],[12.13454,53.7691],[12.14782,53.77095],[12.15639,53.76341],[12.13751,53.75592],[12.15452,53.75092],[12.17274,53.75785],[12.18828,53.7576],[12.20227,53.76134],[12.21433,53.76913],[12.21627,53.76417],[12.2338,53.76718],[12.2335,53.76084],[12.25239,53.75685],[12.25992,53.75895],[12.28306,53.75457],[12.29222,53.75639],[12.29445,53.78246],[12.28677,53.79117]]]},"properties":{"plz":"18273","name":"18273 Güstrow"}},{"type":"Feature","geometry":{"type":"Polygon","coordinates":[[[12.01887,53.81224],[12.02365,53.80393],[12.03609,53.79945],[12.03532,53.79169],[12.0495,53.79267],[12.04386,53.77051],[12.00935,53.75221],[12.01537,53.74498],[11.99653,53.73603],[11.97489,53.72921],[11.9758,53.72439],[12.0003,53.72771],[12.00774,53.71413],[12.0223,53.71204],[12.02008,53.71819],[12.03532,53.71388],[12.02791,53.70582],[12.03375,53.70077],[12.02645,53.69206],[12.04415,53.6745],[12.05041,53.6658],[12.06988,53.66152],[12.08083,53.64811],[12.09434,53.64267],[12.1085,53.64242],[12.12008,53.64773],[12.13814,53.63643],[12.14941,53.6357],[12.18272,53.64219],[12.19867,53.64255],[12.20658,53.66415],[12.22342,53.66583],[12.24465,53.65771],[12.25173,53.66543],[12.24772,53.67143],[12.25103,53.68337],[12.24265,53.69178],[12.23137,53.68449],[12.19936,53.6824],[12.19899,53.67163],[12.18575,53.67203],[12.19282,53.67925],[12.19387,53.69],[12.16765,53.69621],[12.16594,53.71415],[12.16938,53.72272],[12.19311,53.72714],[12.20603,53.72489],[12.21671,53.72967],[12.22897,53.72766],[12.23353,53.72002],[12.25041,53.71903],[12.25831,53.72499],[12.2539,53.73106],[12.26214,53.73617],[12.25515,53.74416],[12.28578,53.74823],[12.28306,53.75457],[12.25992,53.75895],[12.25239,53.75685],[12.2335,53.76084],[12.2338,53.76718],[12.21627,53.76417],[12.21433,53.76913],[12.20227,53.76134],[12.18828,53.7576],[12.17274,53.75785],[12.15452,53.75092],[12.13751,53.75592],[12.15639,53.76341],[12.14782,53.77095],[12.13454,53.7691],[12.13705,53.77884],[12.12627,53.78579],[12.1334,53.7877],[12.11902,53.79697],[12.13016,53.81043],[12.12904,53.81637],[12.14299,53.81932],[12.15329,53.81689],[12.17193,53.82364],[12.18372,53.82139],[12.19582,53.83596],[12.20662,53.83711],[12.2336,53.83173],[12.25692,53.83111],[12.24438,53.81758],[12.2651,53.7996],[12.25598,53.79272],[12.28677,53.79117],[12.30326,53.80061],[12.33387,53.80634],[12.34954,53.79646],[12.36142,53.81053],[12.36044,53.82217],[12.37339,53.83431],[12.37464,53.84092],[12.36668,53.85358],[12.35634,53.85616],[12.34634,53.8517],[12.32475,53.85208],[12.33439,53.86555],[12.30704,53.8666],[12.29874,53.87603],[12.26488,53.88178],[12.23849,53.8722],[12.23539,53.86669],[12.21831,53.87657],[12.21462,53.889],[12.17421,53.88351],[12.1755,53.89275],[12.13389,53.89432],[12.11183,53.90292],[12.1229,53.87979],[12.11357,53.87672],[12.11159,53.86484],[12.09991,53.86019],[12.0939,53.86327],[12.07773,53.85164],[12.07401,53.83711],[12.06771,53.83572],[12.06778,53.82519],[12.04956,53.81837],[12.02775,53.81778],[12.01887,53.81224]]]},"properties":{"plz":"18276","name":"18276 Reimershagen, Lohmen, Zehna, Hägerfelde u.a."}},{"type":"Feature","geometry":{"type":"Polygon","coordinates":[[[12.50085,53.94263],[12.51324,53.95113],[12.49634,53.95727],[12.48022,53.9579],[12.47487,53.96946],[12.4771,53.97645],[12.46753,53.97591],[12.4547,53.98281],[12.42594,53.98482],[12.4098,53.97797],[12.40086,53.97892],[12.37523,53.96948],[12.36785,53.95953],[12.34552,53.96473],[12.33563,53.98085],[12.34455,53.98459],[12.33977,53.99558],[12.33002,54.00128],[12.30874,53.98898],[12.30012,53.99037],[12.28263,53.97295],[12.30083,53.95517],[12.28127,53.95476],[12.24862,53.96486],[12.2142,53.96226],[12.20564,53.97748],[12.19161,53.97689],[12.18946,53.96237],[12.18511,53.94558],[12.17523,53.94578],[12.15989,53.92825],[12.16584,53.91357],[12.17862,53.91101],[12.17234,53.90426],[12.1755,53.89275],[12.17421,53.88351],[12.21462,53.889],[12.21831,53.87657],[12.23539,53.86669],[12.23849,53.8722],[12.26488,53.88178],[12.29874,53.87603],[12.30704,53.8666],[12.33439,53.86555],[12.32475,53.85208],[12.34634,53.8517],[12.35634,53.85616],[12.36668,53.85358],[12.37464,53.84092],[12.37339,53.83431],[12.41166,53.83094],[12.41084,53.82507],[12.42895,53.82292],[12.43998,53.83739],[12.43908,53.85018],[12.45465,53.85577],[12.44635,53.8633],[12.43248,53.86489],[12.44002,53.88298],[12.42318,53.88064],[12.43985,53.89616],[12.44882,53.89392],[12.44921,53.90166],[12.46282,53.90164],[12.46359,53.91946],[12.47415,53.92595],[12.47876,53.93968],[12.50085,53.94263]]]},"properties":{"plz":"18299","name":"18299 Laage, Wardow u.a."}},{"type":"Feature","geometry":{"type":"Polygon","coordinates":[[[12.37293,54.19063],[12.38032,54.1887],[12.4125,54.19364],[12.42047,54.20122],[12.44398,54.2066],[12.4626,54.21582],[12.50242,54.21347],[12.50423,54.22121],[12.51248,54.21789],[12.52496,54.23127],[12.51174,54.23378],[12.49699,54.24262],[12.48927,54.24275],[12.50155,54.25483],[12.52076,54.25571],[12.53127,54.27153],[12.51116,54.27413],[12.51581,54.2777],[12.5064,54.2857],[12.47929,54.2859],[12.46797,54.29538],[12.47888,54.30414],[12.43455,54.29658],[12.41718,54.2889],[12.40785,54.27722],[12.40964,54.26795],[12.41847,54.25815],[12.44944,54.25447],[12.45991,54.24805],[12.43562,54.24501],[12.39933,54.25055],[12.37723,54.26089],[12.36532,54.24991],[12.34213,54.25022],[12.3004,54.25541],[12.31201,54.24967],[12.31149,54.23417],[12.33185,54.22893],[12.32982,54.2245],[12.34963,54.22196],[12.35197,54.21129],[12.37144,54.2081],[12.37293,54.19063]]]},"properties":{"plz":"18311","name":"18311 Ribnitz-Damgarten"}},{"type":"Feature","geometry":{"type":"Polygon","coordinates":[[[12.53127,54.27153],[12.53114,54.28082],[12.55968,54.2781],[12.5631,54.28495],[12.57277,54.28229],[12.60772,54.28759],[12.60392,54.29933],[12.59079,54.30269],[12.58536,54.31406],[12.59915,54.31157],[12.60194,54.32966],[12.5891,54.33946],[12.58989,54.34496],[12.57087,54.33727],[12.56854,54.32642],[12.5493,54.33014],[12.55009,54.3425],[12.5576,54.34639],[12.55297,54.35641],[12.53886,54.35231],[12.54067,54.34325],[12.52689,54.3341],[12.51551,54.33557],[12.49581,54.33033],[12.47265,54.32954],[12.47155,54.32244],[12.47946,54.31245],[12.47888,54.30414],[12.46797,54.29538],[12.47929,54.2859],[12.5064,54.2857],[12.51581,54.2777],[12.51116,54.27413],[12.53127,54.27153]]]},"properties":{"plz":"18317","name":"18317 Saal"}},{"type":"Feature","geometry":{"type":"Polygon","coordinates":[[[12.52496,54.23127],[12.54739,54.22037],[12.54486,54.21262],[12.55718,54.21292],[12.55086,54.20682],[12.57225,54.18858],[12.59214,54.19323],[12.60287,54.18887],[12.62822,54.19596],[12.63566,54.20803],[12.64907,54.20445],[12.65212,54.20937],[12.67182,54.20227],[12.67649,54.20878],[12.69736,54.20575],[12.71044,54.21974],[12.71229,54.22678],[12.73001,54.23635],[12.7364,54.24135],[12.72305,54.24627],[12.72996,54.25225],[12.72088,54.25473],[12.72651,54.26684],[12.71851,54.26312],[12.70128,54.27312],[12.68278,54.27915],[12.67064,54.28795],[12.64085,54.28982],[12.60947,54.28527],[12.60772,54.28759],[12.57277,54.28229],[12.5631,54.28495],[12.55968,54.2781],[12.53114,54.28082],[12.53127,54.27153],[12.52076,54.25571],[12.50155,54.25483],[12.48927,54.24275],[12.49699,54.24262],[12.51174,54.23378],[12.52496,54.23127]]]},"properties":{"plz":"18320","name":"18320 Ahrenshagen-Daskow, Trinwillershagen u.a."}},{"type":"Feature","geometry":{"type":"Polygon","coordinates":[[[12.7457,54.03329],[12.7417,54.04506],[12.74788,54.05393],[12.73183,54.06081],[12.74418,54.06742],[12.74185,54.07632],[12.72987,54.08708],[12.71893,54.08969],[12.69749,54.11865],[12.71636,54.11263],[12.72901,54.12876],[12.72392,54.15055],[12.73746,54.15611],[12.7391,54.17233],[12.7511,54.16952],[12.75731,54.1745],[12.79888,54.17751],[12.79128,54.18539],[12.77964,54.18555],[12.76764,54.19416],[12.75188,54.19557],[12.74895,54.23031],[12.75856,54.23328],[12.73155,54.23265],[12.73001,54.23635],[12.71229,54.22678],[12.71044,54.21974],[12.69736,54.20575],[12.67649,54.20878],[12.67182,54.20227],[12.65212,54.20937],[12.64907,54.20445],[12.63566,54.20803],[12.62822,54.19596],[12.60287,54.18887],[12.59214,54.19323],[12.57225,54.18858],[12.56588,54.18398],[12.58004,54.1824],[12.58588,54.17603],[12.57906,54.17098],[12.60296,54.15455],[12.63447,54.14263],[12.64271,54.13713],[12.62888,54.12278],[12.61933,54.11967],[12.60052,54.10475],[12.57094,54.10775],[12.58026,54.11779],[12.54137,54.1338],[12.51549,54.13015],[12.49283,54.13225],[12.49401,54.12404],[12.45286,54.13251],[12.43558,54.12441],[12.44987,54.11686],[12.46055,54.10664],[12.45515,54.10509],[12.46391,54.09305],[12.48371,54.09761],[12.49453,54.0912],[12.51837,54.09546],[12.53979,54.08785],[12.55654,54.09342],[12.58065,54.07142],[12.59334,54.07067],[12.60719,54.07811],[12.61351,54.07041],[12.6278,54.06761],[12.65924,54.0465],[12.67435,54.04435],[12.69627,54.03618],[12.69166,54.02974],[12.71574,54.01871],[12.7457,54.03329]]]},"properties":{"plz":"18334","name":"18334 Bad Sülze"}},{"type":"Feature","geometry":{"type":"Polygon","coordinates":[[[12.38455,54.12106],[12.38594,54.11332],[12.39555,54.11169],[12.42442,54.11617],[12.43558,54.12441],[12.45286,54.13251],[12.49401,54.12404],[12.49283,54.13225],[12.51549,54.13015],[12.54137,54.1338],[12.58026,54.11779],[12.57094,54.10775],[12.60052,54.10475],[12.61933,54.11967],[12.62888,54.12278],[12.64271,54.13713],[12.63447,54.14263],[12.60296,54.15455],[12.57906,54.17098],[12.58588,54.17603],[12.58004,54.1824],[12.56588,54.18398],[12.57225,54.18858],[12.55086,54.20682],[12.55718,54.21292],[12.54486,54.21262],[12.54739,54.22037],[12.52496,54.23127],[12.51248,54.21789],[12.50423,54.22121],[12.50242,54.21347],[12.4626,54.21582],[12.44398,54.2066],[12.42047,54.20122],[12.4125,54.19364],[12.38032,54.1887],[12.37293,54.19063],[12.35547,54.18463],[12.35832,54.17852],[12.37499,54.17707],[12.36534,54.16291],[12.38227,54.15739],[12.37296,54.15276],[12.3841,54.13579],[12.38455,54.12106]]]},"properties":{"plz":"18337","name":"18337 Marlow"}},{"type":"Feature","geometry":{"type":"Polygon","coordinates":[[[12.28012,54.26094],[12.3004,54.25541],[12.34213,54.25022],[12.36532,54.24991],[12.37723,54.26089],[12.3625,54.26717],[12.37763,54.27209],[12.38204,54.27921],[12.36318,54.29111],[12.35787,54.303],[12.36623,54.31141],[12.37622,54.30889],[12.39605,54.32354],[12.39717,54.33225],[12.38403,54.34079],[12.40007,54.34354],[12.40724,54.33684],[12.41807,54.33823],[12.4201,54.35148],[12.41343,54.36565],[12.43561,54.37895],[12.43563,54.38359],[12.44993,54.38467],[12.44029,54.39101],[12.44437,54.39837],[12.40508,54.37522],[12.36398,54.32363],[12.33619,54.29726],[12.30836,54.28267],[12.28459,54.27464],[12.28012,54.26094]]]},"properties":{"plz":"18347","name":"18347 Dierhagen"}},{"type":"Feature","geometry":{"type":"Polygon","coordinates":[[[11.56154,54.02802],[11.53873,54.02538],[11.52959,54.03401],[11.51742,54.02589],[11.53423,54.02471],[11.53444,54.02058],[11.51041,54.01206],[11.49585,53.99572],[11.48971,53.994],[11.49921,53.98609],[11.49034,53.97596],[11.47768,53.96945],[11.48107,53.96608],[11.47978,53.93834],[11.48646,53.93391],[11.51498,53.92793],[11.50275,53.90886],[11.50443,53.90366],[11.53256,53.89853],[11.55242,53.89866],[11.55489,53.90615],[11.56477,53.90641],[11.5645,53.91414],[11.55486,53.91997],[11.55769,53.92978],[11.57949,53.92566],[11.58199,53.93713],[11.59037,53.93745],[11.59759,53.92551],[11.60817,53.92926],[11.64009,53.92445],[11.64887,53.93033],[11.67382,53.93579],[11.66683,53.95496],[11.67772,53.96196],[11.66261,53.9716],[11.65164,53.97324],[11.66013,53.97983],[11.65762,53.98524],[11.61306,53.99411],[11.61368,53.98595],[11.58692,53.98692],[11.58172,53.99305],[11.58891,54.00225],[11.58041,54.00654],[11.5794,54.01884],[11.56154,54.02802]]]},"properties":{"plz":"23974","name":"23974 Neuburg-Steinhausen, Hornstorf"}},{"type":"Feature","geometry":{"type":"Polygon","coordinates":[[[11.67382,53.93579],[11.64887,53.93033],[11.64704,53.92161],[11.6311,53.91308],[11.63557,53.90335],[11.6515,53.90065],[11.64704,53.89022],[11.63371,53.8863],[11.59581,53.8904],[11.59607,53.89368],[11.56005,53.89636],[11.55124,53.87451],[11.56097,53.86738],[11.55811,53.85999],[11.57459,53.84836],[11.57418,53.84421],[11.59522,53.8336],[11.61534,53.84341],[11.61802,53.83491],[11.63166,53.83289],[11.64669,53.83982],[11.66017,53.83376],[11.65734,53.82854],[11.6783,53.81297],[11.68737,53.82884],[11.6904,53.82073],[11.70195,53.81335],[11.70759,53.82468],[11.70619,53.83467],[11.7234,53.84003],[11.73107,53.83812],[11.75911,53.85161],[11.77862,53.86282],[11.7618,53.87274],[11.77061,53.88241],[11.79228,53.8857],[11.79831,53.89132],[11.78791,53.89494],[11.80513,53.91854],[11.80132,53.9296],[11.79065,53.93561],[11.79525,53.94242],[11.79791,53.96277],[11.80495,53.96629],[11.78184,53.97459],[11.76446,53.97732],[11.7602,53.9729],[11.74581,53.97401],[11.74107,53.96918],[11.74714,53.95921],[11.73158,53.95287],[11.72498,53.95619],[11.69755,53.95374],[11.69992,53.94889],[11.68661,53.93419],[11.67382,53.93579]]]},"properties":{"plz":"23992","name":"23992 Neukloster"}}]}