{"type":"FeatureCollection","features":[{"type":"Feature","geometry":{"type":"Polygon","coordinates":[[[11.21671,51.32621],[11.19414,51.31236],[11.17834,51.29809],[11.18905,51.29171],[11.17569,51.29278],[11.16703,51.28786],[11.1609,51.26701],[11.15054,51.25635],[11.18024,51.24939],[11.18683,51.24537],[11.21422,51.24048],[11.21986,51.23452],[11.23275,51.24666],[11.2419,51.24737],[11.25508,51.25735],[11.25537,51.26443],[11.26469,51.26174],[11.2907,51.24538],[11.30394,51.24424],[11.32572,51.26054],[11.32842,51.27087],[11.30548,51.27179],[11.31436,51.27787],[11.30746,51.2844],[11.29165,51.29837],[11.28725,51.3087],[11.28237,51.31333],[11.26748,51.31307],[11.25958,51.32376],[11.24697,51.31703],[11.22126,51.32037],[11.21671,51.32621]]]},"properties":{"plz":"06577","name":"06577 Heldrungen"}},{"type":"Feature","geometry":{"type":"Polygon","coordinates":[[[11.20524,51.34631],[11.18506,51.34095],[11.18171,51.34466],[11.14953,51.34445],[11.13793,51.32125],[11.12514,51.32154],[11.11409,51.31072],[11.08093,51.3188],[11.06842,51.32291],[11.06935,51.31698],[11.05664,51.31325],[11.06204,51.29978],[11.05337,51.29147],[11.03094,51.28945],[11.03747,51.28469],[11.02993,51.27503],[11.0546,51.27371],[11.07129,51.26821],[11.07774,51.27585],[11.08876,51.27693],[11.09099,51.26792],[11.14383,51.25427],[11.15054,51.25635],[11.1609,51.26701],[11.16703,51.28786],[11.17569,51.29278],[11.18905,51.29171],[11.17834,51.29809],[11.19414,51.31236],[11.21671,51.32621],[11.20524,51.34631]]]},"properties":{"plz":"06578","name":"06578 Bilzingsleben Kannawurf Oldisleben"}},{"type":"Feature","geometry":{"type":"Polygon","coordinates":[[[11.60499,51.14024],[11.59571,51.13436],[11.57637,51.13353],[11.57768,51.13977],[11.57123,51.1561],[11.55549,51.15052],[11.53154,51.15222],[11.52786,51.15562],[11.5053,51.15651],[11.50806,51.14441],[11.50024,51.13875],[11.51203,51.12204],[11.47732,51.13293],[11.46331,51.12919],[11.46329,51.11275],[11.4847,51.10531],[11.48541,51.10251],[11.51054,51.10305],[11.5122,51.108],[11.54564,51.10245],[11.54772,51.11173],[11.55819,51.10882],[11.57185,51.12057],[11.6,51.11484],[11.61017,51.12492],[11.60499,51.14024]]]},"properties":{"plz":"06648","name":"06648 Eckartsberga"}},{"type":"Feature","geometry":{"type":"Polygon","coordinates":[[[11.35573,50.67949],[11.37885,50.68605],[11.38792,50.69596],[11.38251,50.69896],[11.40525,50.71107],[11.4166,50.69861],[11.43223,50.70035],[11.4404,50.70757],[11.45652,50.69834],[11.46183,50.69925],[11.47395,50.70903],[11.4731,50.71651],[11.49107,50.72742],[11.5102,50.73305],[11.52207,50.72858],[11.53445,50.74156],[11.54956,50.74323],[11.54489,50.75081],[11.53101,50.76669],[11.5198,50.76338],[11.49613,50.76438],[11.48742,50.76813],[11.48436,50.77979],[11.45978,50.78457],[11.45112,50.79959],[11.44505,50.80138],[11.43379,50.79451],[11.42029,50.80352],[11.42377,50.80847],[11.40078,50.80238],[11.38706,50.80269],[11.39108,50.81874],[11.36116,50.81522],[11.36307,50.80041],[11.33853,50.79345],[11.32104,50.79463],[11.31847,50.80305],[11.3036,50.80399],[11.29993,50.81131],[11.28048,50.821],[11.27459,50.81926],[11.2629,50.83499],[11.25102,50.83411],[11.252,50.82422],[11.25729,50.81509],[11.22972,50.80904],[11.22188,50.80388],[11.22381,50.79981],[11.19368,50.80178],[11.1976,50.79462],[11.17513,50.77139],[11.18728,50.75522],[11.19029,50.73575],[11.22313,50.73023],[11.22073,50.71586],[11.21379,50.71239],[11.23648,50.7055],[11.26051,50.7042],[11.26892,50.70064],[11.28466,50.70756],[11.29501,50.70301],[11.30143,50.70899],[11.31293,50.69648],[11.30787,50.68798],[11.29551,50.68723],[11.29487,50.67916],[11.31153,50.67537],[11.3154,50.66831],[11.32389,50.67753],[11.34708,50.67438],[11.35573,50.67949]]]},"properties":{"plz":"07407","name":"07407 Rudolstadt"}},{"type":"Feature","geometry":{"type":"Polygon","coordinates":[[[11.29487,50.67916],[11.29551,50.68723],[11.30787,50.68798],[11.31293,50.69648],[11.30143,50.70899],[11.29501,50.70301],[11.28466,50.70756],[11.26892,50.70064],[11.26051,50.7042],[11.23648,50.7055],[11.21379,50.71239],[11.20199,50.70482],[11.22625,50.69472],[11.21724,50.69313],[11.22064,50.68448],[11.2151,50.67902],[11.19998,50.68269],[11.19959,50.68697],[11.18422,50.68555],[11.19401,50.66814],[11.21352,50.65958],[11.22511,50.66389],[11.2474,50.66326],[11.24804,50.67038],[11.25913,50.6692],[11.2529,50.65832],[11.25992,50.64584],[11.27947,50.63911],[11.28874,50.65158],[11.28025,50.66999],[11.29487,50.67916]]]},"properties":{"plz":"07422","name":"07422 Bad Blankenburg"}},{"type":"Feature","geometry":{"type":"Polygon","coordinates":[[[11.19029,50.73575],[11.16964,50.7285],[11.15084,50.7333],[11.13779,50.72552],[11.11034,50.7328],[11.09685,50.72755],[11.10033,50.71876],[11.0919,50.71239],[11.09513,50.69796],[11.07232,50.69468],[11.07472,50.71702],[11.06068,50.71478],[11.06733,50.70975],[11.05284,50.70822],[11.0582,50.69554],[11.0569,50.68678],[11.03358,50.69095],[11.02837,50.68515],[11.01226,50.69083],[11.00894,50.68762],[11.02211,50.67848],[11.02688,50.66837],[11.04232,50.67956],[11.06336,50.67497],[11.05542,50.66559],[11.06599,50.66525],[11.06661,50.65731],[11.05802,50.64955],[11.06033,50.64367],[11.06521,50.63723],[11.05799,50.62678],[11.0874,50.61134],[11.0945,50.61697],[11.13842,50.60343],[11.13673,50.61009],[11.15138,50.63148],[11.16306,50.63873],[11.1678,50.64868],[11.18143,50.65393],[11.19401,50.66814],[11.18422,50.68555],[11.19959,50.68697],[11.19998,50.68269],[11.2151,50.67902],[11.22064,50.68448],[11.21724,50.69313],[11.22625,50.69472],[11.20199,50.70482],[11.21379,50.71239],[11.22073,50.71586],[11.22313,50.73023],[11.19029,50.73575]]]},"properties":{"plz":"07426","name":"07426 Königsee-Rottenbach u.a."}},{"type":"Feature","geometry":{"type":"Polygon","coordinates":[[[11.2529,50.65832],[11.25913,50.6692],[11.24804,50.67038],[11.2474,50.66326],[11.22511,50.66389],[11.21352,50.65958],[11.19401,50.66814],[11.18143,50.65393],[11.1678,50.64868],[11.16306,50.63873],[11.1724,50.63832],[11.19424,50.6215],[11.21206,50.62628],[11.21786,50.63422],[11.21252,50.64862],[11.22451,50.65914],[11.23551,50.66174],[11.2529,50.65832]]]},"properties":{"plz":"07427","name":"07427 Schwarzburg"}},{"type":"Feature","geometry":{"type":"Polygon","coordinates":[[[11.54001,50.9383],[11.53567,50.93171],[11.54292,50.93478],[11.58896,50.92451],[11.59608,50.92812],[11.59252,50.93509],[11.60151,50.9442],[11.61555,50.95029],[11.62144,50.94838],[11.63425,50.95641],[11.63428,50.9665],[11.61728,50.97682],[11.59552,50.97058],[11.58797,50.95139],[11.56955,50.94389],[11.54462,50.94037],[11.54001,50.9383]]]},"properties":{"plz":"07743","name":"07743 Jena"}},{"type":"Feature","geometry":{"type":"Polygon","coordinates":[[[11.53567,50.93171],[11.53609,50.92589],[11.52495,50.9213],[11.52691,50.91254],[11.50818,50.91402],[11.50422,50.90585],[11.52195,50.90573],[11.54056,50.90162],[11.5408,50.89586],[11.55433,50.89703],[11.56119,50.88876],[11.56417,50.87444],[11.59494,50.87695],[11.60253,50.88644],[11.59626,50.89228],[11.59644,50.90257],[11.58387,50.90757],[11.58896,50.92451],[11.54292,50.93478],[11.53567,50.93171]]]},"properties":{"plz":"07745","name":"07745 Jena"}},{"type":"Feature","geometry":{"type":"MultiPolygon","coordinates":[[[[11.72248,50.97228],[11.70344,50.97098],[11.70389,50.97469],[11.68316,50.97582],[11.69517,50.98275],[11.67792,50.98359],[11.6788,50.9879],[11.66975,50.9897],[11.66244,50.98226],[11.66222,50.97352],[11.64764,50.97126],[11.6436,50.96467],[11.63428,50.9665],[11.63425,50.95641],[11.62144,50.94838],[11.62459,50.93895],[11.63498,50.93879],[11.63353,50.92336],[11.64036,50.91472],[11.63317,50.9061],[11.61782,50.89147],[11.64307,50.88007],[11.63542,50.87588],[11.59494,50.87695],[11.56417,50.87444],[11.56119,50.88876],[11.55433,50.89703],[11.5408,50.89586],[11.54056,50.90162],[11.52195,50.90573],[11.50422,50.90585],[11.49054,50.90153],[11.49744,50.88999],[11.4875,50.88072],[11.46137,50.87783],[11.46283,50.86627],[11.43829,50.86454],[11.44791,50.85572],[11.45092,50.84228],[11.46036,50.83964],[11.45771,50.83249],[11.46531,50.83586],[11.48419,50.83123],[11.50736,50.83084],[11.52351,50.8345],[11.52249,50.84353],[11.53017,50.85468],[11.54216,50.85258],[11.55986,50.85695],[11.55823,50.85224],[11.57343,50.85021],[11.57674,50.83964],[11.59127,50.83643],[11.59462,50.84533],[11.60276,50.8377],[11.61811,50.83247],[11.63463,50.83126],[11.63177,50.84188],[11.6205,50.8436],[11.63361,50.84864],[11.6285,50.85383],[11.65229,50.85733],[11.66069,50.86705],[11.6548,50.87303],[11.66361,50.88092],[11.65981,50.89178],[11.64885,50.89135],[11.64642,50.90154],[11.6667,50.91572],[11.67584,50.91102],[11.69422,50.91355],[11.70648,50.91907],[11.69947,50.93084],[11.69201,50.93254],[11.69615,50.94937],[11.70662,50.95332],[11.72248,50.97228]]],[[[11.59552,50.97058],[11.59283,50.97505],[11.56709,50.96615],[11.55887,50.97147],[11.54751,50.9889],[11.52486,50.98022],[11.52299,50.97077],[11.50306,50.96496],[11.49896,50.95242],[11.50229,50.94473],[11.52078,50.94781],[11.54462,50.94037],[11.56955,50.94389],[11.58797,50.95139],[11.59552,50.97058]]],[[[11.54001,50.9383],[11.52357,50.94009],[11.50374,50.93262],[11.50818,50.91402],[11.52691,50.91254],[11.52495,50.9213],[11.53609,50.92589],[11.53567,50.93171],[11.54001,50.9383]]],[[[11.58364,50.81693],[11.58665,50.81221],[11.60251,50.80832],[11.60023,50.81253],[11.62297,50.81201],[11.6249,50.82232],[11.60071,50.82775],[11.58364,50.81693]]]]},"properties":{"plz":"07751","name":"07751 Jena, Bucha, Großpürschütz u.a."}},{"type":"Feature","geometry":{"type":"Polygon","coordinates":[[[10.77661,50.63609],[10.80345,50.64916],[10.82787,50.64989],[10.81823,50.66089],[10.81092,50.66574],[10.81558,50.67231],[10.79402,50.68565],[10.76484,50.68389],[10.74404,50.68961],[10.74499,50.70393],[10.75351,50.7073],[10.75453,50.71579],[10.72889,50.73218],[10.72193,50.73861],[10.70429,50.71595],[10.68628,50.7155],[10.6689,50.72393],[10.65655,50.72351],[10.64993,50.71568],[10.66982,50.70869],[10.69792,50.70525],[10.71046,50.69984],[10.68789,50.68912],[10.69401,50.68328],[10.71277,50.68446],[10.73238,50.6795],[10.73393,50.66329],[10.75245,50.65318],[10.77175,50.65381],[10.77661,50.63609]]]},"properties":{"plz":"98559","name":"98559 Oberhof"}},{"type":"Feature","geometry":{"type":"Polygon","coordinates":[[[10.82787,50.64989],[10.84019,50.64627],[10.87302,50.63549],[10.89151,50.64043],[10.89486,50.6512],[10.93981,50.67332],[10.94949,50.6877],[10.96415,50.68258],[10.96777,50.69174],[10.96221,50.70051],[10.96193,50.71159],[10.95184,50.70941],[10.94796,50.71746],[10.9377,50.71709],[10.9446,50.72709],[10.95512,50.73255],[10.96242,50.72784],[10.95536,50.73443],[10.96035,50.74093],[10.95362,50.74548],[10.92894,50.74939],[10.90231,50.73925],[10.89896,50.73439],[10.88278,50.73511],[10.8694,50.73095],[10.86231,50.72049],[10.86618,50.71417],[10.86452,50.6897],[10.84748,50.6869],[10.83183,50.67587],[10.82738,50.66378],[10.81823,50.66089],[10.82787,50.64989]]]},"properties":{"plz":"98693","name":"98693 Ilmenau"}},{"type":"Feature","geometry":{"type":"Polygon","coordinates":[[[11.05284,50.70822],[11.04886,50.71061],[11.03144,50.70656],[11.01088,50.72572],[11.01468,50.73299],[10.99768,50.72668],[10.98128,50.7329],[10.97253,50.72676],[10.96242,50.72784],[10.95512,50.73255],[10.9446,50.72709],[10.9377,50.71709],[10.94796,50.71746],[10.95184,50.70941],[10.96193,50.71159],[10.96221,50.70051],[10.96777,50.69174],[10.96415,50.68258],[10.94949,50.6877],[10.93981,50.67332],[10.89486,50.6512],[10.89151,50.64043],[10.89675,50.63439],[10.89639,50.6128],[10.89577,50.61141],[10.908,50.61527],[10.91043,50.62149],[10.92525,50.62916],[10.9349,50.64245],[10.94382,50.6465],[10.96628,50.64523],[10.96674,50.65477],[10.98589,50.65576],[11.00151,50.66763],[11.00876,50.67913],[11.02211,50.67848],[11.00894,50.68762],[11.01226,50.69083],[11.02837,50.68515],[11.03358,50.69095],[11.0569,50.68678],[11.0582,50.69554],[11.05284,50.70822]]]},"properties":{"plz":"98704","name":"98704 Langewiesen"}},{"type":"Feature","geometry":{"type":"Polygon","coordinates":[[[11.02211,50.67848],[11.00876,50.67913],[11.00151,50.66763],[10.98589,50.65576],[10.96674,50.65477],[10.96628,50.64523],[10.94382,50.6465],[10.9349,50.64245],[10.92525,50.62916],[10.93172,50.61875],[10.94442,50.61603],[10.9508,50.6083],[10.96806,50.60293],[10.97368,50.59453],[10.99233,50.59802],[11.01009,50.61431],[11.03612,50.62854],[11.03597,50.63215],[11.05267,50.63734],[11.06033,50.64367],[11.05802,50.64955],[11.06661,50.65731],[11.06599,50.66525],[11.05542,50.66559],[11.06336,50.67497],[11.04232,50.67956],[11.02688,50.66837],[11.02211,50.67848]]]},"properties":{"plz":"98708","name":"98708 Gehren"}},{"type":"Feature","geometry":{"type":"Polygon","coordinates":[[[10.81823,50.66089],[10.82738,50.66378],[10.83183,50.67587],[10.84748,50.6869],[10.86452,50.6897],[10.86618,50.71417],[10.86231,50.72049],[10.8694,50.73095],[10.84637,50.73276],[10.84048,50.74605],[10.82288,50.74621],[10.81092,50.73411],[10.81024,50.71485],[10.79178,50.69819],[10.79402,50.68565],[10.81558,50.67231],[10.81092,50.66574],[10.81823,50.66089]]]},"properties":{"plz":"98716","name":"98716 Geschwenda"}},{"type":"Feature","geometry":{"type":"Polygon","coordinates":[[[11.01154,50.97155],[11.01985,50.96711],[11.04167,50.97274],[11.04221,50.97322],[11.03381,50.98383],[11.0271,50.98649],[11.02042,50.98289],[11.01154,50.97155]]]},"properties":{"plz":"99084","name":"99084 Erfurt"}},{"type":"Feature","geometry":{"type":"Polygon","coordinates":[[[11.04221,50.97322],[11.08413,50.97856],[11.07632,50.98636],[11.07362,50.99696],[11.06278,51.00606],[11.06685,51.01858],[11.0637,51.02639],[11.05491,51.02513],[11.03973,51.0118],[11.0434,51.00256],[11.03381,50.98383],[11.04221,50.97322]]]},"properties":{"plz":"99085","name":"99085 Erfurt"}},{"type":"Feature","geometry":{"type":"Polygon","coordinates":[[[11.03381,50.98383],[11.0434,51.00256],[11.03973,51.0118],[11.01824,51.01333],[11.01488,51.01258],[11.0263,51.00504],[11.0271,50.98649],[11.03381,50.98383]]]},"properties":{"plz":"99086","name":"99086 Erfurt"}},{"type":"Feature","geometry":{"type":"Polygon","coordinates":[[[11.05491,51.02513],[11.05303,51.03621],[11.03054,51.03636],[11.02315,51.03103],[11.01293,51.02551],[11.01824,51.01333],[11.03973,51.0118],[11.05491,51.02513]]]},"properties":{"plz":"99087","name":"99087 Erfurt"}},{"type":"Feature","geometry":{"type":"Polygon","coordinates":[[[11.0271,50.98649],[11.0263,51.00504],[11.01488,51.01258],[10.99899,51.00034],[11.00411,50.98998],[11.02042,50.98289],[11.0271,50.98649]]]},"properties":{"plz":"99089","name":"99089 Erfurt"}},{"type":"Feature","geometry":{"type":"Polygon","coordinates":[[[10.86278,51.02646],[10.85467,51.02549],[10.86256,51.00219],[10.88353,51.0005],[10.89197,50.99016],[10.89874,50.97618],[10.9311,50.97438],[10.93821,50.98386],[10.95879,50.98648],[10.97234,50.97979],[10.95867,50.99206],[10.97279,51.00311],[10.95959,51.01298],[10.95928,51.02282],[10.97264,51.0273],[10.98125,51.03446],[10.98504,51.04318],[10.93229,51.03066],[10.92945,51.01768],[10.91276,51.01501],[10.91096,51.02098],[10.87607,51.02803],[10.86278,51.02646]]]},"properties":{"plz":"99090","name":"99090 Erfurt"}},{"type":"Feature","geometry":{"type":"Polygon","coordinates":[[[11.01824,51.01333],[11.01293,51.02551],[11.02315,51.03103],[11.01054,51.02868],[10.99977,51.03373],[10.98741,51.03043],[10.98125,51.03446],[10.97264,51.0273],[10.98374,51.0152],[10.97587,51.01395],[10.98109,51.0068],[10.98834,51.01001],[10.99899,51.00034],[11.01488,51.01258],[11.01824,51.01333]]]},"properties":{"plz":"99091","name":"99091 Erfurt"}},{"type":"Feature","geometry":{"type":"Polygon","coordinates":[[[11.02042,50.98289],[11.00411,50.98998],[10.99899,51.00034],[10.98834,51.01001],[10.98109,51.0068],[10.97587,51.01395],[10.98374,51.0152],[10.97264,51.0273],[10.95928,51.02282],[10.95959,51.01298],[10.97279,51.00311],[10.95867,50.99206],[10.97234,50.97979],[10.95879,50.98648],[10.93821,50.98386],[10.9311,50.97438],[10.89874,50.97618],[10.89197,50.99016],[10.87336,50.97987],[10.86234,50.97734],[10.86563,50.96471],[10.89383,50.96056],[10.9005,50.9412],[10.91758,50.94079],[10.93694,50.94672],[10.93416,50.962],[10.98531,50.96618],[11.01154,50.97155],[11.02042,50.98289]]]},"properties":{"plz":"99092","name":"99092 Erfurt"}},{"type":"Feature","geometry":{"type":"Polygon","coordinates":[[[11.01154,50.97155],[10.98531,50.96618],[10.93416,50.962],[10.93694,50.94672],[10.95106,50.94189],[10.96417,50.92157],[10.94845,50.91329],[10.93257,50.90973],[10.93609,50.89492],[10.96189,50.89092],[10.97956,50.89935],[10.97995,50.90425],[11.00419,50.90742],[11.01042,50.92097],[11.023,50.92334],[11.02244,50.9295],[11.0392,50.93199],[11.03978,50.93741],[11.01796,50.95083],[11.01502,50.96045],[11.01985,50.96711],[11.01154,50.97155]]]},"properties":{"plz":"99094","name":"99094 Erfurt"}},{"type":"Feature","geometry":{"type":"Polygon","coordinates":[[[11.06685,51.01858],[11.09685,51.02752],[11.10102,51.03435],[11.09777,51.05249],[11.08802,51.05136],[11.09166,51.06523],[11.08082,51.06563],[11.08153,51.07375],[11.06669,51.07953],[11.04666,51.07744],[11.0401,51.06497],[11.02366,51.0674],[11.01968,51.06041],[10.99241,51.05911],[10.99067,51.0682],[10.97622,51.06493],[10.98438,51.05222],[10.98504,51.04318],[10.98125,51.03446],[10.98741,51.03043],[10.99977,51.03373],[11.01054,51.02868],[11.02315,51.03103],[11.03054,51.03636],[11.05303,51.03621],[11.05491,51.02513],[11.0637,51.02639],[11.06685,51.01858]]]},"properties":{"plz":"99095","name":"99095 Erfurt"}},{"type":"Feature","geometry":{"type":"Polygon","coordinates":[[[11.01985,50.96711],[11.01502,50.96045],[11.01796,50.95083],[11.03978,50.93741],[11.04814,50.93733],[11.0472,50.95128],[11.05173,50.9591],[11.04126,50.96649],[11.04167,50.97274],[11.01985,50.96711]]]},"properties":{"plz":"99096","name":"99096 Erfurt"}},{"type":"Feature","geometry":{"type":"Polygon","coordinates":[[[11.00419,50.90742],[11.0117,50.90603],[11.05558,50.90955],[11.10868,50.91543],[11.10739,50.92728],[11.08832,50.93662],[11.09135,50.94492],[11.08123,50.95141],[11.05173,50.9591],[11.0472,50.95128],[11.04814,50.93733],[11.03978,50.93741],[11.0392,50.93199],[11.02244,50.9295],[11.023,50.92334],[11.01042,50.92097],[11.00419,50.90742]]]},"properties":{"plz":"99097","name":"99097 Erfurt"}},{"type":"Feature","geometry":{"type":"Polygon","coordinates":[[[11.08413,50.97856],[11.0917,50.97367],[11.08117,50.95942],[11.10685,50.95667],[11.11631,50.948],[11.13578,50.94888],[11.13404,50.97248],[11.16265,50.98014],[11.17514,50.98892],[11.16385,51.0095],[11.17133,51.00924],[11.1705,51.01849],[11.14469,51.01796],[11.14068,51.01075],[11.12408,51.00879],[11.12408,51.02284],[11.1075,51.0339],[11.10102,51.03435],[11.09685,51.02752],[11.06685,51.01858],[11.06278,51.00606],[11.07362,50.99696],[11.07632,50.98636],[11.08413,50.97856]]]},"properties":{"plz":"99098","name":"99098 Erfurt"}},{"type":"Feature","geometry":{"type":"Polygon","coordinates":[[[11.04167,50.97274],[11.04126,50.96649],[11.05173,50.9591],[11.08123,50.95141],[11.09135,50.94492],[11.08832,50.93662],[11.10739,50.92728],[11.13221,50.92859],[11.15351,50.92482],[11.14684,50.93983],[11.13578,50.94888],[11.11631,50.948],[11.10685,50.95667],[11.08117,50.95942],[11.0917,50.97367],[11.08413,50.97856],[11.04221,50.97322],[11.04167,50.97274]]]},"properties":{"plz":"99099","name":"99099 Erfurt"}},{"type":"Feature","geometry":{"type":"Polygon","coordinates":[[[10.86278,51.02646],[10.86987,51.02925],[10.87246,51.03912],[10.86567,51.06097],[10.88865,51.06666],[10.89114,51.07157],[10.88019,51.09808],[10.83739,51.09457],[10.81044,51.09785],[10.78391,51.09425],[10.77716,51.06738],[10.76828,51.05736],[10.78343,51.05097],[10.79977,51.03657],[10.81974,51.02656],[10.82126,51.00358],[10.83586,51.00744],[10.83465,50.99192],[10.84501,50.99113],[10.86234,50.97734],[10.87336,50.97987],[10.89197,50.99016],[10.88353,51.0005],[10.86256,51.00219],[10.85467,51.02549],[10.86278,51.02646]]]},"properties":{"plz":"99100","name":"99100 Großfahner, Dachwig u.a."}},{"type":"Feature","geometry":{"type":"MultiPolygon","coordinates":[[[[11.10868,50.91543],[11.11546,50.90156],[11.12832,50.90386],[11.13409,50.89652],[11.16357,50.89246],[11.17447,50.89424],[11.17348,50.90052],[11.18898,50.90368],[11.17144,50.91318],[11.17432,50.92037],[11.15351,50.92482],[11.13221,50.92859],[11.10739,50.92728],[11.10868,50.91543]]],[[[11.0117,50.90603],[11.01405,50.89766],[11.03726,50.89513],[11.05424,50.89605],[11.05558,50.90955],[11.0117,50.90603]]]]},"properties":{"plz":"99102","name":"99102 Rockhausen, Klettbach"}},{"type":"Feature","geometry":{"type":"Polygon","coordinates":[[[10.98504,51.04318],[10.98438,51.05222],[10.97622,51.06493],[10.96348,51.0859],[10.97992,51.09725],[11.00874,51.10267],[11.01152,51.09929],[11.02859,51.10373],[11.03689,51.09861],[11.04518,51.10664],[11.04455,51.11819],[11.03547,51.11685],[11.01555,51.12125],[10.98761,51.13729],[10.97139,51.13428],[10.9631,51.1247],[10.95379,51.13256],[10.94337,51.13068],[10.93863,51.14111],[10.90733,51.14064],[10.91119,51.13372],[10.89993,51.1344],[10.89199,51.12697],[10.87643,51.12622],[10.88562,51.09874],[10.88019,51.09808],[10.89114,51.07157],[10.88865,51.06666],[10.86567,51.06097],[10.87246,51.03912],[10.86987,51.02925],[10.86278,51.02646],[10.87607,51.02803],[10.91096,51.02098],[10.91276,51.01501],[10.92945,51.01768],[10.93229,51.03066],[10.98504,51.04318]]]},"properties":{"plz":"99189","name":"99189 Gebesee"}},{"type":"Feature","geometry":{"type":"Polygon","coordinates":[[[10.86234,50.97734],[10.84501,50.99113],[10.83465,50.99192],[10.83011,50.98358],[10.83323,50.97592],[10.82682,50.95138],[10.85018,50.95249],[10.85166,50.94669],[10.8672,50.94718],[10.86639,50.94115],[10.87727,50.92768],[10.869,50.91731],[10.85987,50.91641],[10.86136,50.87926],[10.87428,50.87765],[10.89512,50.89068],[10.90369,50.90077],[10.91476,50.89502],[10.93609,50.89492],[10.93257,50.90973],[10.94845,50.91329],[10.96417,50.92157],[10.95106,50.94189],[10.93694,50.94672],[10.91758,50.94079],[10.9005,50.9412],[10.89383,50.96056],[10.86563,50.96471],[10.86234,50.97734]]]},"properties":{"plz":"99192","name":"99192 Nesse-Apfelstädt, Nottleben"}},{"type":"Feature","geometry":{"type":"Polygon","coordinates":[[[11.09166,51.06523],[11.11862,51.06767],[11.13119,51.07624],[11.14545,51.06714],[11.14155,51.05741],[11.17204,51.05773],[11.19226,51.0523],[11.19825,51.05413],[11.20212,51.06528],[11.19681,51.0663],[11.19203,51.07986],[11.19643,51.10129],[11.18789,51.10561],[11.17432,51.1055],[11.17419,51.1277],[11.13349,51.12972],[11.1174,51.12205],[11.0971,51.12755],[11.0688,51.12532],[11.06398,51.12905],[11.05219,51.12737],[11.04455,51.11819],[11.04518,51.10664],[11.03689,51.09861],[11.02859,51.10373],[11.01152,51.09929],[11.00874,51.10267],[10.97992,51.09725],[10.96348,51.0859],[10.97622,51.06493],[10.99067,51.0682],[10.99241,51.05911],[11.01968,51.06041],[11.02366,51.0674],[11.0401,51.06497],[11.04666,51.07744],[11.06669,51.07953],[11.08153,51.07375],[11.08082,51.06563],[11.09166,51.06523]]]},"properties":{"plz":"99195","name":"99195 Großrudestedt, Schloßvippach u.a."}},{"type":"Feature","geometry":{"type":"MultiPolygon","coordinates":[[[[11.10102,51.03435],[11.1075,51.0339],[11.12408,51.02284],[11.12408,51.00879],[11.14068,51.01075],[11.14469,51.01796],[11.1705,51.01849],[11.17447,51.026],[11.18354,51.0225],[11.20826,51.02677],[11.21729,51.03263],[11.20618,51.03493],[11.20825,51.04365],[11.19825,51.05413],[11.19226,51.0523],[11.17204,51.05773],[11.14155,51.05741],[11.14545,51.06714],[11.13119,51.07624],[11.11862,51.06767],[11.09166,51.06523],[11.08802,51.05136],[11.09777,51.05249],[11.10102,51.03435]]],[[[11.13578,50.94888],[11.14684,50.93983],[11.15351,50.92482],[11.17432,50.92037],[11.19634,50.9223],[11.19217,50.93427],[11.20033,50.93818],[11.19501,50.94715],[11.17908,50.9581],[11.17713,50.96842],[11.17005,50.96812],[11.16265,50.98014],[11.13404,50.97248],[11.13578,50.94888]]]]},"properties":{"plz":"99198","name":"99198 Udestedt, Mönchenholzhausen u.a."}},{"type":"Feature","geometry":{"type":"Polygon","coordinates":[[[10.96242,50.72784],[10.97253,50.72676],[10.98128,50.7329],[10.98942,50.73573],[10.99018,50.74617],[10.99725,50.75012],[10.99677,50.75934],[10.98688,50.76231],[10.98595,50.77168],[11.00628,50.78131],[11.01391,50.7798],[11.02723,50.79085],[11.05152,50.79603],[11.06536,50.79177],[11.06604,50.79662],[11.0987,50.79803],[11.10465,50.80216],[11.1225,50.80328],[11.1275,50.7982],[11.15421,50.79775],[11.15186,50.80588],[11.15987,50.81948],[11.17082,50.82104],[11.16632,50.82884],[11.155,50.83251],[11.16313,50.83793],[11.15588,50.84477],[11.17787,50.85264],[11.1593,50.86367],[11.14065,50.86605],[11.13247,50.85825],[11.13092,50.86613],[11.12285,50.86954],[11.11611,50.86383],[11.10259,50.86167],[11.08981,50.85258],[11.05927,50.85262],[11.01434,50.86004],[11.00194,50.86536],[10.99494,50.8738],[10.98207,50.87548],[10.98106,50.86963],[10.95911,50.86221],[10.94341,50.86331],[10.94303,50.85926],[10.92747,50.8589],[10.92104,50.85175],[10.90717,50.85378],[10.90028,50.84333],[10.90586,50.83742],[10.8977,50.83271],[10.89723,50.81832],[10.87178,50.81761],[10.87006,50.80166],[10.87813,50.79342],[10.89062,50.79323],[10.91092,50.78557],[10.93654,50.76954],[10.92894,50.74939],[10.95362,50.74548],[10.96035,50.74093],[10.95536,50.73443],[10.96242,50.72784]]]},"properties":{"plz":"99310","name":"99310 Arnstadt"}},{"type":"Feature","geometry":{"type":"Polygon","coordinates":[[[11.22188,50.80388],[11.20068,50.80713],[11.19656,50.81712],[11.17082,50.82104],[11.15987,50.81948],[11.15186,50.80588],[11.15421,50.79775],[11.1275,50.7982],[11.1225,50.80328],[11.10465,50.80216],[11.0987,50.79803],[11.06604,50.79662],[11.06536,50.79177],[11.05152,50.79603],[11.02723,50.79085],[11.01391,50.7798],[11.00628,50.78131],[10.98595,50.77168],[10.98688,50.76231],[10.99677,50.75934],[10.99725,50.75012],[10.99018,50.74617],[10.98942,50.73573],[10.98128,50.7329],[10.99768,50.72668],[11.01468,50.73299],[11.01088,50.72572],[11.03144,50.70656],[11.04886,50.71061],[11.05284,50.70822],[11.06733,50.70975],[11.06068,50.71478],[11.07472,50.71702],[11.07232,50.69468],[11.09513,50.69796],[11.0919,50.71239],[11.10033,50.71876],[11.09685,50.72755],[11.11034,50.7328],[11.13779,50.72552],[11.15084,50.7333],[11.16964,50.7285],[11.19029,50.73575],[11.18728,50.75522],[11.17513,50.77139],[11.1976,50.79462],[11.19368,50.80178],[11.22381,50.79981],[11.22188,50.80388]]]},"properties":{"plz":"99326","name":"99326 Stadtilm, Ilmtal"}},{"type":"Feature","geometry":{"type":"Polygon","coordinates":[[[10.79402,50.68565],[10.79178,50.69819],[10.81024,50.71485],[10.81092,50.73411],[10.82288,50.74621],[10.84048,50.74605],[10.8579,50.75145],[10.85624,50.75805],[10.87817,50.77266],[10.85972,50.77456],[10.83763,50.78357],[10.83197,50.7811],[10.82378,50.79274],[10.81277,50.79564],[10.80305,50.79211],[10.77722,50.79553],[10.76431,50.78806],[10.74724,50.79532],[10.74366,50.78982],[10.73062,50.7901],[10.72438,50.78045],[10.73491,50.7689],[10.75162,50.76889],[10.73512,50.76332],[10.74331,50.75689],[10.73841,50.75222],[10.73909,50.74057],[10.72889,50.73218],[10.75453,50.71579],[10.75351,50.7073],[10.74499,50.70393],[10.74404,50.68961],[10.76484,50.68389],[10.79402,50.68565]]]},"properties":{"plz":"99330","name":"99330 Gräfenroda"}},{"type":"Feature","geometry":{"type":"Polygon","coordinates":[[[10.93609,50.89492],[10.91476,50.89502],[10.90369,50.90077],[10.89512,50.89068],[10.87428,50.87765],[10.86511,50.86469],[10.86611,50.85648],[10.85474,50.8594],[10.8406,50.85364],[10.83771,50.84644],[10.82041,50.84123],[10.85816,50.83843],[10.8519,50.82318],[10.84965,50.8202],[10.87178,50.81761],[10.89723,50.81832],[10.8977,50.83271],[10.90586,50.83742],[10.90028,50.84333],[10.90717,50.85378],[10.92104,50.85175],[10.92747,50.8589],[10.94303,50.85926],[10.94341,50.86331],[10.95911,50.86221],[10.98106,50.86963],[10.98207,50.87548],[10.99494,50.8738],[11.00194,50.86536],[11.01434,50.86004],[11.05927,50.85262],[11.08981,50.85258],[11.10259,50.86167],[11.11611,50.86383],[11.12285,50.86954],[11.13092,50.86613],[11.13247,50.85825],[11.14065,50.86605],[11.1593,50.86367],[11.16462,50.87208],[11.13156,50.87473],[11.12471,50.88767],[11.13409,50.89652],[11.12832,50.90386],[11.11546,50.90156],[11.10868,50.91543],[11.05558,50.90955],[11.05424,50.89605],[11.03726,50.89513],[11.01405,50.89766],[11.0117,50.90603],[11.00419,50.90742],[10.97995,50.90425],[10.97956,50.89935],[10.96189,50.89092],[10.93609,50.89492]]]},"properties":{"plz":"99334","name":"99334 Elleben, Wachsenburg"}},{"type":"Feature","geometry":{"type":"Polygon","coordinates":[[[10.92894,50.74939],[10.93654,50.76954],[10.91092,50.78557],[10.89062,50.79323],[10.87813,50.79342],[10.87006,50.80166],[10.87178,50.81761],[10.84965,50.8202],[10.8519,50.82318],[10.83743,50.82041],[10.81868,50.82239],[10.82137,50.81395],[10.83081,50.81503],[10.83827,50.80861],[10.83618,50.80232],[10.82378,50.79274],[10.83197,50.7811],[10.83763,50.78357],[10.85972,50.77456],[10.87817,50.77266],[10.85624,50.75805],[10.8579,50.75145],[10.84048,50.74605],[10.84637,50.73276],[10.8694,50.73095],[10.88278,50.73511],[10.89896,50.73439],[10.90231,50.73925],[10.92894,50.74939]]]},"properties":{"plz":"99338","name":"99338 Arnstadt"}},{"type":"Feature","geometry":{"type":"Polygon","coordinates":[[[11.33852,50.99192],[11.31462,50.99138],[11.30992,50.98052],[11.31029,50.97538],[11.33087,50.9727],[11.33852,50.99192]]]},"properties":{"plz":"99423","name":"99423 Weimar"}},{"type":"Feature","geometry":{"type":"Polygon","coordinates":[[[11.30992,50.98052],[11.28822,50.97748],[11.27103,50.9724],[11.27618,50.96473],[11.29713,50.96671],[11.30955,50.96202],[11.30957,50.94504],[11.33168,50.94776],[11.34361,50.94205],[11.35392,50.93711],[11.36716,50.93992],[11.39812,50.95531],[11.40196,50.96402],[11.38843,50.96715],[11.39641,50.98369],[11.38948,50.99194],[11.37307,50.98853],[11.36804,50.99555],[11.35257,51.00161],[11.33852,50.99192],[11.33087,50.9727],[11.31029,50.97538],[11.30992,50.98052]]]},"properties":{"plz":"99425","name":"99425 Weimar"}},{"type":"Feature","geometry":{"type":"Polygon","coordinates":[[[11.33852,50.99192],[11.35257,51.00161],[11.34791,51.0078],[11.37326,51.02005],[11.35198,51.02164],[11.33257,51.01958],[11.32747,51.02506],[11.31512,51.02638],[11.30344,51.01875],[11.30349,51.02617],[11.28625,51.03191],[11.27134,51.02595],[11.25321,51.03162],[11.25076,51.03671],[11.23657,51.02172],[11.25343,51.01127],[11.28686,51.01044],[11.29517,50.99896],[11.30472,50.99589],[11.28822,50.97748],[11.30992,50.98052],[11.31462,50.99138],[11.33852,50.99192]]]},"properties":{"plz":"99427","name":"99427 Weimar"}},{"type":"Feature","geometry":{"type":"Polygon","coordinates":[[[11.16265,50.98014],[11.17005,50.96812],[11.17713,50.96842],[11.17908,50.9581],[11.19501,50.94715],[11.20033,50.93818],[11.19217,50.93427],[11.19634,50.9223],[11.19697,50.92684],[11.22081,50.93034],[11.22676,50.92749],[11.23099,50.9361],[11.22761,50.95205],[11.24268,50.95414],[11.25812,50.95042],[11.26153,50.93761],[11.26828,50.93938],[11.27854,50.92626],[11.2876,50.92621],[11.29308,50.91768],[11.32013,50.91874],[11.33172,50.92677],[11.3266,50.9382],[11.34361,50.94205],[11.33168,50.94776],[11.30957,50.94504],[11.30955,50.96202],[11.29713,50.96671],[11.27618,50.96473],[11.27103,50.9724],[11.28822,50.97748],[11.30472,50.99589],[11.29517,50.99896],[11.28686,51.01044],[11.25343,51.01127],[11.23657,51.02172],[11.21729,51.03263],[11.20826,51.02677],[11.18354,51.0225],[11.17447,51.026],[11.1705,51.01849],[11.17133,51.00924],[11.16385,51.0095],[11.17514,50.98892],[11.16265,50.98014]]]},"properties":{"plz":"99428","name":"99428 Weimar"}},{"type":"Feature","geometry":{"type":"Polygon","coordinates":[[[11.18898,50.90368],[11.19484,50.90021],[11.18603,50.88514],[11.18762,50.87501],[11.20953,50.86211],[11.22729,50.86122],[11.2268,50.8448],[11.23829,50.82931],[11.24981,50.82924],[11.25288,50.84307],[11.26563,50.85216],[11.27928,50.85059],[11.28944,50.86159],[11.28837,50.86792],[11.2987,50.87249],[11.2998,50.88074],[11.31857,50.88225],[11.30911,50.88975],[11.31001,50.89575],[11.32467,50.89361],[11.33106,50.89856],[11.34201,50.89252],[11.3534,50.8946],[11.36181,50.89505],[11.35891,50.91271],[11.35415,50.91796],[11.36985,50.91638],[11.38178,50.9237],[11.36813,50.92551],[11.35094,50.93214],[11.35392,50.93711],[11.34361,50.94205],[11.3266,50.9382],[11.33172,50.92677],[11.32013,50.91874],[11.29308,50.91768],[11.2876,50.92621],[11.27854,50.92626],[11.26828,50.93938],[11.26153,50.93761],[11.25812,50.95042],[11.24268,50.95414],[11.22761,50.95205],[11.23099,50.9361],[11.22676,50.92749],[11.22081,50.93034],[11.19697,50.92684],[11.19634,50.9223],[11.17432,50.92037],[11.17144,50.91318],[11.18898,50.90368]]]},"properties":{"plz":"99438","name":"99438 Bad Berka u.a."}},{"type":"Feature","geometry":{"type":"Polygon","coordinates":[[[11.19825,51.05413],[11.20825,51.04365],[11.20618,51.03493],[11.21729,51.03263],[11.23657,51.02172],[11.25076,51.03671],[11.25321,51.03162],[11.27134,51.02595],[11.28625,51.03191],[11.30349,51.02617],[11.30344,51.01875],[11.31512,51.02638],[11.32747,51.02506],[11.33257,51.01958],[11.35198,51.02164],[11.37326,51.02005],[11.38882,51.02456],[11.39417,51.02721],[11.393,51.04789],[11.39906,51.05117],[11.39695,51.06143],[11.41721,51.06567],[11.41657,51.07301],[11.39302,51.0779],[11.38521,51.08781],[11.39359,51.08906],[11.39243,51.096],[11.37192,51.10164],[11.33585,51.09749],[11.31081,51.09968],[11.25809,51.10108],[11.25177,51.10664],[11.20014,51.10463],[11.19643,51.10129],[11.19203,51.07986],[11.19681,51.0663],[11.20212,51.06528],[11.19825,51.05413]]]},"properties":{"plz":"99439","name":"99439 Berlstedt"}},{"type":"Feature","geometry":{"type":"Polygon","coordinates":[[[11.54462,50.94037],[11.52078,50.94781],[11.50229,50.94473],[11.49896,50.95242],[11.50306,50.96496],[11.45352,50.9689],[11.44976,50.97574],[11.44039,50.97324],[11.42718,50.98421],[11.4137,50.98493],[11.40171,51.01219],[11.38882,51.02456],[11.37326,51.02005],[11.34791,51.0078],[11.35257,51.00161],[11.36804,50.99555],[11.37307,50.98853],[11.38948,50.99194],[11.39641,50.98369],[11.38843,50.96715],[11.40196,50.96402],[11.39812,50.95531],[11.36716,50.93992],[11.35392,50.93711],[11.35094,50.93214],[11.36813,50.92551],[11.38178,50.9237],[11.36985,50.91638],[11.35415,50.91796],[11.35891,50.91271],[11.36181,50.89505],[11.3534,50.8946],[11.36127,50.89267],[11.38724,50.89436],[11.38739,50.89764],[11.41115,50.89483],[11.41744,50.88281],[11.4327,50.89374],[11.43987,50.89501],[11.45701,50.88866],[11.46137,50.87783],[11.4875,50.88072],[11.49744,50.88999],[11.49054,50.90153],[11.50422,50.90585],[11.50818,50.91402],[11.50374,50.93262],[11.52357,50.94009],[11.54001,50.9383],[11.54462,50.94037]]]},"properties":{"plz":"99441","name":"99441 Lehnstedt u.a."}},{"type":"Feature","geometry":{"type":"Polygon","coordinates":[[[11.42377,50.80847],[11.42618,50.81842],[11.43523,50.82286],[11.42989,50.82982],[11.44349,50.83191],[11.45416,50.82776],[11.45771,50.83249],[11.46036,50.83964],[11.45092,50.84228],[11.44791,50.85572],[11.43829,50.86454],[11.46283,50.86627],[11.46137,50.87783],[11.45701,50.88866],[11.43987,50.89501],[11.4327,50.89374],[11.41744,50.88281],[11.41115,50.89483],[11.38739,50.89764],[11.38724,50.89436],[11.36127,50.89267],[11.3534,50.8946],[11.34201,50.89252],[11.33106,50.89856],[11.32467,50.89361],[11.31001,50.89575],[11.30911,50.88975],[11.31857,50.88225],[11.2998,50.88074],[11.2987,50.87249],[11.28837,50.86792],[11.28944,50.86159],[11.27928,50.85059],[11.26563,50.85216],[11.25288,50.84307],[11.24981,50.82924],[11.252,50.82422],[11.25102,50.83411],[11.2629,50.83499],[11.27459,50.81926],[11.28048,50.821],[11.29993,50.81131],[11.3036,50.80399],[11.31847,50.80305],[11.32104,50.79463],[11.33853,50.79345],[11.36307,50.80041],[11.36116,50.81522],[11.39108,50.81874],[11.38706,50.80269],[11.40078,50.80238],[11.42377,50.80847]]]},"properties":{"plz":"99444","name":"99444 Blankenhain"}},{"type":"Feature","geometry":{"type":"Polygon","coordinates":[[[11.252,50.82422],[11.24981,50.82924],[11.23829,50.82931],[11.2268,50.8448],[11.22729,50.86122],[11.20953,50.86211],[11.18762,50.87501],[11.18603,50.88514],[11.19484,50.90021],[11.18898,50.90368],[11.17348,50.90052],[11.17447,50.89424],[11.16357,50.89246],[11.13409,50.89652],[11.12471,50.88767],[11.13156,50.87473],[11.16462,50.87208],[11.1593,50.86367],[11.17787,50.85264],[11.15588,50.84477],[11.16313,50.83793],[11.155,50.83251],[11.16632,50.82884],[11.17082,50.82104],[11.19656,50.81712],[11.20068,50.80713],[11.22188,50.80388],[11.22972,50.80904],[11.25729,50.81509],[11.252,50.82422]]]},"properties":{"plz":"99448","name":"99448 Kranichfeld u.a."}},{"type":"Feature","geometry":{"type":"Polygon","coordinates":[[[11.54751,50.9889],[11.55115,50.99293],[11.57365,50.99716],[11.57562,51.00171],[11.60485,51.0054],[11.60046,51.01439],[11.61129,51.01415],[11.62291,51.02046],[11.62096,51.02743],[11.65156,51.02378],[11.67521,51.03636],[11.66827,51.04235],[11.68682,51.05413],[11.67799,51.0605],[11.66285,51.05243],[11.64705,51.05685],[11.61664,51.05196],[11.60161,51.05471],[11.59139,51.05259],[11.58105,51.06394],[11.57002,51.06955],[11.55597,51.06353],[11.57034,51.05608],[11.58036,51.04082],[11.55823,51.04148],[11.54527,51.04669],[11.54186,51.05427],[11.53511,51.04876],[11.52085,51.0525],[11.52004,51.07514],[11.49134,51.07132],[11.48217,51.08599],[11.48019,51.10023],[11.45854,51.09738],[11.43423,51.0896],[11.42751,51.09161],[11.42909,51.10318],[11.41646,51.10378],[11.40892,51.10927],[11.40457,51.09952],[11.39243,51.096],[11.39359,51.08906],[11.38521,51.08781],[11.39302,51.0779],[11.41657,51.07301],[11.41721,51.06567],[11.39695,51.06143],[11.39906,51.05117],[11.393,51.04789],[11.39417,51.02721],[11.38882,51.02456],[11.40171,51.01219],[11.4137,50.98493],[11.42718,50.98421],[11.44039,50.97324],[11.44976,50.97574],[11.45352,50.9689],[11.50306,50.96496],[11.52299,50.97077],[11.52486,50.98022],[11.54751,50.9889]]]},"properties":{"plz":"99510","name":"99510 Apolda"}},{"type":"Feature","geometry":{"type":"Polygon","coordinates":[[[11.6,51.11484],[11.57185,51.12057],[11.55819,51.10882],[11.54772,51.11173],[11.54564,51.10245],[11.5122,51.108],[11.51054,51.10305],[11.48541,51.10251],[11.4847,51.10531],[11.48019,51.10023],[11.48217,51.08599],[11.49134,51.07132],[11.52004,51.07514],[11.52085,51.0525],[11.53511,51.04876],[11.54186,51.05427],[11.54527,51.04669],[11.55823,51.04148],[11.58036,51.04082],[11.57034,51.05608],[11.55597,51.06353],[11.57002,51.06955],[11.58105,51.06394],[11.59139,51.05259],[11.60161,51.05471],[11.61664,51.05196],[11.64705,51.05685],[11.66285,51.05243],[11.67799,51.0605],[11.68865,51.06157],[11.68782,51.07634],[11.68189,51.0837],[11.69667,51.08763],[11.69279,51.09974],[11.67561,51.10401],[11.66817,51.11041],[11.63824,51.11072],[11.62365,51.1038],[11.6,51.11484]]]},"properties":{"plz":"99518","name":"99518 Bad Sulza"}},{"type":"Feature","geometry":{"type":"Polygon","coordinates":[[[11.19643,51.10129],[11.20014,51.10463],[11.25177,51.10664],[11.25809,51.10108],[11.31081,51.09968],[11.33585,51.09749],[11.37192,51.10164],[11.36978,51.10903],[11.35115,51.11642],[11.34091,51.13135],[11.33584,51.12844],[11.29358,51.12904],[11.2544,51.13535],[11.25507,51.14819],[11.22922,51.14951],[11.20302,51.16548],[11.20461,51.17741],[11.20109,51.19016],[11.18875,51.19494],[11.18893,51.2184],[11.17462,51.22303],[11.16661,51.21995],[11.13588,51.21736],[11.14255,51.20259],[11.12508,51.19394],[11.12805,51.18403],[11.11955,51.18107],[11.09442,51.18139],[11.08462,51.17827],[11.08655,51.17246],[11.04888,51.17039],[11.02786,51.1784],[11.02224,51.17711],[11.02121,51.15125],[11.035,51.14482],[11.0656,51.14167],[11.06398,51.12905],[11.0688,51.12532],[11.0971,51.12755],[11.1174,51.12205],[11.13349,51.12972],[11.17419,51.1277],[11.17432,51.1055],[11.18789,51.10561],[11.19643,51.10129]]]},"properties":{"plz":"99610","name":"99610 Sömmerda"}},{"type":"Feature","geometry":{"type":"Polygon","coordinates":[[[11.30746,51.2844],[11.31436,51.27787],[11.30548,51.27179],[11.32842,51.27087],[11.32572,51.26054],[11.30394,51.24424],[11.2907,51.24538],[11.26469,51.26174],[11.25537,51.26443],[11.25508,51.25735],[11.2419,51.24737],[11.23275,51.24666],[11.21986,51.23452],[11.21422,51.24048],[11.18683,51.24537],[11.17462,51.22303],[11.18893,51.2184],[11.18875,51.19494],[11.20109,51.19016],[11.20461,51.17741],[11.20302,51.16548],[11.22922,51.14951],[11.25507,51.14819],[11.2544,51.13535],[11.29358,51.12904],[11.3005,51.15518],[11.32361,51.16728],[11.32495,51.17576],[11.31103,51.17528],[11.3011,51.20203],[11.30832,51.20129],[11.31121,51.21038],[11.32897,51.21181],[11.33159,51.21736],[11.31975,51.22021],[11.32922,51.22351],[11.32913,51.23944],[11.369,51.22943],[11.38726,51.24588],[11.39018,51.2524],[11.35098,51.25771],[11.35995,51.2629],[11.35205,51.27269],[11.33246,51.27345],[11.32712,51.27883],[11.33854,51.28447],[11.3242,51.29366],[11.30746,51.2844]]]},"properties":{"plz":"99625","name":"99625 Kölleda"}},{"type":"Feature","geometry":{"type":"Polygon","coordinates":[[[11.45302,51.19194],[11.43456,51.16617],[11.41091,51.15815],[11.39326,51.1554],[11.38134,51.15852],[11.38105,51.16434],[11.36508,51.16691],[11.33831,51.17833],[11.32528,51.1808],[11.32495,51.17576],[11.32361,51.16728],[11.3005,51.15518],[11.29358,51.12904],[11.33584,51.12844],[11.34091,51.13135],[11.35115,51.11642],[11.36978,51.10903],[11.37192,51.10164],[11.39243,51.096],[11.40457,51.09952],[11.40892,51.10927],[11.41646,51.10378],[11.42909,51.10318],[11.42751,51.09161],[11.43423,51.0896],[11.45854,51.09738],[11.48019,51.10023],[11.4847,51.10531],[11.46329,51.11275],[11.46331,51.12919],[11.45143,51.14653],[11.472,51.14791],[11.47921,51.15772],[11.46688,51.18104],[11.46849,51.19267],[11.45302,51.19194]]]},"properties":{"plz":"99628","name":"99628 Buttstädt"}},{"type":"Feature","geometry":{"type":"Polygon","coordinates":[[[11.13588,51.21736],[11.12537,51.22829],[11.10471,51.22036],[11.09424,51.24485],[11.06278,51.24272],[11.05165,51.24763],[11.03916,51.2438],[11.00812,51.24399],[11.00027,51.22025],[10.9812,51.22188],[10.97523,51.21623],[10.97281,51.19971],[10.99091,51.19622],[10.99498,51.18825],[11.0208,51.18149],[11.02224,51.17711],[11.02786,51.1784],[11.04888,51.17039],[11.08655,51.17246],[11.08462,51.17827],[11.09442,51.18139],[11.11955,51.18107],[11.12805,51.18403],[11.12508,51.19394],[11.14255,51.20259],[11.13588,51.21736]]]},"properties":{"plz":"99631","name":"99631 Weißensee"}},{"type":"Feature","geometry":{"type":"Polygon","coordinates":[[[11.04455,51.11819],[11.05219,51.12737],[11.06398,51.12905],[11.0656,51.14167],[11.035,51.14482],[11.02121,51.15125],[11.02224,51.17711],[11.0208,51.18149],[10.99498,51.18825],[10.99091,51.19622],[10.97281,51.19971],[10.96199,51.20586],[10.94163,51.20375],[10.92272,51.20519],[10.91618,51.18596],[10.92029,51.18249],[10.90579,51.17984],[10.91062,51.16577],[10.9083,51.15155],[10.91829,51.14709],[10.90733,51.14064],[10.93863,51.14111],[10.94337,51.13068],[10.95379,51.13256],[10.9631,51.1247],[10.97139,51.13428],[10.98761,51.13729],[11.01555,51.12125],[11.03547,51.11685],[11.04455,51.11819]]]},"properties":{"plz":"99634","name":"99634 Straußfurt"}},{"type":"Feature","geometry":{"type":"Polygon","coordinates":[[[11.369,51.22943],[11.32913,51.23944],[11.32922,51.22351],[11.31975,51.22021],[11.33159,51.21736],[11.32897,51.21181],[11.31121,51.21038],[11.30832,51.20129],[11.3011,51.20203],[11.31103,51.17528],[11.32495,51.17576],[11.32528,51.1808],[11.33831,51.17833],[11.36508,51.16691],[11.38105,51.16434],[11.38134,51.15852],[11.39326,51.1554],[11.41091,51.15815],[11.43456,51.16617],[11.45302,51.19194],[11.44882,51.19366],[11.44618,51.20878],[11.43133,51.21244],[11.39152,51.2037],[11.39093,51.21747],[11.3652,51.22138],[11.369,51.22943]]]},"properties":{"plz":"99636","name":"99636 Rastenberg"}},{"type":"Feature","geometry":{"type":"Polygon","coordinates":[[[11.15054,51.25635],[11.14383,51.25427],[11.09099,51.26792],[11.08876,51.27693],[11.07774,51.27585],[11.07129,51.26821],[11.0546,51.27371],[11.02993,51.27503],[11.02656,51.27094],[11.00407,51.26655],[10.99518,51.25939],[10.99449,51.24845],[11.00812,51.24399],[11.03916,51.2438],[11.05165,51.24763],[11.06278,51.24272],[11.09424,51.24485],[11.10471,51.22036],[11.12537,51.22829],[11.13588,51.21736],[11.16661,51.21995],[11.17462,51.22303],[11.18683,51.24537],[11.18024,51.24939],[11.15054,51.25635]]]},"properties":{"plz":"99638","name":"99638 Kindelbrück"}},{"type":"Feature","geometry":{"type":"Polygon","coordinates":[[[11.03094,51.28945],[11.01912,51.30907],[11.01507,51.32282],[10.99136,51.32557],[10.97933,51.30349],[10.96708,51.30325],[10.967,51.30828],[10.95449,51.31096],[10.92961,51.30838],[10.91111,51.31226],[10.88659,51.30966],[10.87209,51.29757],[10.83356,51.29983],[10.81574,51.28405],[10.83865,51.27878],[10.83924,51.26943],[10.84568,51.26671],[10.82734,51.26482],[10.81874,51.27026],[10.79543,51.26309],[10.79573,51.25389],[10.78905,51.25185],[10.79505,51.24401],[10.81805,51.23807],[10.81599,51.2223],[10.8537,51.22043],[10.85434,51.21583],[10.86914,51.2203],[10.87671,51.21727],[10.89478,51.21819],[10.89535,51.20598],[10.92272,51.20519],[10.94163,51.20375],[10.96199,51.20586],[10.97281,51.19971],[10.97523,51.21623],[10.9812,51.22188],[11.00027,51.22025],[11.00812,51.24399],[10.99449,51.24845],[10.99518,51.25939],[11.00407,51.26655],[11.02656,51.27094],[11.02993,51.27503],[11.03747,51.28469],[11.03094,51.28945]]]},"properties":{"plz":"99718","name":"99718 Greußen Clingen Großenehrich"}},{"type":"Feature","geometry":{"type":"Polygon","coordinates":[[[10.38074,50.97008],[10.395,50.96309],[10.4202,50.9651],[10.4485,50.96054],[10.44221,50.94481],[10.44612,50.94388],[10.45659,50.91938],[10.44314,50.90946],[10.47641,50.91243],[10.48422,50.91049],[10.47958,50.89945],[10.49606,50.89585],[10.49667,50.90725],[10.48525,50.91121],[10.48436,50.92032],[10.4945,50.92296],[10.49192,50.92861],[10.50083,50.93828],[10.49922,50.94915],[10.51421,50.96008],[10.51995,50.96721],[10.49674,50.9667],[10.48006,50.97899],[10.48447,50.98437],[10.481,50.99401],[10.49705,50.99341],[10.52102,51.00437],[10.56236,51.01475],[10.56488,51.02103],[10.59987,51.02496],[10.61416,51.03929],[10.60382,51.04855],[10.61635,51.0581],[10.59438,51.05426],[10.55298,51.06145],[10.52373,51.06246],[10.51461,51.07858],[10.48782,51.07569],[10.48361,51.08424],[10.46326,51.07612],[10.44057,51.07737],[10.44962,51.07183],[10.45093,51.06324],[10.4443,51.0527],[10.43504,51.04943],[10.43694,51.041],[10.43087,51.02772],[10.41655,51.02391],[10.39964,51.02831],[10.3789,51.02206],[10.3838,51.01309],[10.37575,51.00874],[10.37809,51.00206],[10.39152,50.9995],[10.38917,50.98603],[10.37514,50.9823],[10.38074,50.97008]]]},"properties":{"plz":"99820","name":"99820 Hörselberg-Hainich"}},{"type":"Feature","geometry":{"type":"Polygon","coordinates":[[[10.64456,50.96748],[10.65129,50.96432],[10.64135,50.93809],[10.6223,50.93252],[10.63024,50.92453],[10.63783,50.91587],[10.6512,50.91542],[10.65586,50.90244],[10.66429,50.89356],[10.6754,50.89367],[10.68809,50.90351],[10.70577,50.90412],[10.7255,50.90868],[10.7379,50.90705],[10.75322,50.92578],[10.7626,50.9241],[10.78164,50.92889],[10.77393,50.93723],[10.77416,50.96265],[10.75738,50.96227],[10.75991,50.97378],[10.75505,50.99128],[10.74003,50.9823],[10.69655,50.97598],[10.67999,50.9678],[10.66899,50.96631],[10.65125,50.97536],[10.64456,50.96748]]]},"properties":{"plz":"99867","name":"99867 Gotha"}},{"type":"Feature","geometry":{"type":"Polygon","coordinates":[[[10.76828,51.05736],[10.75732,51.05559],[10.74786,51.04759],[10.73804,51.05105],[10.71096,51.05212],[10.6787,51.03863],[10.65246,51.04175],[10.64244,51.03326],[10.62631,51.03206],[10.61416,51.03929],[10.59987,51.02496],[10.56488,51.02103],[10.56236,51.01475],[10.52102,51.00437],[10.49705,50.99341],[10.481,50.99401],[10.48447,50.98437],[10.48006,50.97899],[10.49674,50.9667],[10.51995,50.96721],[10.51421,50.96008],[10.56015,50.96374],[10.55541,50.97183],[10.59859,50.97014],[10.6164,50.9779],[10.63092,50.97306],[10.63287,50.96679],[10.64456,50.96748],[10.65125,50.97536],[10.66899,50.96631],[10.67999,50.9678],[10.69655,50.97598],[10.74003,50.9823],[10.75505,50.99128],[10.75991,50.97378],[10.75738,50.96227],[10.77416,50.96265],[10.77393,50.93723],[10.78164,50.92889],[10.7626,50.9241],[10.75322,50.92578],[10.7379,50.90705],[10.7255,50.90868],[10.70577,50.90412],[10.68809,50.90351],[10.6754,50.89367],[10.66429,50.89356],[10.65938,50.88146],[10.67651,50.86346],[10.68676,50.86538],[10.69227,50.87515],[10.70408,50.87759],[10.71069,50.87275],[10.72485,50.87295],[10.72089,50.86597],[10.72758,50.85779],[10.73739,50.86566],[10.75896,50.86314],[10.76982,50.8582],[10.78177,50.84443],[10.82041,50.84123],[10.83771,50.84644],[10.8406,50.85364],[10.85474,50.8594],[10.86611,50.85648],[10.86511,50.86469],[10.87428,50.87765],[10.86136,50.87926],[10.85987,50.91641],[10.869,50.91731],[10.87727,50.92768],[10.86639,50.94115],[10.8672,50.94718],[10.85166,50.94669],[10.85018,50.95249],[10.82682,50.95138],[10.83323,50.97592],[10.83011,50.98358],[10.83465,50.99192],[10.83586,51.00744],[10.82126,51.00358],[10.81974,51.02656],[10.79977,51.03657],[10.78343,51.05097],[10.76828,51.05736]]]},"properties":{"plz":"99869","name":"99869 Drei Gleichen"}},{"type":"Feature","geometry":{"type":"Polygon","coordinates":[[[10.41154,50.85047],[10.42818,50.84262],[10.43909,50.84715],[10.45543,50.84569],[10.4658,50.85077],[10.47647,50.85822],[10.46355,50.8667],[10.4849,50.87752],[10.48346,50.88618],[10.50071,50.89095],[10.52323,50.89008],[10.54133,50.86797],[10.57394,50.87677],[10.57313,50.87082],[10.58304,50.86644],[10.59786,50.86709],[10.58826,50.8738],[10.59679,50.87624],[10.59257,50.88192],[10.60671,50.88764],[10.6125,50.89954],[10.60851,50.90678],[10.61542,50.91768],[10.63024,50.92453],[10.6223,50.93252],[10.64135,50.93809],[10.65129,50.96432],[10.64456,50.96748],[10.63287,50.96679],[10.63092,50.97306],[10.6164,50.9779],[10.59859,50.97014],[10.55541,50.97183],[10.56015,50.96374],[10.51421,50.96008],[10.49922,50.94915],[10.50083,50.93828],[10.49192,50.92861],[10.4945,50.92296],[10.48436,50.92032],[10.48525,50.91121],[10.49667,50.90725],[10.49606,50.89585],[10.47958,50.89945],[10.48422,50.91049],[10.47641,50.91243],[10.44314,50.90946],[10.43594,50.90303],[10.43832,50.89352],[10.41973,50.88682],[10.40162,50.86354],[10.41154,50.85047]]]},"properties":{"plz":"99880","name":"99880 Waltershausen"}},{"type":"Feature","geometry":{"type":"Polygon","coordinates":[[[10.72889,50.73218],[10.73909,50.74057],[10.73841,50.75222],[10.74331,50.75689],[10.73512,50.76332],[10.75162,50.76889],[10.73491,50.7689],[10.72438,50.78045],[10.73062,50.7901],[10.74366,50.78982],[10.74724,50.79532],[10.76431,50.78806],[10.77722,50.79553],[10.80305,50.79211],[10.81277,50.79564],[10.82378,50.79274],[10.83618,50.80232],[10.83827,50.80861],[10.83081,50.81503],[10.82137,50.81395],[10.81868,50.82239],[10.83743,50.82041],[10.8519,50.82318],[10.85816,50.83843],[10.82041,50.84123],[10.78177,50.84443],[10.76982,50.8582],[10.75896,50.86314],[10.73739,50.86566],[10.72758,50.85779],[10.72348,50.84578],[10.7133,50.84095],[10.70322,50.84402],[10.6904,50.8354],[10.68967,50.82643],[10.69645,50.83037],[10.71181,50.82898],[10.7155,50.81902],[10.69775,50.81105],[10.68133,50.79909],[10.66611,50.79932],[10.67282,50.78528],[10.66896,50.77527],[10.66828,50.74264],[10.65655,50.72351],[10.6689,50.72393],[10.68628,50.7155],[10.70429,50.71595],[10.72193,50.73861],[10.72889,50.73218]]]},"properties":{"plz":"99885","name":"99885 Luisenthal, Ohrdruf, Wolfis"}},{"type":"Feature","geometry":{"type":"Polygon","coordinates":[[[10.65655,50.72351],[10.66828,50.74264],[10.66896,50.77527],[10.67282,50.78528],[10.66611,50.79932],[10.68133,50.79909],[10.69775,50.81105],[10.7155,50.81902],[10.71181,50.82898],[10.69645,50.83037],[10.68967,50.82643],[10.6904,50.8354],[10.70322,50.84402],[10.7133,50.84095],[10.72348,50.84578],[10.72758,50.85779],[10.72089,50.86597],[10.72485,50.87295],[10.71069,50.87275],[10.70408,50.87759],[10.69227,50.87515],[10.68676,50.86538],[10.67651,50.86346],[10.67196,50.85869],[10.67303,50.8407],[10.656,50.83585],[10.64655,50.82623],[10.61726,50.82718],[10.60743,50.82247],[10.59975,50.82744],[10.58635,50.82141],[10.57467,50.82243],[10.54217,50.813],[10.54585,50.80207],[10.55373,50.79557],[10.58039,50.79974],[10.60287,50.79299],[10.61922,50.80865],[10.63662,50.79648],[10.63797,50.77892],[10.64852,50.77303],[10.64434,50.76298],[10.6516,50.75219],[10.63931,50.74141],[10.6506,50.72896],[10.64449,50.72402],[10.64993,50.71568],[10.65655,50.72351]]]},"properties":{"plz":"99887","name":"99887 Georgenthal/ Thür. Wald"}},{"type":"Feature","geometry":{"type":"Polygon","coordinates":[[[10.51583,50.83673],[10.52316,50.84335],[10.51926,50.853],[10.53051,50.86363],[10.54133,50.86797],[10.52323,50.89008],[10.50071,50.89095],[10.48346,50.88618],[10.4849,50.87752],[10.46355,50.8667],[10.47647,50.85822],[10.4658,50.85077],[10.48082,50.84585],[10.49585,50.83556],[10.51093,50.83315],[10.51583,50.83673]]]},"properties":{"plz":"99891","name":"99891 Tabarz/ Thür. Wald"}},{"type":"Feature","geometry":{"type":"Polygon","coordinates":[[[10.54217,50.813],[10.57467,50.82243],[10.58635,50.82141],[10.59975,50.82744],[10.60743,50.82247],[10.61726,50.82718],[10.64655,50.82623],[10.656,50.83585],[10.67303,50.8407],[10.67196,50.85869],[10.67651,50.86346],[10.65938,50.88146],[10.66429,50.89356],[10.65586,50.90244],[10.6512,50.91542],[10.63783,50.91587],[10.63024,50.92453],[10.61542,50.91768],[10.60851,50.90678],[10.6125,50.89954],[10.60671,50.88764],[10.59257,50.88192],[10.59679,50.87624],[10.58826,50.8738],[10.59786,50.86709],[10.58304,50.86644],[10.57313,50.87082],[10.57394,50.87677],[10.54133,50.86797],[10.53051,50.86363],[10.51926,50.853],[10.52316,50.84335],[10.51583,50.83673],[10.53788,50.82717],[10.54217,50.813]]]},"properties":{"plz":"99894","name":"99894 Leinatal"}},{"type":"Feature","geometry":{"type":"Polygon","coordinates":[[[10.64449,50.72402],[10.6506,50.72896],[10.63931,50.74141],[10.6516,50.75219],[10.64434,50.76298],[10.64852,50.77303],[10.63797,50.77892],[10.63662,50.79648],[10.61922,50.80865],[10.60287,50.79299],[10.58039,50.79974],[10.55373,50.79557],[10.54585,50.80207],[10.54098,50.7986],[10.53826,50.7824],[10.55864,50.78444],[10.56695,50.77228],[10.56482,50.75629],[10.57439,50.74248],[10.58515,50.73617],[10.61324,50.7378],[10.64449,50.72402]]]},"properties":{"plz":"99897","name":"99897 Tambach-Dietharz/ Thür."}},{"type":"Feature","geometry":{"type":"Polygon","coordinates":[[[10.70856,51.21664],[10.67366,51.21708],[10.65588,51.22136],[10.64411,51.21338],[10.62628,51.21249],[10.6171,51.21309],[10.6024,51.2074],[10.59383,51.19161],[10.62148,51.1756],[10.62442,51.15974],[10.61365,51.13566],[10.59884,51.13178],[10.57336,51.13209],[10.53825,51.12875],[10.52888,51.13538],[10.51494,51.12937],[10.51181,51.13418],[10.49946,51.13082],[10.49763,51.12109],[10.46087,51.10936],[10.42679,51.09159],[10.42038,51.09777],[10.41322,51.09271],[10.40521,51.09659],[10.41675,51.10594],[10.41364,51.10935],[10.39229,51.1],[10.39374,51.09578],[10.39342,51.087],[10.38367,51.07901],[10.39938,51.07571],[10.42213,51.05847],[10.43478,51.05482],[10.43504,51.04943],[10.4443,51.0527],[10.45093,51.06324],[10.44962,51.07183],[10.44057,51.07737],[10.46326,51.07612],[10.48361,51.08424],[10.48782,51.07569],[10.51461,51.07858],[10.52373,51.06246],[10.55298,51.06145],[10.59438,51.05426],[10.61635,51.0581],[10.60382,51.04855],[10.61416,51.03929],[10.62631,51.03206],[10.64244,51.03326],[10.65246,51.04175],[10.6787,51.03863],[10.71096,51.05212],[10.70216,51.0699],[10.70644,51.07354],[10.69488,51.08004],[10.70473,51.08713],[10.70248,51.09785],[10.70768,51.10224],[10.7422,51.11336],[10.74496,51.12504],[10.74074,51.13065],[10.72882,51.12944],[10.71671,51.14266],[10.73772,51.1483],[10.73536,51.1544],[10.75027,51.1553],[10.75136,51.16172],[10.76284,51.16291],[10.77131,51.17311],[10.7635,51.18541],[10.74949,51.18776],[10.75777,51.19376],[10.74231,51.19564],[10.73414,51.19287],[10.73768,51.20139],[10.72149,51.20227],[10.72039,51.21362],[10.70856,51.21664]]]},"properties":{"plz":"99947","name":"99947 Bad Langensalza"}},{"type":"Feature","geometry":{"type":"Polygon","coordinates":[[[10.88019,51.09808],[10.88562,51.09874],[10.87643,51.12622],[10.89199,51.12697],[10.89993,51.1344],[10.91119,51.13372],[10.90733,51.14064],[10.91829,51.14709],[10.9083,51.15155],[10.91062,51.16577],[10.90579,51.17984],[10.92029,51.18249],[10.91618,51.18596],[10.92272,51.20519],[10.89535,51.20598],[10.89478,51.21819],[10.87671,51.21727],[10.86914,51.2203],[10.85434,51.21583],[10.8537,51.22043],[10.81599,51.2223],[10.77719,51.21537],[10.7598,51.2043],[10.76287,51.21503],[10.75881,51.22161],[10.7462,51.2214],[10.73309,51.21204],[10.72039,51.21362],[10.72149,51.20227],[10.73768,51.20139],[10.73414,51.19287],[10.74231,51.19564],[10.75777,51.19376],[10.74949,51.18776],[10.7635,51.18541],[10.77131,51.17311],[10.76284,51.16291],[10.75136,51.16172],[10.75027,51.1553],[10.73536,51.1544],[10.73772,51.1483],[10.71671,51.14266],[10.72882,51.12944],[10.74074,51.13065],[10.75974,51.1363],[10.7811,51.1384],[10.78629,51.12513],[10.80118,51.11707],[10.81044,51.09785],[10.83739,51.09457],[10.88019,51.09808]]]},"properties":{"plz":"99955","name":"99955 Bad Tennstedt"}},{"type":"Feature","geometry":{"type":"Polygon","coordinates":[[[10.81044,51.09785],[10.80118,51.11707],[10.78629,51.12513],[10.7811,51.1384],[10.75974,51.1363],[10.74074,51.13065],[10.74496,51.12504],[10.7422,51.11336],[10.70768,51.10224],[10.70248,51.09785],[10.70473,51.08713],[10.69488,51.08004],[10.70644,51.07354],[10.70216,51.0699],[10.71096,51.05212],[10.73804,51.05105],[10.74786,51.04759],[10.75732,51.05559],[10.76828,51.05736],[10.77716,51.06738],[10.78391,51.09425],[10.81044,51.09785]]]},"properties":{"plz":"99958","name":"99958 Großvargula, Tonna"}},{"type":"Feature","geometry":{"type":"Polygon","coordinates":[[[10.59383,51.19161],[10.57365,51.19398],[10.56647,51.18521],[10.55141,51.18507],[10.54285,51.17614],[10.53002,51.17363],[10.53434,51.16671],[10.5492,51.16347],[10.52789,51.15702],[10.5162,51.14956],[10.49541,51.14689],[10.4925,51.13803],[10.49946,51.13082],[10.51181,51.13418],[10.51494,51.12937],[10.52888,51.13538],[10.53825,51.12875],[10.57336,51.13209],[10.59884,51.13178],[10.61365,51.13566],[10.62442,51.15974],[10.62148,51.1756],[10.59383,51.19161]]]},"properties":{"plz":"99991","name":"99991 Großengottern, Heroldishausen"}},{"type":"Feature","geometry":{"type":"Polygon","coordinates":[[[10.64554,51.28603],[10.64572,51.26533],[10.63194,51.24922],[10.63343,51.23211],[10.62221,51.23037],[10.62628,51.21249],[10.64411,51.21338],[10.65588,51.22136],[10.67366,51.21708],[10.70856,51.21664],[10.70063,51.22597],[10.70342,51.2328],[10.69521,51.24107],[10.69278,51.25318],[10.68538,51.25649],[10.68054,51.27573],[10.65767,51.28613],[10.64554,51.28603]]]},"properties":{"plz":"99994","name":"99994 Schlotheim"}}]}