{"type":"FeatureCollection","features":[{"type":"Feature","geometry":{"type":"Polygon","coordinates":[[[10.05861,52.60701],[10.07552,52.60939],[10.1068,52.60596],[10.10894,52.61752],[10.097,52.62465],[10.06599,52.63131],[10.0631,52.62274],[10.05861,52.60701]]]},"properties":{"plz":"29221","name":"29221 Celle"}},{"type":"Feature","geometry":{"type":"Polygon","coordinates":[[[10.10894,52.61752],[10.18888,52.61157],[10.19566,52.6113],[10.1951,52.62488],[10.18894,52.62822],[10.18851,52.63828],[10.17796,52.64026],[10.12695,52.6342],[10.10857,52.64523],[10.1001,52.64186],[10.07474,52.64262],[10.04637,52.64982],[10.00664,52.66722],[9.99692,52.66151],[10.00573,52.65387],[9.99257,52.64266],[10.01845,52.63805],[10.02685,52.6373],[10.04538,52.62312],[10.0631,52.62274],[10.06599,52.63131],[10.097,52.62465],[10.10894,52.61752]]]},"properties":{"plz":"29223","name":"29223 Celle"}},{"type":"Feature","geometry":{"type":"Polygon","coordinates":[[[10.0631,52.62274],[10.04538,52.62312],[10.02685,52.6373],[10.01845,52.63805],[10.01104,52.62548],[9.98925,52.62186],[9.98289,52.61462],[9.98608,52.6059],[9.99509,52.60729],[9.99283,52.58834],[9.9957,52.58287],[10.01914,52.5808],[10.04338,52.5923],[10.05184,52.58529],[10.05861,52.60701],[10.0631,52.62274]]]},"properties":{"plz":"29225","name":"29225 Celle"}},{"type":"Feature","geometry":{"type":"Polygon","coordinates":[[[10.05861,52.60701],[10.05184,52.58529],[10.09664,52.56972],[10.11498,52.56274],[10.12215,52.56742],[10.13136,52.58704],[10.15132,52.58911],[10.16071,52.58497],[10.15997,52.59694],[10.18888,52.61157],[10.10894,52.61752],[10.1068,52.60596],[10.07552,52.60939],[10.05861,52.60701]]]},"properties":{"plz":"29227","name":"29227 Celle"}},{"type":"Feature","geometry":{"type":"Polygon","coordinates":[[[10.17796,52.64026],[10.18059,52.6462],[10.20977,52.65021],[10.20056,52.65469],[10.20875,52.65822],[10.21072,52.66722],[10.2129,52.66942],[10.20264,52.66983],[10.17383,52.65715],[10.17985,52.66535],[10.16517,52.67897],[10.17798,52.68674],[10.17193,52.70257],[10.17504,52.71005],[10.16097,52.71635],[10.15683,52.70677],[10.09967,52.71635],[10.09946,52.72368],[10.08634,52.72831],[10.07958,52.71977],[10.06402,52.72253],[10.05284,52.71355],[10.03245,52.72041],[10.0324,52.70974],[10.01929,52.70207],[10.01198,52.68939],[9.99539,52.67781],[10.00664,52.66722],[10.04637,52.64982],[10.07474,52.64262],[10.1001,52.64186],[10.10857,52.64523],[10.12695,52.6342],[10.17796,52.64026]]]},"properties":{"plz":"29229","name":"29229 Celle, Wittbeck"}},{"type":"Feature","geometry":{"type":"Polygon","coordinates":[[[10.00664,52.66722],[9.99539,52.67781],[10.01198,52.68939],[10.01929,52.70207],[10.0324,52.70974],[10.03245,52.72041],[10.00732,52.71468],[10.01462,52.73251],[10.00484,52.73144],[10.00968,52.72558],[9.97826,52.70936],[9.97136,52.72054],[9.96527,52.71586],[9.9402,52.73017],[9.94757,52.73607],[9.93788,52.74151],[9.9382,52.74853],[9.92971,52.75265],[9.89627,52.75331],[9.89396,52.74813],[9.86587,52.73901],[9.84359,52.74174],[9.83126,52.74626],[9.82298,52.74798],[9.79276,52.7398],[9.75119,52.73233],[9.76111,52.71553],[9.74409,52.71047],[9.73183,52.71206],[9.72597,52.70623],[9.73848,52.69337],[9.72931,52.67601],[9.74426,52.66893],[9.77454,52.67074],[9.80847,52.66547],[9.82292,52.67061],[9.81988,52.67768],[9.83506,52.68701],[9.85799,52.68975],[9.86108,52.68332],[9.87231,52.68264],[9.8657,52.6691],[9.86693,52.65754],[9.87325,52.65906],[9.88507,52.64842],[9.88353,52.64414],[9.90604,52.6405],[9.90963,52.66245],[9.91583,52.6693],[9.92829,52.67246],[9.92844,52.66514],[9.94501,52.65391],[9.95989,52.65776],[9.96173,52.65096],[9.98214,52.65041],[9.99257,52.64266],[10.00573,52.65387],[9.99692,52.66151],[10.00664,52.66722]]]},"properties":{"plz":"29308","name":"29308 Winsen (Aller)"}},{"type":"Feature","geometry":{"type":"Polygon","coordinates":[[[9.99257,52.64266],[9.98214,52.65041],[9.96173,52.65096],[9.95989,52.65776],[9.94501,52.65391],[9.92844,52.66514],[9.92829,52.67246],[9.91583,52.6693],[9.90963,52.66245],[9.90604,52.6405],[9.88353,52.64414],[9.88631,52.62968],[9.869,52.6317],[9.87115,52.62186],[9.8834,52.61976],[9.88427,52.60398],[9.87689,52.59071],[9.90757,52.5974],[9.91253,52.59209],[9.93594,52.59045],[9.94493,52.58691],[9.9516,52.59096],[9.96622,52.59028],[9.96712,52.57802],[9.98855,52.57812],[9.9957,52.58287],[9.99283,52.58834],[9.99509,52.60729],[9.98608,52.6059],[9.98289,52.61462],[9.98925,52.62186],[10.01104,52.62548],[10.01845,52.63805],[9.99257,52.64266]]]},"properties":{"plz":"29313","name":"29313 Hambühren"}},{"type":"Feature","geometry":{"type":"Polygon","coordinates":[[[9.74426,52.66893],[9.74549,52.65769],[9.73322,52.65369],[9.72652,52.64472],[9.73444,52.6382],[9.74058,52.63129],[9.7681,52.62942],[9.77564,52.62204],[9.80204,52.61468],[9.80455,52.60694],[9.82432,52.60407],[9.8242,52.59701],[9.83773,52.59722],[9.8478,52.60791],[9.85613,52.60346],[9.88427,52.60398],[9.8834,52.61976],[9.87115,52.62186],[9.869,52.6317],[9.88631,52.62968],[9.88353,52.64414],[9.88507,52.64842],[9.87325,52.65906],[9.86693,52.65754],[9.8657,52.6691],[9.87231,52.68264],[9.86108,52.68332],[9.85799,52.68975],[9.83506,52.68701],[9.81988,52.67768],[9.82292,52.67061],[9.80847,52.66547],[9.77454,52.67074],[9.74426,52.66893]]]},"properties":{"plz":"29323","name":"29323 Wietze"}},{"type":"Feature","geometry":{"type":"Polygon","coordinates":[[[10.19566,52.6113],[10.19658,52.60684],[10.23145,52.60023],[10.23672,52.59341],[10.23086,52.58893],[10.26461,52.58068],[10.27549,52.58467],[10.28197,52.58982],[10.27264,52.5948],[10.26103,52.59108],[10.25652,52.59568],[10.24755,52.59063],[10.24182,52.6088],[10.2649,52.61301],[10.28305,52.63123],[10.30663,52.62855],[10.32099,52.62078],[10.34018,52.62217],[10.33517,52.63069],[10.30871,52.64692],[10.30965,52.65822],[10.29665,52.659],[10.27563,52.64387],[10.27436,52.63639],[10.25491,52.63147],[10.24244,52.64486],[10.22974,52.64839],[10.22418,52.66204],[10.21072,52.66722],[10.20875,52.65822],[10.20056,52.65469],[10.20977,52.65021],[10.18059,52.6462],[10.17796,52.64026],[10.18851,52.63828],[10.18894,52.62822],[10.1951,52.62488],[10.19566,52.6113]]]},"properties":{"plz":"29331","name":"29331 Lachendorf"}},{"type":"Feature","geometry":{"type":"Polygon","coordinates":[[[10.09664,52.56972],[10.07633,52.56447],[10.0771,52.55319],[10.05612,52.55315],[10.05437,52.54462],[10.06266,52.55002],[10.08112,52.54942],[10.07684,52.53731],[10.08102,52.52563],[10.0959,52.52208],[10.09399,52.5168],[10.10528,52.50877],[10.1127,52.51018],[10.1224,52.54262],[10.13658,52.55187],[10.125,52.55836],[10.12215,52.56742],[10.11498,52.56274],[10.09664,52.56972]]]},"properties":{"plz":"29336","name":"29336 Nienhagen"}},{"type":"Feature","geometry":{"type":"Polygon","coordinates":[[[10.1127,52.51018],[10.12706,52.50645],[10.13936,52.49771],[10.15644,52.50513],[10.16724,52.50434],[10.17289,52.51801],[10.16759,52.52148],[10.17195,52.53372],[10.16753,52.54346],[10.15326,52.55221],[10.14093,52.55307],[10.13658,52.55187],[10.1224,52.54262],[10.1127,52.51018]]]},"properties":{"plz":"29339","name":"29339 Wathlingen"}},{"type":"Feature","geometry":{"type":"Polygon","coordinates":[[[10.18888,52.61157],[10.15997,52.59694],[10.16071,52.58497],[10.15132,52.58911],[10.13136,52.58704],[10.12215,52.56742],[10.125,52.55836],[10.13658,52.55187],[10.14093,52.55307],[10.14477,52.56212],[10.15482,52.56083],[10.1682,52.57092],[10.19901,52.56301],[10.20286,52.56995],[10.22265,52.55836],[10.22901,52.55126],[10.24915,52.5459],[10.24881,52.56492],[10.26727,52.57037],[10.29835,52.56497],[10.30044,52.57385],[10.29381,52.57515],[10.2956,52.58752],[10.27549,52.58467],[10.26461,52.58068],[10.23086,52.58893],[10.23672,52.59341],[10.23145,52.60023],[10.19658,52.60684],[10.19566,52.6113],[10.18888,52.61157]]]},"properties":{"plz":"29342","name":"29342 Wienhausen"}},{"type":"Feature","geometry":{"type":"Polygon","coordinates":[[[9.9957,52.58287],[9.98855,52.57812],[9.98413,52.56203],[9.96507,52.55361],[9.96647,52.55021],[9.99486,52.54412],[9.98782,52.5362],[10.03384,52.53835],[10.04668,52.53554],[10.07684,52.53731],[10.08112,52.54942],[10.06266,52.55002],[10.05437,52.54462],[10.05612,52.55315],[10.0771,52.55319],[10.07633,52.56447],[10.09664,52.56972],[10.05184,52.58529],[10.04338,52.5923],[10.01914,52.5808],[9.9957,52.58287]]]},"properties":{"plz":"29352","name":"29352 Adelheidsdorf"}},{"type":"Feature","geometry":{"type":"Polygon","coordinates":[[[10.27549,52.58467],[10.2956,52.58752],[10.31149,52.59115],[10.31203,52.59805],[10.34589,52.61282],[10.35532,52.62011],[10.35209,52.62439],[10.34018,52.62217],[10.32099,52.62078],[10.30663,52.62855],[10.28305,52.63123],[10.2649,52.61301],[10.24182,52.6088],[10.24755,52.59063],[10.25652,52.59568],[10.26103,52.59108],[10.27264,52.5948],[10.28197,52.58982],[10.27549,52.58467]]]},"properties":{"plz":"29353","name":"29353 Ahnsbeck"}},{"type":"Feature","geometry":{"type":"Polygon","coordinates":[[[10.16724,52.50434],[10.17839,52.51359],[10.2012,52.50981],[10.22339,52.49861],[10.2346,52.49817],[10.24534,52.49188],[10.25485,52.49329],[10.25726,52.49891],[10.24679,52.50272],[10.25306,52.51663],[10.25842,52.51589],[10.25902,52.51818],[10.25294,52.52347],[10.2338,52.5258],[10.23974,52.53395],[10.22333,52.53863],[10.21958,52.53034],[10.21087,52.53471],[10.19711,52.52727],[10.18535,52.53076],[10.17856,52.51694],[10.17289,52.51801],[10.16724,52.50434]]]},"properties":{"plz":"29356","name":"29356 Bröckel"}},{"type":"Feature","geometry":{"type":"Polygon","coordinates":[[[10.17289,52.51801],[10.17856,52.51694],[10.18535,52.53076],[10.19711,52.52727],[10.21087,52.53471],[10.21958,52.53034],[10.22333,52.53863],[10.23974,52.53395],[10.2338,52.5258],[10.25294,52.52347],[10.2554,52.54194],[10.24915,52.5459],[10.22901,52.55126],[10.22265,52.55836],[10.20286,52.56995],[10.19901,52.56301],[10.1682,52.57092],[10.15482,52.56083],[10.14477,52.56212],[10.14093,52.55307],[10.15326,52.55221],[10.16753,52.54346],[10.17195,52.53372],[10.16759,52.52148],[10.17289,52.51801]]]},"properties":{"plz":"29358","name":"29358 Eicklingen"}},{"type":"Feature","geometry":{"type":"MultiPolygon","coordinates":[[[[10.24915,52.5459],[10.2554,52.54194],[10.25294,52.52347],[10.25902,52.51818],[10.28409,52.51681],[10.27629,52.52482],[10.28229,52.52798],[10.3062,52.52238],[10.311,52.52978],[10.30466,52.53373],[10.31708,52.53923],[10.33782,52.53967],[10.3355,52.54845],[10.34638,52.54579],[10.35457,52.5622],[10.33919,52.57039],[10.30044,52.57385],[10.29835,52.56497],[10.26727,52.57037],[10.24881,52.56492],[10.24915,52.5459]]],[[[10.25485,52.49329],[10.26766,52.48837],[10.26764,52.50114],[10.27323,52.50966],[10.26865,52.51563],[10.25842,52.51589],[10.25306,52.51663],[10.24679,52.50272],[10.25726,52.49891],[10.25485,52.49329]]],[[[10.35503,52.56242],[10.37845,52.55172],[10.38065,52.55939],[10.3586,52.56727],[10.35503,52.56242]]]]},"properties":{"plz":"29364","name":"29364 Langlingen"}},{"type":"Feature","geometry":{"type":"Polygon","coordinates":[[[9.75119,52.73233],[9.72016,52.72703],[9.71405,52.73843],[9.68716,52.73102],[9.67666,52.7252],[9.6697,52.71306],[9.65226,52.70189],[9.63857,52.70658],[9.6184,52.70421],[9.6121,52.7096],[9.59443,52.71333],[9.58587,52.73156],[9.5759,52.7344],[9.58292,52.74068],[9.58266,52.74932],[9.57164,52.75081],[9.56355,52.75993],[9.55167,52.74704],[9.53304,52.74542],[9.49289,52.72639],[9.48066,52.72707],[9.48117,52.70498],[9.51181,52.70171],[9.5041,52.67902],[9.51107,52.67898],[9.52521,52.66032],[9.53415,52.65993],[9.53961,52.67141],[9.54839,52.67071],[9.57035,52.67647],[9.59147,52.67549],[9.58525,52.66454],[9.58954,52.65819],[9.60283,52.65455],[9.59916,52.64674],[9.61377,52.64716],[9.64216,52.63388],[9.63486,52.62549],[9.64607,52.6083],[9.65928,52.6018],[9.69609,52.59951],[9.70882,52.61008],[9.70601,52.61975],[9.71339,52.62356],[9.71174,52.63429],[9.72842,52.63371],[9.73444,52.6382],[9.72652,52.64472],[9.73322,52.65369],[9.74549,52.65769],[9.74426,52.66893],[9.72931,52.67601],[9.73848,52.69337],[9.72597,52.70623],[9.73183,52.71206],[9.74409,52.71047],[9.76111,52.71553],[9.75119,52.73233]]]},"properties":{"plz":"29690","name":"29690 Schwarmstedt u.a."}},{"type":"Feature","geometry":{"type":"MultiPolygon","coordinates":[[[[9.76138,52.37114],[9.75327,52.37027],[9.76072,52.3704],[9.76138,52.37114]]],[[[9.73336,52.3843],[9.72365,52.37772],[9.73517,52.36717],[9.74428,52.36855],[9.75183,52.36998],[9.74604,52.37513],[9.73336,52.3843]]]]},"properties":{"plz":"30159","name":"30159 Hannover"}},{"type":"Feature","geometry":{"type":"Polygon","coordinates":[[[9.74604,52.37513],[9.7575,52.38222],[9.75639,52.38882],[9.75428,52.3895],[9.73521,52.39141],[9.73336,52.3843],[9.74604,52.37513]]]},"properties":{"plz":"30161","name":"30161 Hannover"}},{"type":"Feature","geometry":{"type":"Polygon","coordinates":[[[9.75428,52.3895],[9.76014,52.40516],[9.73476,52.40922],[9.73521,52.39141],[9.75428,52.3895]]]},"properties":{"plz":"30163","name":"30163 Hannover"}},{"type":"Feature","geometry":{"type":"Polygon","coordinates":[[[9.73521,52.39141],[9.73476,52.40922],[9.72145,52.41388],[9.70736,52.41054],[9.69665,52.41395],[9.7074,52.39699],[9.72093,52.39391],[9.73336,52.3843],[9.73521,52.39141]]]},"properties":{"plz":"30165","name":"30165 Hannover"}},{"type":"Feature","geometry":{"type":"Polygon","coordinates":[[[9.73336,52.3843],[9.72093,52.39391],[9.7074,52.39699],[9.69926,52.38329],[9.68526,52.38836],[9.68223,52.38501],[9.69708,52.37819],[9.70897,52.3787],[9.7169,52.3728],[9.72365,52.37772],[9.73336,52.3843]]]},"properties":{"plz":"30167","name":"30167 Hannover"}},{"type":"Feature","geometry":{"type":"Polygon","coordinates":[[[9.72365,52.37772],[9.7169,52.3728],[9.72555,52.36155],[9.72972,52.35311],[9.74143,52.35239],[9.75143,52.35962],[9.74428,52.36855],[9.73517,52.36717],[9.72365,52.37772]]]},"properties":{"plz":"30169","name":"30169 Hannover"}},{"type":"Feature","geometry":{"type":"Polygon","coordinates":[[[9.75327,52.37027],[9.75183,52.36998],[9.74428,52.36855],[9.75143,52.35962],[9.76547,52.36407],[9.76072,52.3704],[9.75327,52.37027]]]},"properties":{"plz":"30171","name":"30171 Hannover"}},{"type":"Feature","geometry":{"type":"Polygon","coordinates":[[[9.76072,52.3704],[9.76547,52.36407],[9.75143,52.35962],[9.74143,52.35239],[9.74374,52.34578],[9.75328,52.34335],[9.78367,52.36008],[9.78335,52.3606],[9.77797,52.37308],[9.76138,52.37114],[9.76072,52.3704]]]},"properties":{"plz":"30173","name":"30173 Hannover"}},{"type":"Feature","geometry":{"type":"Polygon","coordinates":[[[9.76138,52.37114],[9.77797,52.37308],[9.78455,52.38977],[9.76593,52.38218],[9.75639,52.38882],[9.7575,52.38222],[9.74604,52.37513],[9.75183,52.36998],[9.75327,52.37027],[9.76138,52.37114]]]},"properties":{"plz":"30175","name":"30175 Hannover"}},{"type":"Feature","geometry":{"type":"Polygon","coordinates":[[[9.75639,52.38882],[9.76593,52.38218],[9.78455,52.38977],[9.78129,52.40641],[9.77425,52.40607],[9.76014,52.40516],[9.75428,52.3895],[9.75639,52.38882]]]},"properties":{"plz":"30177","name":"30177 Hannover"}},{"type":"Feature","geometry":{"type":"Polygon","coordinates":[[[9.76014,52.40516],[9.77425,52.40607],[9.77162,52.42738],[9.7629,52.42731],[9.73135,52.42905],[9.73284,52.42354],[9.72197,52.42284],[9.71314,52.42936],[9.71517,52.41813],[9.72145,52.41388],[9.73476,52.40922],[9.76014,52.40516]]]},"properties":{"plz":"30179","name":"30179 Hannover"}},{"type":"Feature","geometry":{"type":"Polygon","coordinates":[[[9.72145,52.41388],[9.71517,52.41813],[9.71314,52.42936],[9.70918,52.42988],[9.6951,52.43143],[9.66791,52.42797],[9.66202,52.43367],[9.63776,52.43278],[9.63583,52.42915],[9.621,52.4237],[9.61269,52.42131],[9.61895,52.40641],[9.6052,52.39809],[9.61059,52.39316],[9.62493,52.39503],[9.62896,52.40438],[9.64461,52.41374],[9.65022,52.40974],[9.6508,52.39608],[9.6655,52.39832],[9.68526,52.38836],[9.69926,52.38329],[9.7074,52.39699],[9.69665,52.41395],[9.70736,52.41054],[9.72145,52.41388]]]},"properties":{"plz":"30419","name":"30419 Hannover"}},{"type":"Feature","geometry":{"type":"Polygon","coordinates":[[[9.7169,52.3728],[9.70213,52.36924],[9.70952,52.35309],[9.71742,52.353],[9.72555,52.36155],[9.7169,52.3728]]]},"properties":{"plz":"30449","name":"30449 Hannover"}},{"type":"Feature","geometry":{"type":"Polygon","coordinates":[[[9.69708,52.37819],[9.70213,52.36924],[9.7169,52.3728],[9.70897,52.3787],[9.69708,52.37819]]]},"properties":{"plz":"30451","name":"30451 Hannover"}},{"type":"Feature","geometry":{"type":"Polygon","coordinates":[[[9.68526,52.38836],[9.6655,52.39832],[9.65302,52.38416],[9.66144,52.37314],[9.67599,52.37724],[9.68322,52.36495],[9.67957,52.35948],[9.69396,52.36115],[9.69925,52.35568],[9.6765,52.34759],[9.67972,52.34748],[9.69912,52.34753],[9.71733,52.34627],[9.71742,52.353],[9.70952,52.35309],[9.70213,52.36924],[9.69708,52.37819],[9.68223,52.38501],[9.68526,52.38836]]]},"properties":{"plz":"30453","name":"30453 Hannover"}},{"type":"Feature","geometry":{"type":"Polygon","coordinates":[[[9.66144,52.37314],[9.64997,52.36062],[9.63575,52.36077],[9.64092,52.3562],[9.64546,52.35138],[9.66621,52.34646],[9.6765,52.34759],[9.69925,52.35568],[9.69396,52.36115],[9.67957,52.35948],[9.68322,52.36495],[9.67599,52.37724],[9.66144,52.37314]]]},"properties":{"plz":"30455","name":"30455 Hannover"}},{"type":"Feature","geometry":{"type":"Polygon","coordinates":[[[9.67972,52.34748],[9.68312,52.33938],[9.67052,52.33316],[9.68202,52.31809],[9.69065,52.31491],[9.69432,52.31862],[9.71697,52.32463],[9.71768,52.32931],[9.70219,52.32884],[9.69553,52.33737],[9.69912,52.34753],[9.67972,52.34748]]]},"properties":{"plz":"30457","name":"30457 Hannover"}},{"type":"Feature","geometry":{"type":"Polygon","coordinates":[[[9.72555,52.36155],[9.71742,52.353],[9.71733,52.34627],[9.69912,52.34753],[9.69553,52.33737],[9.70219,52.32884],[9.71768,52.32931],[9.73701,52.32995],[9.74257,52.33607],[9.74374,52.34578],[9.74143,52.35239],[9.72972,52.35311],[9.72555,52.36155]]]},"properties":{"plz":"30459","name":"30459 Hannover"}},{"type":"Feature","geometry":{"type":"Polygon","coordinates":[[[9.74374,52.34578],[9.74257,52.33607],[9.7556,52.32278],[9.76613,52.3198],[9.77239,52.3182],[9.79323,52.32596],[9.81182,52.33192],[9.80211,52.34091],[9.78367,52.36008],[9.75328,52.34335],[9.74374,52.34578]]]},"properties":{"plz":"30519","name":"30519 Hannover"}},{"type":"Feature","geometry":{"type":"Polygon","coordinates":[[[9.79323,52.32596],[9.79831,52.3167],[9.81355,52.31616],[9.81182,52.33192],[9.79323,52.32596]]]},"properties":{"plz":"30521","name":"30521 Hannover"}},{"type":"Feature","geometry":{"type":"Polygon","coordinates":[[[9.81182,52.33192],[9.81355,52.31616],[9.83404,52.30571],[9.85356,52.30532],[9.86928,52.31275],[9.86135,52.32198],[9.87916,52.32644],[9.87536,52.33227],[9.88381,52.34386],[9.87715,52.3456],[9.86478,52.34706],[9.84863,52.34287],[9.84455,52.35481],[9.82723,52.3539],[9.82732,52.35007],[9.80211,52.34091],[9.81182,52.33192]]]},"properties":{"plz":"30539","name":"30539 Hannover"}},{"type":"Feature","geometry":{"type":"Polygon","coordinates":[[[9.78367,52.36008],[9.80211,52.34091],[9.82732,52.35007],[9.82723,52.3539],[9.84455,52.35481],[9.84863,52.34287],[9.86478,52.34706],[9.87715,52.3456],[9.87351,52.34994],[9.88124,52.35921],[9.89447,52.35872],[9.88929,52.38457],[9.86366,52.38917],[9.87237,52.38336],[9.86814,52.376],[9.84878,52.37497],[9.83029,52.37403],[9.82304,52.36806],[9.78335,52.3606],[9.78367,52.36008]]]},"properties":{"plz":"30559","name":"30559 Hannover"}},{"type":"Feature","geometry":{"type":"Polygon","coordinates":[[[9.78335,52.3606],[9.82304,52.36806],[9.83029,52.37403],[9.82728,52.38347],[9.81429,52.38375],[9.80438,52.39142],[9.79772,52.39535],[9.78455,52.38977],[9.77797,52.37308],[9.78335,52.3606]]]},"properties":{"plz":"30625","name":"30625 Hannover"}},{"type":"Feature","geometry":{"type":"Polygon","coordinates":[[[9.84878,52.37497],[9.82102,52.40008],[9.80438,52.39142],[9.81429,52.38375],[9.82728,52.38347],[9.83029,52.37403],[9.84878,52.37497]]]},"properties":{"plz":"30627","name":"30627 Hannover"}},{"type":"Feature","geometry":{"type":"Polygon","coordinates":[[[9.88929,52.38457],[9.88485,52.39707],[9.89448,52.40059],[9.91626,52.40122],[9.90144,52.4148],[9.88666,52.41339],[9.86132,52.40652],[9.851,52.40944],[9.83069,52.40924],[9.83106,52.39916],[9.82102,52.40008],[9.84878,52.37497],[9.86814,52.376],[9.87237,52.38336],[9.86366,52.38917],[9.88929,52.38457]]]},"properties":{"plz":"30629","name":"30629 Hannover"}},{"type":"Feature","geometry":{"type":"Polygon","coordinates":[[[9.78455,52.38977],[9.79772,52.39535],[9.80438,52.39142],[9.82102,52.40008],[9.83106,52.39916],[9.83069,52.40924],[9.79087,52.40634],[9.78129,52.40641],[9.78455,52.38977]]]},"properties":{"plz":"30655","name":"30655 Hannover"}},{"type":"Feature","geometry":{"type":"Polygon","coordinates":[[[9.78129,52.40641],[9.79087,52.40634],[9.80023,52.41812],[9.80148,52.43042],[9.81942,52.4294],[9.82406,52.4366],[9.81768,52.43991],[9.82075,52.44812],[9.79975,52.45065],[9.78198,52.44946],[9.77113,52.45414],[9.76619,52.43086],[9.7629,52.42731],[9.77162,52.42738],[9.77425,52.40607],[9.78129,52.40641]]]},"properties":{"plz":"30657","name":"30657 Hannover"}},{"type":"Feature","geometry":{"type":"Polygon","coordinates":[[[9.88666,52.41339],[9.88748,52.41566],[9.88898,52.42243],[9.85047,52.42682],[9.83862,52.42039],[9.81942,52.4294],[9.80148,52.43042],[9.80023,52.41812],[9.79087,52.40634],[9.83069,52.40924],[9.851,52.40944],[9.86132,52.40652],[9.88666,52.41339]]]},"properties":{"plz":"30659","name":"30659 Hannover"}},{"type":"Feature","geometry":{"type":"Polygon","coordinates":[[[9.67688,52.46457],[9.68965,52.45673],[9.69625,52.46755],[9.67764,52.46807],[9.67688,52.46457]]]},"properties":{"plz":"30669","name":"30669 Langenhagen (Flughafen)"}},{"type":"Feature","geometry":{"type":"Polygon","coordinates":[[[9.621,52.4237],[9.60229,52.43262],[9.58157,52.43199],[9.52484,52.41756],[9.57244,52.40831],[9.57371,52.40302],[9.59282,52.4093],[9.6052,52.39809],[9.61895,52.40641],[9.61269,52.42131],[9.621,52.4237]]]},"properties":{"plz":"30823","name":"30823 Garbsen"}},{"type":"Feature","geometry":{"type":"Polygon","coordinates":[[[9.58157,52.43199],[9.59098,52.43983],[9.59549,52.45364],[9.60535,52.45431],[9.63069,52.46286],[9.64216,52.47327],[9.63498,52.48872],[9.62233,52.49105],[9.61305,52.50122],[9.5947,52.49693],[9.60113,52.48967],[9.57994,52.4971],[9.5744,52.49133],[9.5153,52.48678],[9.52181,52.47506],[9.5093,52.4719],[9.51347,52.46488],[9.50322,52.46089],[9.50324,52.44702],[9.48435,52.44348],[9.48726,52.43936],[9.49085,52.42713],[9.50615,52.4227],[9.52484,52.41756],[9.58157,52.43199]]]},"properties":{"plz":"30826","name":"30826 Garbsen"}},{"type":"Feature","geometry":{"type":"Polygon","coordinates":[[[9.63583,52.42915],[9.63292,52.43848],[9.64538,52.44888],[9.63069,52.46286],[9.60535,52.45431],[9.59549,52.45364],[9.59098,52.43983],[9.58157,52.43199],[9.60229,52.43262],[9.621,52.4237],[9.63583,52.42915]]]},"properties":{"plz":"30827","name":"30827 Garbsen"}},{"type":"Feature","geometry":{"type":"Polygon","coordinates":[[[9.7629,52.42731],[9.76619,52.43086],[9.75292,52.43693],[9.71909,52.44057],[9.70918,52.42988],[9.71314,52.42936],[9.72197,52.42284],[9.73284,52.42354],[9.73135,52.42905],[9.7629,52.42731]]]},"properties":{"plz":"30851","name":"30851 Langenhagen"}},{"type":"Feature","geometry":{"type":"Polygon","coordinates":[[[9.77113,52.45414],[9.77155,52.46282],[9.74274,52.45858],[9.72603,52.46315],[9.71909,52.44057],[9.75292,52.43693],[9.76619,52.43086],[9.77113,52.45414]]]},"properties":{"plz":"30853","name":"30853 Langenhagen"}},{"type":"Feature","geometry":{"type":"Polygon","coordinates":[[[9.70918,52.42988],[9.71909,52.44057],[9.72603,52.46315],[9.74274,52.45858],[9.77155,52.46282],[9.76957,52.47833],[9.77491,52.49733],[9.77667,52.50031],[9.75898,52.50473],[9.73393,52.49364],[9.73404,52.49678],[9.653,52.50638],[9.6362,52.50292],[9.64442,52.49751],[9.63498,52.48872],[9.64216,52.47327],[9.63069,52.46286],[9.64538,52.44888],[9.63292,52.43848],[9.63583,52.42915],[9.63776,52.43278],[9.66202,52.43367],[9.66791,52.42797],[9.6951,52.43143],[9.70918,52.42988]],[[9.67688,52.46457],[9.67764,52.46807],[9.69625,52.46755],[9.68965,52.45673],[9.67688,52.46457]]]},"properties":{"plz":"30855","name":"30855 Langenhagen"}},{"type":"Feature","geometry":{"type":"Polygon","coordinates":[[[9.76613,52.3198],[9.76425,52.31138],[9.77189,52.31198],[9.78161,52.2981],[9.80499,52.29103],[9.81256,52.26888],[9.82712,52.26378],[9.85723,52.26622],[9.87248,52.27038],[9.87628,52.26254],[9.89943,52.26145],[9.91288,52.26713],[9.91272,52.28068],[9.8933,52.28617],[9.88976,52.29323],[9.87721,52.28979],[9.86148,52.30149],[9.8743,52.3066],[9.86928,52.31275],[9.85356,52.30532],[9.83404,52.30571],[9.81355,52.31616],[9.79831,52.3167],[9.79323,52.32596],[9.77239,52.3182],[9.76613,52.3198]]]},"properties":{"plz":"30880","name":"30880 Laatzen"}},{"type":"Feature","geometry":{"type":"Polygon","coordinates":[[[9.43844,52.36377],[9.41641,52.33926],[9.39903,52.33234],[9.41071,52.3131],[9.41155,52.29465],[9.4242,52.28099],[9.43957,52.27418],[9.44904,52.27417],[9.47212,52.26412],[9.47237,52.26208],[9.48389,52.2681],[9.49426,52.26053],[9.5136,52.26975],[9.51561,52.27806],[9.52582,52.27882],[9.53212,52.28785],[9.54426,52.2939],[9.54743,52.30916],[9.52733,52.31926],[9.52871,52.33357],[9.54758,52.33269],[9.56435,52.33552],[9.56838,52.34597],[9.52598,52.3622],[9.52392,52.36947],[9.53484,52.37981],[9.50446,52.38678],[9.49734,52.39734],[9.48701,52.40044],[9.47286,52.38543],[9.43844,52.36377]]]},"properties":{"plz":"30890","name":"30890 Barsinghausen"}},{"type":"Feature","geometry":{"type":"Polygon","coordinates":[[[9.73444,52.6382],[9.72842,52.63371],[9.71174,52.63429],[9.71339,52.62356],[9.70601,52.61975],[9.70882,52.61008],[9.69609,52.59951],[9.65928,52.6018],[9.65076,52.60207],[9.63005,52.59067],[9.60805,52.58515],[9.59343,52.57341],[9.58408,52.57529],[9.58969,52.55063],[9.60044,52.52779],[9.60018,52.51755],[9.61215,52.51519],[9.61263,52.50446],[9.57994,52.4971],[9.60113,52.48967],[9.5947,52.49693],[9.61305,52.50122],[9.62233,52.49105],[9.63498,52.48872],[9.64442,52.49751],[9.6362,52.50292],[9.653,52.50638],[9.73404,52.49678],[9.73393,52.49364],[9.75898,52.50473],[9.77667,52.50031],[9.77491,52.49733],[9.78279,52.50433],[9.78208,52.50946],[9.79957,52.51331],[9.8093,52.5204],[9.79421,52.52818],[9.79023,52.53828],[9.80613,52.53809],[9.8125,52.54662],[9.79448,52.56089],[9.81174,52.57005],[9.81728,52.56928],[9.825,52.58158],[9.8138,52.59232],[9.80753,52.58469],[9.8099,52.59785],[9.8242,52.59701],[9.82432,52.60407],[9.80455,52.60694],[9.80204,52.61468],[9.77564,52.62204],[9.7681,52.62942],[9.74058,52.63129],[9.73444,52.6382]]]},"properties":{"plz":"30900","name":"30900 Wedemark"}},{"type":"Feature","geometry":{"type":"Polygon","coordinates":[[[9.81942,52.4294],[9.83862,52.42039],[9.85047,52.42682],[9.88898,52.42243],[9.88748,52.41566],[9.90254,52.4222],[9.92319,52.41888],[9.93216,52.42387],[9.92151,52.4277],[9.9203,52.43586],[9.93228,52.44357],[9.92961,52.45757],[9.92204,52.46528],[9.92118,52.4704],[9.89646,52.47825],[9.88098,52.47485],[9.83873,52.48269],[9.81657,52.48293],[9.81593,52.49061],[9.78279,52.50433],[9.77491,52.49733],[9.76957,52.47833],[9.77155,52.46282],[9.77113,52.45414],[9.78198,52.44946],[9.79975,52.45065],[9.82075,52.44812],[9.81768,52.43991],[9.82406,52.4366],[9.81942,52.4294]]]},"properties":{"plz":"30916","name":"30916 Isernhagen"}},{"type":"Feature","geometry":{"type":"Polygon","coordinates":[[[9.6052,52.39809],[9.59282,52.4093],[9.57371,52.40302],[9.57244,52.40831],[9.52484,52.41756],[9.50615,52.4227],[9.48701,52.40044],[9.49734,52.39734],[9.50446,52.38678],[9.53484,52.37981],[9.52392,52.36947],[9.52598,52.3622],[9.56838,52.34597],[9.58668,52.3566],[9.59999,52.36774],[9.63155,52.36923],[9.63575,52.36077],[9.64997,52.36062],[9.66144,52.37314],[9.65302,52.38416],[9.6655,52.39832],[9.6508,52.39608],[9.65022,52.40974],[9.64461,52.41374],[9.62896,52.40438],[9.62493,52.39503],[9.61059,52.39316],[9.6052,52.39809]]]},"properties":{"plz":"30926","name":"30926 Seelze"}},{"type":"Feature","geometry":{"type":"Polygon","coordinates":[[[9.88427,52.60398],[9.85613,52.60346],[9.8478,52.60791],[9.83773,52.59722],[9.8242,52.59701],[9.8099,52.59785],[9.80753,52.58469],[9.8138,52.59232],[9.825,52.58158],[9.81728,52.56928],[9.81174,52.57005],[9.79448,52.56089],[9.8125,52.54662],[9.80613,52.53809],[9.79023,52.53828],[9.79421,52.52818],[9.8093,52.5204],[9.79957,52.51331],[9.78208,52.50946],[9.78279,52.50433],[9.81593,52.49061],[9.81657,52.48293],[9.83873,52.48269],[9.88098,52.47485],[9.89646,52.47825],[9.92118,52.4704],[9.92204,52.46528],[9.93938,52.46862],[9.95088,52.48158],[9.98092,52.49831],[9.96908,52.51858],[9.96702,52.53278],[9.9792,52.53069],[9.98782,52.5362],[9.99486,52.54412],[9.96647,52.55021],[9.96507,52.55361],[9.98413,52.56203],[9.98855,52.57812],[9.96712,52.57802],[9.96622,52.59028],[9.9516,52.59096],[9.94493,52.58691],[9.93594,52.59045],[9.91253,52.59209],[9.90757,52.5974],[9.87689,52.59071],[9.88427,52.60398]]]},"properties":{"plz":"30938","name":"30938 Burgwedel"}},{"type":"Feature","geometry":{"type":"Polygon","coordinates":[[[9.6765,52.34759],[9.66621,52.34646],[9.64546,52.35138],[9.64092,52.3562],[9.62371,52.34459],[9.62129,52.33435],[9.62695,52.30801],[9.62002,52.30476],[9.62586,52.28456],[9.64024,52.27226],[9.65015,52.27412],[9.66533,52.26092],[9.67464,52.26358],[9.67059,52.26763],[9.6871,52.27326],[9.68118,52.28728],[9.7011,52.29265],[9.70249,52.30505],[9.69692,52.31518],[9.69065,52.31491],[9.68202,52.31809],[9.67052,52.33316],[9.68312,52.33938],[9.67972,52.34748],[9.6765,52.34759]]]},"properties":{"plz":"30952","name":"30952 Ronnenberg"}},{"type":"Feature","geometry":{"type":"Polygon","coordinates":[[[9.69065,52.31491],[9.69692,52.31518],[9.70249,52.30505],[9.7011,52.29265],[9.68118,52.28728],[9.6871,52.27326],[9.67059,52.26763],[9.67464,52.26358],[9.69348,52.26208],[9.73145,52.27192],[9.7313,52.27969],[9.74155,52.28186],[9.7411,52.28762],[9.75943,52.28328],[9.77858,52.28653],[9.78161,52.2981],[9.77189,52.31198],[9.76425,52.31138],[9.76613,52.3198],[9.7556,52.32278],[9.74257,52.33607],[9.73701,52.32995],[9.71768,52.32931],[9.71697,52.32463],[9.69432,52.31862],[9.69065,52.31491]]]},"properties":{"plz":"30966","name":"30966 Hemmingen"}},{"type":"Feature","geometry":{"type":"Polygon","coordinates":[[[9.47237,52.26208],[9.47885,52.25671],[9.52033,52.24341],[9.55416,52.24024],[9.55886,52.23687],[9.57765,52.2398],[9.61155,52.22818],[9.63373,52.2295],[9.64425,52.2476],[9.65335,52.249],[9.65499,52.25656],[9.66533,52.26092],[9.65015,52.27412],[9.64024,52.27226],[9.62586,52.28456],[9.59213,52.28221],[9.5874,52.29226],[9.57391,52.29521],[9.56959,52.29008],[9.54953,52.29344],[9.53672,52.2813],[9.53212,52.28785],[9.52582,52.27882],[9.51561,52.27806],[9.5136,52.26975],[9.49426,52.26053],[9.48389,52.2681],[9.47237,52.26208]]]},"properties":{"plz":"30974","name":"30974 Wennigsen (Deister)"}},{"type":"Feature","geometry":{"type":"Polygon","coordinates":[[[9.78161,52.2981],[9.77858,52.28653],[9.75943,52.28328],[9.7411,52.28762],[9.74155,52.28186],[9.7313,52.27969],[9.73145,52.27192],[9.69348,52.26208],[9.71112,52.25375],[9.70192,52.24637],[9.6886,52.24529],[9.69447,52.23424],[9.71343,52.22897],[9.72113,52.22225],[9.73202,52.22116],[9.75017,52.21266],[9.75031,52.20105],[9.74352,52.20494],[9.72762,52.20009],[9.73744,52.19862],[9.73891,52.18697],[9.74899,52.17791],[9.75617,52.17818],[9.76402,52.16999],[9.78423,52.17451],[9.77733,52.17804],[9.79287,52.1931],[9.80254,52.1879],[9.80341,52.20705],[9.81789,52.2136],[9.81721,52.22862],[9.80076,52.2297],[9.79967,52.2349],[9.76891,52.23123],[9.77576,52.23942],[9.79079,52.24323],[9.79103,52.25152],[9.82793,52.26207],[9.82712,52.26378],[9.81256,52.26888],[9.80499,52.29103],[9.78161,52.2981]]]},"properties":{"plz":"30982","name":"30982 Pattensen"}},{"type":"Feature","geometry":{"type":"Polygon","coordinates":[[[9.63575,52.36077],[9.63155,52.36923],[9.59999,52.36774],[9.58668,52.3566],[9.56838,52.34597],[9.56435,52.33552],[9.54758,52.33269],[9.52871,52.33357],[9.52733,52.31926],[9.54743,52.30916],[9.54426,52.2939],[9.53212,52.28785],[9.53672,52.2813],[9.54953,52.29344],[9.56959,52.29008],[9.57391,52.29521],[9.5874,52.29226],[9.59213,52.28221],[9.62586,52.28456],[9.62002,52.30476],[9.62695,52.30801],[9.62129,52.33435],[9.62371,52.34459],[9.64092,52.3562],[9.63575,52.36077]]]},"properties":{"plz":"30989","name":"30989 Gehrden"}},{"type":"Feature","geometry":{"type":"Polygon","coordinates":[[[9.62812,52.13069],[9.6382,52.12662],[9.65108,52.11305],[9.68339,52.10595],[9.68338,52.1005],[9.66391,52.0911],[9.6548,52.07009],[9.67018,52.07084],[9.67577,52.06617],[9.69423,52.06905],[9.70184,52.07535],[9.7047,52.08557],[9.71247,52.08487],[9.71388,52.09601],[9.73811,52.10409],[9.76164,52.11337],[9.75886,52.12431],[9.75292,52.12793],[9.75851,52.1366],[9.74558,52.14251],[9.75512,52.15302],[9.76282,52.16767],[9.74182,52.16428],[9.72802,52.1692],[9.72012,52.15819],[9.69299,52.14492],[9.69364,52.13586],[9.67279,52.13249],[9.62812,52.13069]]]},"properties":{"plz":"31008","name":"31008 Elze"}},{"type":"Feature","geometry":{"type":"Polygon","coordinates":[[[9.62812,52.13069],[9.61351,52.13451],[9.59271,52.14592],[9.57684,52.14173],[9.59164,52.12994],[9.58456,52.11994],[9.60313,52.10717],[9.60118,52.10083],[9.58472,52.09731],[9.57534,52.1007],[9.5565,52.09887],[9.54348,52.10494],[9.5292,52.1031],[9.52165,52.08954],[9.56211,52.04713],[9.56193,52.04383],[9.5743,52.03984],[9.60122,52.00157],[9.61986,51.98759],[9.62585,51.98574],[9.64632,51.96416],[9.64726,51.96479],[9.6492,51.97228],[9.63415,51.98634],[9.64567,51.99881],[9.64356,52.0188],[9.65342,52.0208],[9.65764,52.03232],[9.65064,52.0383],[9.65134,52.05023],[9.64302,52.05448],[9.65212,52.05964],[9.6548,52.07009],[9.66391,52.0911],[9.68338,52.1005],[9.68339,52.10595],[9.65108,52.11305],[9.6382,52.12662],[9.62812,52.13069]]]},"properties":{"plz":"31020","name":"31020 Salzhemmendorf"}},{"type":"Feature","geometry":{"type":"Polygon","coordinates":[[[9.73811,52.10409],[9.73174,52.08897],[9.74188,52.08074],[9.72699,52.05317],[9.753,52.03112],[9.76426,52.03626],[9.77059,52.02814],[9.7842,52.02004],[9.8009,52.02418],[9.81947,52.01979],[9.84034,52.02713],[9.84505,52.02583],[9.82911,52.03406],[9.81853,52.04953],[9.84231,52.05935],[9.84639,52.06911],[9.86654,52.06352],[9.8639,52.07233],[9.88771,52.08413],[9.86686,52.09582],[9.86508,52.09795],[9.87555,52.10469],[9.84655,52.12739],[9.83394,52.13517],[9.77609,52.12631],[9.76444,52.11834],[9.75886,52.12431],[9.76164,52.11337],[9.73811,52.10409]]]},"properties":{"plz":"31028","name":"31028 Gronau (Leine)"}},{"type":"Feature","geometry":{"type":"Polygon","coordinates":[[[9.6548,52.07009],[9.65212,52.05964],[9.64302,52.05448],[9.65134,52.05023],[9.65064,52.0383],[9.65764,52.03232],[9.66931,52.05483],[9.68235,52.04736],[9.69629,52.04535],[9.7124,52.03349],[9.71795,52.04164],[9.72928,52.04498],[9.71383,52.05963],[9.71844,52.06267],[9.72699,52.05317],[9.74188,52.08074],[9.73174,52.08897],[9.73811,52.10409],[9.71388,52.09601],[9.71247,52.08487],[9.7047,52.08557],[9.70184,52.07535],[9.69423,52.06905],[9.67577,52.06617],[9.67018,52.07084],[9.6548,52.07009]]]},"properties":{"plz":"31036","name":"31036 Eime"}},{"type":"Feature","geometry":{"type":"Polygon","coordinates":[[[9.753,52.03112],[9.77218,52.01176],[9.75296,52.0086],[9.73918,52.00065],[9.74956,51.98955],[9.75059,51.98219],[9.77047,51.97852],[9.77987,51.96733],[9.77445,51.96238],[9.79086,51.95954],[9.82252,51.94363],[9.82423,51.93362],[9.83732,51.92849],[9.8465,51.93026],[9.85729,51.93392],[9.86221,51.94529],[9.85266,51.95651],[9.86858,51.96024],[9.87216,51.95724],[9.88867,51.96609],[9.89426,51.96694],[9.89197,51.96897],[9.8977,51.96915],[9.9064,51.98636],[9.89567,51.99633],[9.90649,52.00348],[9.87432,52.00062],[9.8758,52.00713],[9.89103,52.01536],[9.87904,52.0171],[9.86883,52.01123],[9.84505,52.02583],[9.84034,52.02713],[9.81947,52.01979],[9.8009,52.02418],[9.7842,52.02004],[9.77059,52.02814],[9.76426,52.03626],[9.753,52.03112]]]},"properties":{"plz":"31061","name":"31061 Alfeld (Leine)"}},{"type":"Feature","geometry":{"type":"MultiPolygon","coordinates":[[[[9.84505,52.02583],[9.86883,52.01123],[9.87904,52.0171],[9.89103,52.01536],[9.8758,52.00713],[9.87432,52.00062],[9.90649,52.00348],[9.89567,51.99633],[9.9064,51.98636],[9.8977,51.96915],[9.89197,51.96897],[9.9008,51.96661],[9.91107,51.98212],[9.92139,51.98739],[9.93891,51.98877],[9.95793,52.0015],[9.95393,52.01674],[9.9752,52.02652],[9.96719,52.05121],[9.95808,52.05569],[9.96564,52.06516],[9.95606,52.06878],[9.95822,52.07525],[9.94386,52.07385],[9.92965,52.06475],[9.88771,52.08413],[9.8639,52.07233],[9.86654,52.06352],[9.84639,52.06911],[9.84231,52.05935],[9.81853,52.04953],[9.82911,52.03406],[9.84505,52.02583]]],[[[9.88867,51.96609],[9.89505,51.96303],[9.89426,51.96694],[9.88867,51.96609]]]]},"properties":{"plz":"31079","name":"31079 Sibbesse"}},{"type":"Feature","geometry":{"type":"Polygon","coordinates":[[[9.64726,51.96479],[9.664,51.96832],[9.67449,51.96051],[9.68857,51.95688],[9.69427,51.96295],[9.71001,51.96752],[9.71424,51.98262],[9.73276,51.97842],[9.75059,51.98219],[9.74956,51.98955],[9.73918,52.00065],[9.75296,52.0086],[9.77218,52.01176],[9.753,52.03112],[9.72699,52.05317],[9.71844,52.06267],[9.71383,52.05963],[9.72928,52.04498],[9.71795,52.04164],[9.7124,52.03349],[9.69629,52.04535],[9.68235,52.04736],[9.66931,52.05483],[9.65764,52.03232],[9.65342,52.0208],[9.64356,52.0188],[9.64567,51.99881],[9.63415,51.98634],[9.6492,51.97228],[9.64726,51.96479]]]},"properties":{"plz":"31089","name":"31089 Duingen"}},{"type":"Feature","geometry":{"type":"Polygon","coordinates":[[[9.96072,52.1609],[9.93616,52.15614],[9.93822,52.14865],[9.9657,52.12447],[9.96134,52.1425],[9.96526,52.14947],[9.95706,52.15284],[9.96072,52.1609]]]},"properties":{"plz":"31134","name":"31134 Hildesheim"}},{"type":"Feature","geometry":{"type":"Polygon","coordinates":[[[9.95706,52.15284],[9.96613,52.1527],[9.96457,52.15025],[9.97317,52.14614],[9.97971,52.14915],[9.98024,52.14237],[9.9947,52.14722],[10.00705,52.13842],[10.03331,52.13256],[10.04285,52.13662],[10.02987,52.1431],[10.03698,52.15803],[10.03579,52.16502],[10.02379,52.16543],[10.01444,52.17817],[9.99169,52.18325],[9.98744,52.19388],[9.97849,52.18787],[9.95219,52.18412],[9.95249,52.17535],[9.96368,52.16435],[9.96072,52.1609],[9.95706,52.15284]]]},"properties":{"plz":"31135","name":"31135 Hildesheim"}},{"type":"Feature","geometry":{"type":"Polygon","coordinates":[[[9.96072,52.1609],[9.96368,52.16435],[9.95249,52.17535],[9.95219,52.18412],[9.94794,52.19261],[9.9238,52.19001],[9.91881,52.18065],[9.90735,52.18326],[9.89263,52.18131],[9.89453,52.15983],[9.90908,52.15687],[9.91602,52.14549],[9.93822,52.14865],[9.93616,52.15614],[9.96072,52.1609]]]},"properties":{"plz":"31137","name":"31137 Hildesheim"}},{"type":"Feature","geometry":{"type":"Polygon","coordinates":[[[9.86686,52.09582],[9.87284,52.10236],[9.91023,52.09358],[9.91729,52.10421],[9.94559,52.1189],[9.96049,52.12062],[9.97544,52.11106],[9.9657,52.12447],[9.93822,52.14865],[9.91602,52.14549],[9.90908,52.15687],[9.89453,52.15983],[9.86312,52.16012],[9.85233,52.14474],[9.85822,52.14084],[9.84655,52.12739],[9.87555,52.10469],[9.86508,52.09795],[9.86686,52.09582]]]},"properties":{"plz":"31139","name":"31139 Hildesheim"}},{"type":"Feature","geometry":{"type":"Polygon","coordinates":[[[9.9657,52.12447],[9.97544,52.11106],[10.0009,52.10237],[10.00606,52.10405],[10.00169,52.10696],[10.01347,52.13115],[10.03359,52.12831],[10.03331,52.13256],[10.00705,52.13842],[9.9947,52.14722],[9.98024,52.14237],[9.97971,52.14915],[9.97317,52.14614],[9.96457,52.15025],[9.96613,52.1527],[9.95706,52.15284],[9.96526,52.14947],[9.96134,52.1425],[9.9657,52.12447]]]},"properties":{"plz":"31141","name":"31141 Hildesheim"}},{"type":"Feature","geometry":{"type":"Polygon","coordinates":[[[9.82712,52.26378],[9.82793,52.26207],[9.79103,52.25152],[9.79079,52.24323],[9.77576,52.23942],[9.76891,52.23123],[9.79967,52.2349],[9.80076,52.2297],[9.81721,52.22862],[9.81789,52.2136],[9.82896,52.20483],[9.85007,52.20278],[9.84967,52.1964],[9.86513,52.20838],[9.86544,52.22036],[9.8585,52.22952],[9.89579,52.23343],[9.90683,52.23132],[9.92472,52.23796],[9.93197,52.23697],[9.93458,52.25169],[9.92022,52.25535],[9.91288,52.26713],[9.89943,52.26145],[9.87628,52.26254],[9.87248,52.27038],[9.85723,52.26622],[9.82712,52.26378]]]},"properties":{"plz":"31157","name":"31157 Sarstedt"}},{"type":"Feature","geometry":{"type":"Polygon","coordinates":[[[9.9752,52.02652],[9.98717,52.0234],[9.99545,52.01364],[10.01017,52.01532],[10.01668,52.01129],[10.02307,52.02022],[10.04379,52.02761],[10.03913,52.04301],[10.06538,52.05162],[10.06574,52.05819],[10.07254,52.06039],[10.07243,52.07388],[10.08448,52.08442],[10.0767,52.11026],[10.07218,52.12346],[10.04604,52.12949],[10.03359,52.12831],[10.01347,52.13115],[10.00169,52.10696],[10.00606,52.10405],[9.99832,52.09395],[9.98975,52.07422],[9.95822,52.07525],[9.95606,52.06878],[9.96564,52.06516],[9.95808,52.05569],[9.96719,52.05121],[9.9752,52.02652]]]},"properties":{"plz":"31162","name":"31162 Bad Salzdetfurth"}},{"type":"Feature","geometry":{"type":"Polygon","coordinates":[[[9.72762,52.20009],[9.69578,52.1979],[9.68587,52.1896],[9.69944,52.18419],[9.70815,52.17637],[9.72802,52.1692],[9.74182,52.16428],[9.76282,52.16767],[9.75512,52.15302],[9.74558,52.14251],[9.75851,52.1366],[9.75292,52.12793],[9.75886,52.12431],[9.76444,52.11834],[9.77609,52.12631],[9.83394,52.13517],[9.84655,52.12739],[9.85822,52.14084],[9.85233,52.14474],[9.86312,52.16012],[9.85395,52.16342],[9.85316,52.17186],[9.84527,52.17527],[9.85567,52.17872],[9.85633,52.18807],[9.84967,52.1964],[9.85007,52.20278],[9.82896,52.20483],[9.81789,52.2136],[9.80341,52.20705],[9.80254,52.1879],[9.79287,52.1931],[9.77733,52.17804],[9.78423,52.17451],[9.76402,52.16999],[9.75617,52.17818],[9.74899,52.17791],[9.73891,52.18697],[9.73744,52.19862],[9.72762,52.20009]]]},"properties":{"plz":"31171","name":"31171 Nordstemmen"}},{"type":"Feature","geometry":{"type":"Polygon","coordinates":[[[10.03331,52.13256],[10.03359,52.12831],[10.04604,52.12949],[10.07218,52.12346],[10.0767,52.11026],[10.08454,52.11953],[10.10813,52.12812],[10.10337,52.12058],[10.11835,52.11443],[10.14387,52.1119],[10.14296,52.11818],[10.14293,52.15611],[10.13627,52.15595],[10.13638,52.16864],[10.15672,52.17703],[10.15228,52.18929],[10.1418,52.1924],[10.1352,52.20072],[10.138,52.21615],[10.15132,52.22746],[10.14366,52.23544],[10.07364,52.22826],[10.07695,52.22536],[10.08449,52.21282],[10.07802,52.20043],[10.06437,52.19991],[10.05213,52.18281],[10.03411,52.18286],[10.01444,52.17817],[10.02379,52.16543],[10.03579,52.16502],[10.03698,52.15803],[10.02987,52.1431],[10.04285,52.13662],[10.03331,52.13256]]]},"properties":{"plz":"31174","name":"31174 Schellerten"}},{"type":"Feature","geometry":{"type":"Polygon","coordinates":[[[10.01444,52.17817],[10.03411,52.18286],[10.05213,52.18281],[10.06437,52.19991],[10.07802,52.20043],[10.08449,52.21282],[10.07695,52.22536],[10.06416,52.2224],[10.04556,52.23138],[9.99797,52.2303],[9.98394,52.22989],[9.96826,52.23578],[9.93197,52.23697],[9.92472,52.23796],[9.91917,52.23412],[9.9195,52.2137],[9.92573,52.20912],[9.93864,52.20934],[9.94794,52.19261],[9.95219,52.18412],[9.97849,52.18787],[9.98744,52.19388],[9.99169,52.18325],[10.01444,52.17817]]]},"properties":{"plz":"31177","name":"31177 Harsum"}},{"type":"Feature","geometry":{"type":"Polygon","coordinates":[[[9.94794,52.19261],[9.93864,52.20934],[9.92573,52.20912],[9.9195,52.2137],[9.91917,52.23412],[9.92472,52.23796],[9.90683,52.23132],[9.89579,52.23343],[9.8585,52.22952],[9.86544,52.22036],[9.86513,52.20838],[9.84967,52.1964],[9.85633,52.18807],[9.85567,52.17872],[9.84527,52.17527],[9.85316,52.17186],[9.85395,52.16342],[9.86312,52.16012],[9.89453,52.15983],[9.89263,52.18131],[9.90735,52.18326],[9.91881,52.18065],[9.9238,52.19001],[9.94794,52.19261]]]},"properties":{"plz":"31180","name":"31180 Giesen"}},{"type":"Feature","geometry":{"type":"Polygon","coordinates":[[[10.14296,52.11818],[10.15484,52.12009],[10.16643,52.13161],[10.18982,52.13069],[10.18897,52.13701],[10.18148,52.14176],[10.18895,52.16488],[10.20459,52.17936],[10.22294,52.17645],[10.2333,52.17804],[10.23402,52.16982],[10.24341,52.17604],[10.25712,52.17419],[10.25735,52.18309],[10.26397,52.18847],[10.25906,52.19788],[10.24857,52.20515],[10.24886,52.21319],[10.21157,52.22174],[10.20374,52.22968],[10.18439,52.23475],[10.16027,52.22541],[10.15132,52.22746],[10.138,52.21615],[10.1352,52.20072],[10.1418,52.1924],[10.15228,52.18929],[10.15672,52.17703],[10.13638,52.16864],[10.13627,52.15595],[10.14293,52.15611],[10.14296,52.11818]]]},"properties":{"plz":"31185","name":"31185 Söhlde"}},{"type":"Feature","geometry":{"type":"Polygon","coordinates":[[[10.06574,52.05819],[10.07742,52.04942],[10.09746,52.05437],[10.10378,52.05925],[10.12827,52.05185],[10.13221,52.05985],[10.14566,52.0589],[10.17424,52.04216],[10.19303,52.04453],[10.2006,52.05104],[10.19458,52.06174],[10.2025,52.05964],[10.19769,52.07187],[10.20002,52.08179],[10.18799,52.08273],[10.17598,52.10875],[10.19868,52.11954],[10.19328,52.13782],[10.18897,52.13701],[10.18982,52.13069],[10.16643,52.13161],[10.15484,52.12009],[10.14296,52.11818],[10.14387,52.1119],[10.11835,52.11443],[10.10337,52.12058],[10.10813,52.12812],[10.08454,52.11953],[10.0767,52.11026],[10.08448,52.08442],[10.07243,52.07388],[10.07254,52.06039],[10.06574,52.05819]]]},"properties":{"plz":"31188","name":"31188 Holle"}},{"type":"Feature","geometry":{"type":"Polygon","coordinates":[[[9.91288,52.26713],[9.92022,52.25535],[9.93458,52.25169],[9.93197,52.23697],[9.96826,52.23578],[9.98394,52.22989],[9.99797,52.2303],[9.99693,52.24371],[10.00324,52.24836],[9.99997,52.25753],[10.02894,52.26351],[10.03453,52.28366],[10.01773,52.2799],[9.99612,52.28356],[10.0046,52.29029],[9.97221,52.29385],[9.96989,52.28485],[9.95587,52.2866],[9.94296,52.28123],[9.91272,52.28068],[9.91288,52.26713]]]},"properties":{"plz":"31191","name":"31191 Algermissen"}},{"type":"Feature","geometry":{"type":"Polygon","coordinates":[[[9.88771,52.08413],[9.92965,52.06475],[9.94386,52.07385],[9.95822,52.07525],[9.98975,52.07422],[9.99832,52.09395],[10.00606,52.10405],[10.0009,52.10237],[9.97544,52.11106],[9.96049,52.12062],[9.94559,52.1189],[9.91729,52.10421],[9.91023,52.09358],[9.87284,52.10236],[9.86686,52.09582],[9.88771,52.08413]]]},"properties":{"plz":"31199","name":"31199 Diekholzen"}},{"type":"Feature","geometry":{"type":"Polygon","coordinates":[[[10.2808,52.35479],[10.28179,52.34056],[10.27187,52.33616],[10.24292,52.33654],[10.22539,52.3396],[10.21632,52.33535],[10.21187,52.32416],[10.21599,52.32015],[10.24759,52.31796],[10.27569,52.3099],[10.31362,52.28771],[10.3289,52.2991],[10.32935,52.30486],[10.34599,52.30566],[10.33438,52.32272],[10.33384,52.33037],[10.29778,52.32425],[10.30509,52.33975],[10.3045,52.35099],[10.29257,52.35636],[10.2808,52.35479]]]},"properties":{"plz":"31224","name":"31224 Peine"}},{"type":"Feature","geometry":{"type":"Polygon","coordinates":[[[10.21599,52.32015],[10.15632,52.33972],[10.13938,52.34845],[10.14031,52.33963],[10.12593,52.33782],[10.13243,52.32859],[10.11906,52.32204],[10.11794,52.30049],[10.1275,52.29656],[10.12228,52.28065],[10.12812,52.2786],[10.16278,52.28489],[10.19072,52.29565],[10.20162,52.28283],[10.20949,52.28049],[10.22512,52.29125],[10.22939,52.29937],[10.23998,52.29619],[10.25226,52.29846],[10.26076,52.28791],[10.25691,52.28346],[10.26815,52.27493],[10.27423,52.26371],[10.28745,52.26588],[10.30105,52.26298],[10.30098,52.25813],[10.30871,52.26531],[10.30873,52.2806],[10.31362,52.28771],[10.27569,52.3099],[10.24759,52.31796],[10.21599,52.32015]]]},"properties":{"plz":"31226","name":"31226 Peine"}},{"type":"Feature","geometry":{"type":"Polygon","coordinates":[[[10.2808,52.35479],[10.28069,52.36608],[10.26062,52.37444],[10.24141,52.36993],[10.22469,52.37419],[10.21691,52.37213],[10.21443,52.36233],[10.20495,52.36607],[10.17807,52.3586],[10.1769,52.36722],[10.16434,52.37301],[10.14612,52.36914],[10.15632,52.36085],[10.13578,52.35782],[10.13938,52.34845],[10.15632,52.33972],[10.21599,52.32015],[10.21187,52.32416],[10.21632,52.33535],[10.22539,52.3396],[10.24292,52.33654],[10.27187,52.33616],[10.28179,52.34056],[10.2808,52.35479]]]},"properties":{"plz":"31228","name":"31228 Peine"}},{"type":"Feature","geometry":{"type":"Polygon","coordinates":[[[10.29257,52.35636],[10.29379,52.36688],[10.30749,52.36852],[10.32931,52.36548],[10.33924,52.36795],[10.33988,52.35634],[10.3456,52.35414],[10.35789,52.36794],[10.3797,52.36388],[10.38614,52.37103],[10.37586,52.38674],[10.37794,52.39066],[10.36427,52.41715],[10.35248,52.42293],[10.34792,52.43111],[10.33488,52.4301],[10.31424,52.44535],[10.29234,52.44786],[10.28163,52.44815],[10.27289,52.44222],[10.25228,52.43618],[10.25469,52.42375],[10.20977,52.42942],[10.20396,52.42748],[10.19764,52.40708],[10.18077,52.39604],[10.16664,52.39522],[10.1611,52.3991],[10.13074,52.39395],[10.13126,52.38353],[10.14534,52.3784],[10.14612,52.36914],[10.16434,52.37301],[10.1769,52.36722],[10.17807,52.3586],[10.20495,52.36607],[10.21443,52.36233],[10.21691,52.37213],[10.22469,52.37419],[10.24141,52.36993],[10.26062,52.37444],[10.28069,52.36608],[10.2808,52.35479],[10.29257,52.35636]]]},"properties":{"plz":"31234","name":"31234 Edemissen"}},{"type":"Feature","geometry":{"type":"Polygon","coordinates":[[[10.12812,52.2786],[10.1234,52.27356],[10.12391,52.25988],[10.1406,52.25476],[10.16779,52.2619],[10.17769,52.25173],[10.19112,52.24532],[10.2112,52.26112],[10.23325,52.25804],[10.23297,52.26487],[10.24266,52.27],[10.24359,52.28044],[10.25691,52.28346],[10.26076,52.28791],[10.25226,52.29846],[10.23998,52.29619],[10.22939,52.29937],[10.22512,52.29125],[10.20949,52.28049],[10.20162,52.28283],[10.19072,52.29565],[10.16278,52.28489],[10.12812,52.2786]]]},"properties":{"plz":"31241","name":"31241 Ilsede"}},{"type":"Feature","geometry":{"type":"Polygon","coordinates":[[[10.15132,52.22746],[10.16027,52.22541],[10.18439,52.23475],[10.20374,52.22968],[10.21157,52.22174],[10.24886,52.21319],[10.27439,52.21645],[10.27368,52.23485],[10.29289,52.24374],[10.30098,52.25813],[10.30105,52.26298],[10.28745,52.26588],[10.27423,52.26371],[10.26815,52.27493],[10.25691,52.28346],[10.24359,52.28044],[10.24266,52.27],[10.23297,52.26487],[10.23325,52.25804],[10.2112,52.26112],[10.19112,52.24532],[10.17769,52.25173],[10.16779,52.2619],[10.1406,52.25476],[10.14366,52.23544],[10.15132,52.22746]]]},"properties":{"plz":"31246","name":"31246 Lahstedt"}},{"type":"Feature","geometry":{"type":"Polygon","coordinates":[[[10.14366,52.23544],[10.1406,52.25476],[10.12391,52.25988],[10.1234,52.27356],[10.12812,52.2786],[10.12228,52.28065],[10.1275,52.29656],[10.11794,52.30049],[10.11906,52.32204],[10.11346,52.3311],[10.09846,52.33229],[10.09709,52.3421],[10.0814,52.3397],[10.07829,52.33332],[10.08218,52.32407],[10.07569,52.30016],[10.06095,52.30132],[10.06147,52.29476],[10.03393,52.29152],[10.03453,52.28366],[10.02894,52.26351],[9.99997,52.25753],[10.00324,52.24836],[9.99693,52.24371],[9.99797,52.2303],[10.04556,52.23138],[10.06416,52.2224],[10.07695,52.22536],[10.07364,52.22826],[10.14366,52.23544]]]},"properties":{"plz":"31249","name":"31249 Hohenhameln"}},{"type":"Feature","geometry":{"type":"Polygon","coordinates":[[[9.89447,52.35872],[9.90912,52.35656],[9.91066,52.35115],[9.92388,52.35579],[9.92263,52.36419],[9.95174,52.36994],[9.95654,52.36264],[9.95436,52.35267],[9.96564,52.35203],[9.96444,52.34213],[10.01823,52.34487],[10.02816,52.35201],[10.0404,52.34938],[10.04218,52.35388],[10.06252,52.35556],[10.07829,52.33332],[10.0814,52.3397],[10.09709,52.3421],[10.09846,52.33229],[10.11346,52.3311],[10.11906,52.32204],[10.13243,52.32859],[10.12593,52.33782],[10.14031,52.33963],[10.13938,52.34845],[10.13578,52.35782],[10.15632,52.36085],[10.14612,52.36914],[10.14534,52.3784],[10.13126,52.38353],[10.13074,52.39395],[10.12254,52.40059],[10.10017,52.40938],[10.08391,52.41265],[10.07518,52.411],[10.0566,52.41877],[10.04846,52.4151],[10.05658,52.40832],[10.03512,52.40968],[10.02834,52.41728],[10.00504,52.42355],[10.00564,52.42792],[9.9734,52.43008],[9.92151,52.4277],[9.93216,52.42387],[9.92319,52.41888],[9.90254,52.4222],[9.88748,52.41566],[9.88666,52.41339],[9.90144,52.4148],[9.91626,52.40122],[9.89448,52.40059],[9.88485,52.39707],[9.88929,52.38457],[9.89447,52.35872]]]},"properties":{"plz":"31275","name":"31275 Lehrte"}},{"type":"Feature","geometry":{"type":"Polygon","coordinates":[[[10.07684,52.53731],[10.04668,52.53554],[10.03384,52.53835],[9.98782,52.5362],[9.9792,52.53069],[9.96702,52.53278],[9.96908,52.51858],[9.98092,52.49831],[9.95088,52.48158],[9.93938,52.46862],[9.92204,52.46528],[9.92961,52.45757],[9.93228,52.44357],[9.9203,52.43586],[9.92151,52.4277],[9.9734,52.43008],[10.00564,52.42792],[10.00504,52.42355],[10.02834,52.41728],[10.03512,52.40968],[10.05658,52.40832],[10.04846,52.4151],[10.0566,52.41877],[10.07518,52.411],[10.08391,52.41265],[10.08785,52.41938],[10.10263,52.42753],[10.10263,52.44679],[10.09817,52.45404],[10.08185,52.46555],[10.08045,52.47082],[10.05807,52.48343],[10.05482,52.49678],[10.06354,52.51249],[10.08382,52.52083],[10.08102,52.52563],[10.07684,52.53731]]]},"properties":{"plz":"31303","name":"31303 Burgdorf"}},{"type":"Feature","geometry":{"type":"Polygon","coordinates":[[[10.08102,52.52563],[10.08382,52.52083],[10.06354,52.51249],[10.05482,52.49678],[10.05807,52.48343],[10.08045,52.47082],[10.08185,52.46555],[10.09817,52.45404],[10.10263,52.44679],[10.10263,52.42753],[10.08785,52.41938],[10.08391,52.41265],[10.10017,52.40938],[10.12254,52.40059],[10.13074,52.39395],[10.1611,52.3991],[10.16664,52.39522],[10.18077,52.39604],[10.19764,52.40708],[10.20396,52.42748],[10.20977,52.42942],[10.25469,52.42375],[10.25228,52.43618],[10.27289,52.44222],[10.28163,52.44815],[10.29234,52.44786],[10.2826,52.45322],[10.29317,52.46229],[10.30324,52.45865],[10.28988,52.47328],[10.2815,52.47481],[10.27166,52.48603],[10.28887,52.50616],[10.27323,52.50966],[10.26764,52.50114],[10.26766,52.48837],[10.25485,52.49329],[10.24534,52.49188],[10.2346,52.49817],[10.22339,52.49861],[10.2012,52.50981],[10.17839,52.51359],[10.16724,52.50434],[10.15644,52.50513],[10.13936,52.49771],[10.12706,52.50645],[10.1127,52.51018],[10.10528,52.50877],[10.09399,52.5168],[10.0959,52.52208],[10.08102,52.52563]]]},"properties":{"plz":"31311","name":"31311 Uetze"}},{"type":"Feature","geometry":{"type":"Polygon","coordinates":[[[9.86928,52.31275],[9.8743,52.3066],[9.86148,52.30149],[9.87721,52.28979],[9.88976,52.29323],[9.8933,52.28617],[9.91272,52.28068],[9.94296,52.28123],[9.95587,52.2866],[9.96989,52.28485],[9.97221,52.29385],[10.0046,52.29029],[9.99612,52.28356],[10.01773,52.2799],[10.03453,52.28366],[10.03393,52.29152],[10.06147,52.29476],[10.06095,52.30132],[10.07569,52.30016],[10.08218,52.32407],[10.07829,52.33332],[10.06252,52.35556],[10.04218,52.35388],[10.0404,52.34938],[10.02816,52.35201],[10.01823,52.34487],[9.96444,52.34213],[9.96564,52.35203],[9.95436,52.35267],[9.95654,52.36264],[9.95174,52.36994],[9.92263,52.36419],[9.92388,52.35579],[9.91066,52.35115],[9.90912,52.35656],[9.89447,52.35872],[9.88124,52.35921],[9.87351,52.34994],[9.87715,52.3456],[9.88381,52.34386],[9.87536,52.33227],[9.87916,52.32644],[9.86135,52.32198],[9.86928,52.31275]]]},"properties":{"plz":"31319","name":"31319 Sehnde"}},{"type":"Feature","geometry":{"type":"Polygon","coordinates":[[[9.48726,52.43936],[9.47386,52.44604],[9.4817,52.45782],[9.47223,52.45339],[9.47315,52.46286],[9.46077,52.46012],[9.44147,52.46373],[9.44095,52.472],[9.411,52.48972],[9.40001,52.49076],[9.38834,52.48313],[9.38024,52.49378],[9.36182,52.50016],[9.30759,52.48724],[9.27634,52.46987],[9.27785,52.4619],[9.27279,52.45461],[9.28443,52.4384],[9.30083,52.43718],[9.31014,52.44093],[9.33933,52.44213],[9.34809,52.44607],[9.35461,52.43769],[9.37412,52.44002],[9.36664,52.42423],[9.34415,52.42062],[9.32408,52.40684],[9.31723,52.3972],[9.32141,52.38821],[9.32421,52.38334],[9.33346,52.38563],[9.35418,52.38335],[9.35238,52.38841],[9.37902,52.3915],[9.37485,52.3958],[9.39941,52.40625],[9.41054,52.40475],[9.42162,52.39237],[9.41546,52.39187],[9.42667,52.36748],[9.4224,52.36261],[9.43844,52.36377],[9.47286,52.38543],[9.48701,52.40044],[9.50615,52.4227],[9.49085,52.42713],[9.48726,52.43936]]]},"properties":{"plz":"31515","name":"31515 Wunstorf"}},{"type":"Feature","geometry":{"type":"Polygon","coordinates":[[[9.53415,52.65993],[9.53783,52.6451],[9.53141,52.62958],[9.52255,52.62326],[9.50476,52.62624],[9.47025,52.63726],[9.46729,52.64116],[9.44211,52.63271],[9.43894,52.62355],[9.42544,52.617],[9.39064,52.61811],[9.39102,52.61137],[9.36787,52.61068],[9.35012,52.60195],[9.34271,52.60238],[9.34336,52.58131],[9.37365,52.56818],[9.36993,52.56171],[9.35143,52.55519],[9.33866,52.55607],[9.31808,52.55524],[9.30498,52.55085],[9.27613,52.54723],[9.24962,52.53561],[9.23833,52.52892],[9.24866,52.51764],[9.2556,52.51752],[9.26635,52.49083],[9.26039,52.48913],[9.26728,52.47611],[9.25741,52.47284],[9.24257,52.47601],[9.23903,52.46983],[9.24963,52.46432],[9.25953,52.46559],[9.27785,52.4619],[9.27634,52.46987],[9.30759,52.48724],[9.36182,52.50016],[9.38024,52.49378],[9.38834,52.48313],[9.40001,52.49076],[9.411,52.48972],[9.44095,52.472],[9.44147,52.46373],[9.46077,52.46012],[9.47315,52.46286],[9.47223,52.45339],[9.4817,52.45782],[9.47386,52.44604],[9.48726,52.43936],[9.48435,52.44348],[9.50324,52.44702],[9.50322,52.46089],[9.51347,52.46488],[9.5093,52.4719],[9.52181,52.47506],[9.5153,52.48678],[9.5744,52.49133],[9.57994,52.4971],[9.61263,52.50446],[9.61215,52.51519],[9.60018,52.51755],[9.60044,52.52779],[9.58969,52.55063],[9.58408,52.57529],[9.59343,52.57341],[9.60805,52.58515],[9.63005,52.59067],[9.65076,52.60207],[9.65928,52.6018],[9.64607,52.6083],[9.63486,52.62549],[9.64216,52.63388],[9.61377,52.64716],[9.59916,52.64674],[9.60283,52.65455],[9.58954,52.65819],[9.58525,52.66454],[9.59147,52.67549],[9.57035,52.67647],[9.54839,52.67071],[9.53961,52.67141],[9.53415,52.65993]]]},"properties":{"plz":"31535","name":"31535 Neustadt am Rübenberge"}},{"type":"Feature","geometry":{"type":"Polygon","coordinates":[[[9.43844,52.36377],[9.4224,52.36261],[9.41971,52.35379],[9.3943,52.34801],[9.37782,52.35715],[9.36571,52.35046],[9.34346,52.34793],[9.33387,52.3615],[9.33554,52.37151],[9.32421,52.38334],[9.32141,52.38821],[9.31565,52.38393],[9.32145,52.37463],[9.32174,52.36908],[9.32564,52.34351],[9.3318,52.33848],[9.32786,52.32935],[9.34472,52.33358],[9.36358,52.32256],[9.38967,52.32193],[9.40592,52.31185],[9.40473,52.30407],[9.39632,52.30632],[9.39622,52.29904],[9.40833,52.29433],[9.41155,52.29465],[9.41071,52.3131],[9.39903,52.33234],[9.41641,52.33926],[9.43844,52.36377]]]},"properties":{"plz":"31542","name":"31542 Bad Nenndorf"}},{"type":"Feature","geometry":{"type":"Polygon","coordinates":[[[9.27785,52.4619],[9.25953,52.46559],[9.24963,52.46432],[9.23903,52.46983],[9.24257,52.47601],[9.25741,52.47284],[9.26728,52.47611],[9.26039,52.48913],[9.26635,52.49083],[9.2556,52.51752],[9.24866,52.51764],[9.23833,52.52892],[9.21177,52.52717],[9.20757,52.53087],[9.17238,52.54199],[9.17404,52.52366],[9.17627,52.47604],[9.15906,52.47439],[9.15559,52.47788],[9.13771,52.47726],[9.12333,52.47455],[9.12552,52.46806],[9.10316,52.45689],[9.09473,52.44312],[9.11052,52.43528],[9.11007,52.42185],[9.1235,52.42275],[9.12533,52.41194],[9.15835,52.40801],[9.15843,52.40831],[9.16811,52.41251],[9.19898,52.41452],[9.21317,52.42159],[9.22535,52.43429],[9.2558,52.4347],[9.26088,52.44034],[9.27977,52.44035],[9.26759,52.45126],[9.27279,52.45461],[9.27785,52.4619]]]},"properties":{"plz":"31547","name":"31547 Rehburg-Loccum"}},{"type":"Feature","geometry":{"type":"Polygon","coordinates":[[[9.32786,52.32935],[9.30531,52.32708],[9.28579,52.31767],[9.28572,52.30314],[9.27526,52.2906],[9.25401,52.28959],[9.26376,52.28225],[9.26249,52.27262],[9.2426,52.26611],[9.26557,52.27117],[9.26532,52.27658],[9.2815,52.27463],[9.28716,52.27779],[9.31291,52.27651],[9.35102,52.27573],[9.34861,52.2822],[9.35743,52.28785],[9.35205,52.29526],[9.37177,52.29134],[9.39077,52.29122],[9.40833,52.29433],[9.39622,52.29904],[9.39632,52.30632],[9.40473,52.30407],[9.40592,52.31185],[9.38967,52.32193],[9.36358,52.32256],[9.34472,52.33358],[9.32786,52.32935]]]},"properties":{"plz":"31552","name":"31552 Apelern, Rodenberg"}},{"type":"Feature","geometry":{"type":"Polygon","coordinates":[[[9.32408,52.40684],[9.31527,52.41708],[9.29199,52.41668],[9.27322,52.4171],[9.26653,52.40828],[9.24583,52.41048],[9.21819,52.40896],[9.21095,52.40441],[9.21767,52.39523],[9.22349,52.38788],[9.20575,52.38798],[9.22729,52.37953],[9.23616,52.38354],[9.27162,52.37666],[9.27421,52.36903],[9.28215,52.37477],[9.30346,52.37523],[9.30888,52.37139],[9.32145,52.37463],[9.31565,52.38393],[9.32141,52.38821],[9.31723,52.3972],[9.32408,52.40684]]]},"properties":{"plz":"31553","name":"31553 Auhagen, Sachsenhagen"}},{"type":"Feature","geometry":{"type":"Polygon","coordinates":[[[9.4224,52.36261],[9.4087,52.36568],[9.40336,52.37828],[9.3866,52.37175],[9.38432,52.36046],[9.37782,52.35715],[9.3943,52.34801],[9.41971,52.35379],[9.4224,52.36261]]]},"properties":{"plz":"31555","name":"31555 Suthfeld"}},{"type":"Feature","geometry":{"type":"Polygon","coordinates":[[[9.15843,52.40831],[9.1743,52.39917],[9.1981,52.40453],[9.21153,52.39414],[9.21767,52.39523],[9.21095,52.40441],[9.21819,52.40896],[9.24583,52.41048],[9.26653,52.40828],[9.27322,52.4171],[9.29199,52.41668],[9.28164,52.42191],[9.29028,52.42411],[9.27958,52.43013],[9.27977,52.44035],[9.26088,52.44034],[9.2558,52.4347],[9.22535,52.43429],[9.21317,52.42159],[9.19898,52.41452],[9.16811,52.41251],[9.15843,52.40831]]]},"properties":{"plz":"31556","name":"31556 Wölpinghausen"}},{"type":"Feature","geometry":{"type":"Polygon","coordinates":[[[9.27279,52.45461],[9.26759,52.45126],[9.27977,52.44035],[9.27958,52.43013],[9.29028,52.42411],[9.28164,52.42191],[9.29199,52.41668],[9.31527,52.41708],[9.32408,52.40684],[9.34415,52.42062],[9.36664,52.42423],[9.37412,52.44002],[9.35461,52.43769],[9.34809,52.44607],[9.33933,52.44213],[9.31014,52.44093],[9.30083,52.43718],[9.28443,52.4384],[9.27279,52.45461]]]},"properties":{"plz":"31558","name":"31558 Hagenburg"}},{"type":"Feature","geometry":{"type":"Polygon","coordinates":[[[9.32421,52.38334],[9.33554,52.37151],[9.33387,52.3615],[9.34346,52.34793],[9.36571,52.35046],[9.37782,52.35715],[9.38432,52.36046],[9.3866,52.37175],[9.40336,52.37828],[9.4087,52.36568],[9.4224,52.36261],[9.42667,52.36748],[9.41546,52.39187],[9.42162,52.39237],[9.41054,52.40475],[9.39941,52.40625],[9.37485,52.3958],[9.37902,52.3915],[9.35238,52.38841],[9.35418,52.38335],[9.33346,52.38563],[9.32421,52.38334]]]},"properties":{"plz":"31559","name":"31559 Haste, Hohnhorst"}},{"type":"Feature","geometry":{"type":"Polygon","coordinates":[[[9.24962,52.53561],[9.24464,52.54519],[9.21312,52.55819],[9.21449,52.56407],[9.20332,52.57058],[9.18576,52.56289],[9.19126,52.57378],[9.18448,52.57545],[9.13898,52.57398],[9.12126,52.58008],[9.11701,52.57495],[9.10439,52.57643],[9.10331,52.57089],[9.1054,52.56334],[9.09601,52.56387],[9.08927,52.55672],[9.09371,52.54111],[9.11006,52.52962],[9.12424,52.52597],[9.12584,52.53242],[9.15971,52.53083],[9.17404,52.52366],[9.17238,52.54199],[9.20757,52.53087],[9.21177,52.52717],[9.23833,52.52892],[9.24962,52.53561]]]},"properties":{"plz":"31628","name":"31628 Landesbergen"}},{"type":"Feature","geometry":{"type":"Polygon","coordinates":[[[9.33866,52.55607],[9.32652,52.55867],[9.3117,52.56744],[9.30281,52.58084],[9.28834,52.57943],[9.28596,52.59028],[9.27241,52.60109],[9.25576,52.60875],[9.23971,52.60229],[9.22407,52.60209],[9.21611,52.59077],[9.20662,52.58964],[9.20752,52.58492],[9.19126,52.57378],[9.18576,52.56289],[9.20332,52.57058],[9.21449,52.56407],[9.21312,52.55819],[9.24464,52.54519],[9.24962,52.53561],[9.27613,52.54723],[9.30498,52.55085],[9.31808,52.55524],[9.33866,52.55607]]]},"properties":{"plz":"31632","name":"31632 Husum"}},{"type":"Feature","geometry":{"type":"Polygon","coordinates":[[[9.17404,52.52366],[9.15971,52.53083],[9.12584,52.53242],[9.12424,52.52597],[9.11006,52.52962],[9.1033,52.52218],[9.08259,52.52252],[9.08222,52.50994],[9.0958,52.49789],[9.11293,52.48554],[9.134,52.48397],[9.13771,52.47726],[9.15559,52.47788],[9.15906,52.47439],[9.17627,52.47604],[9.17404,52.52366]]]},"properties":{"plz":"31633","name":"31633 Leese"}},{"type":"Feature","geometry":{"type":"Polygon","coordinates":[[[9.34833,52.71474],[9.38502,52.69301],[9.36897,52.68307],[9.34806,52.69399],[9.33956,52.68879],[9.29312,52.6919],[9.28287,52.68038],[9.28217,52.67457],[9.29444,52.66857],[9.2988,52.66129],[9.31131,52.65717],[9.32254,52.65925],[9.35372,52.65809],[9.37337,52.64028],[9.39799,52.64039],[9.42222,52.6243],[9.42544,52.617],[9.43894,52.62355],[9.44211,52.63271],[9.46729,52.64116],[9.44517,52.6515],[9.44063,52.65747],[9.44536,52.66472],[9.42809,52.66349],[9.43661,52.6706],[9.41319,52.67607],[9.40365,52.68196],[9.4218,52.71708],[9.40796,52.72789],[9.40103,52.7333],[9.37003,52.73599],[9.36833,52.73023],[9.34833,52.71474]]]},"properties":{"plz":"31634","name":"31634 Steimbke"}},{"type":"Feature","geometry":{"type":"Polygon","coordinates":[[[9.34271,52.60238],[9.32933,52.60258],[9.31925,52.61281],[9.30835,52.61419],[9.28625,52.60712],[9.27606,52.60847],[9.27241,52.60109],[9.28596,52.59028],[9.28834,52.57943],[9.30281,52.58084],[9.3117,52.56744],[9.32652,52.55867],[9.33866,52.55607],[9.35143,52.55519],[9.36993,52.56171],[9.37365,52.56818],[9.34336,52.58131],[9.34271,52.60238]]]},"properties":{"plz":"31636","name":"31636 Linsburg"}},{"type":"Feature","geometry":{"type":"Polygon","coordinates":[[[9.40796,52.72789],[9.4218,52.71708],[9.40365,52.68196],[9.41319,52.67607],[9.43661,52.6706],[9.42809,52.66349],[9.44536,52.66472],[9.44063,52.65747],[9.44517,52.6515],[9.46729,52.64116],[9.47025,52.63726],[9.50476,52.62624],[9.52255,52.62326],[9.53141,52.62958],[9.53783,52.6451],[9.53415,52.65993],[9.52521,52.66032],[9.51107,52.67898],[9.5041,52.67902],[9.51181,52.70171],[9.48117,52.70498],[9.48066,52.72707],[9.46163,52.72789],[9.42264,52.72436],[9.40796,52.72789]]]},"properties":{"plz":"31637","name":"31637 Rodewald"}},{"type":"Feature","geometry":{"type":"Polygon","coordinates":[[[9.42544,52.617],[9.42222,52.6243],[9.39799,52.64039],[9.37337,52.64028],[9.35372,52.65809],[9.32254,52.65925],[9.31131,52.65717],[9.2988,52.66129],[9.27635,52.64353],[9.25894,52.64256],[9.27121,52.63405],[9.28997,52.63049],[9.30941,52.61812],[9.30835,52.61419],[9.31925,52.61281],[9.32933,52.60258],[9.34271,52.60238],[9.35012,52.60195],[9.36787,52.61068],[9.39102,52.61137],[9.39064,52.61811],[9.42544,52.617]]]},"properties":{"plz":"31638","name":"31638 Stöckse"}},{"type":"Feature","geometry":{"type":"Polygon","coordinates":[[[9.28579,52.31767],[9.28402,52.324],[9.26328,52.33391],[9.25548,52.33258],[9.26251,52.33062],[9.25801,52.32241],[9.24013,52.32565],[9.23735,52.33094],[9.24489,52.34431],[9.22821,52.35074],[9.22539,52.34861],[9.19196,52.34794],[9.19006,52.33925],[9.17096,52.3411],[9.16617,52.33473],[9.15579,52.33533],[9.15571,52.32877],[9.1307,52.33071],[9.12923,52.32551],[9.12815,52.32144],[9.15085,52.3209],[9.14616,52.31507],[9.1553,52.31264],[9.16768,52.31361],[9.17073,52.30218],[9.1798,52.29943],[9.19279,52.28561],[9.18526,52.26893],[9.19378,52.25997],[9.23812,52.26542],[9.2426,52.26611],[9.26249,52.27262],[9.26376,52.28225],[9.25401,52.28959],[9.27526,52.2906],[9.28572,52.30314],[9.28579,52.31767]]]},"properties":{"plz":"31655","name":"31655 Stadthagen"}},{"type":"Feature","geometry":{"type":"Polygon","coordinates":[[[9.19279,52.28561],[9.15062,52.27838],[9.14913,52.28406],[9.13491,52.28935],[9.13042,52.28667],[9.10884,52.29612],[9.1082,52.28981],[9.09381,52.28491],[9.08688,52.2661],[9.09958,52.26571],[9.1042,52.26069],[9.12053,52.26224],[9.10774,52.25503],[9.10486,52.24693],[9.11631,52.24175],[9.11202,52.23629],[9.12177,52.23195],[9.13031,52.23144],[9.13455,52.24236],[9.14667,52.24464],[9.15365,52.24014],[9.16053,52.24525],[9.17647,52.24259],[9.22231,52.25623],[9.22646,52.26282],[9.23812,52.26542],[9.19378,52.25997],[9.18526,52.26893],[9.19279,52.28561]]]},"properties":{"plz":"31683","name":"31683 Obernkirchen"}},{"type":"Feature","geometry":{"type":"Polygon","coordinates":[[[9.1553,52.31264],[9.15369,52.30082],[9.13734,52.29753],[9.13491,52.28935],[9.14913,52.28406],[9.15062,52.27838],[9.19279,52.28561],[9.1798,52.29943],[9.17073,52.30218],[9.16768,52.31361],[9.1553,52.31264]]]},"properties":{"plz":"31688","name":"31688 Nienstädt"}},{"type":"Feature","geometry":{"type":"Polygon","coordinates":[[[9.12815,52.32144],[9.12125,52.31349],[9.10546,52.31452],[9.10469,52.31871],[9.08927,52.32182],[9.08381,52.32822],[9.07135,52.31789],[9.08422,52.30802],[9.0748,52.29336],[9.09381,52.28491],[9.1082,52.28981],[9.10884,52.29612],[9.13042,52.28667],[9.13491,52.28935],[9.13734,52.29753],[9.15369,52.30082],[9.1553,52.31264],[9.14616,52.31507],[9.15085,52.3209],[9.12815,52.32144]]]},"properties":{"plz":"31691","name":"31691 Helpsen, Seggebruch"}},{"type":"Feature","geometry":{"type":"Polygon","coordinates":[[[9.12923,52.32551],[9.11378,52.33022],[9.1117,52.34073],[9.09451,52.34251],[9.08058,52.33335],[9.08381,52.32822],[9.08927,52.32182],[9.10469,52.31871],[9.10546,52.31452],[9.12125,52.31349],[9.12815,52.32144],[9.12923,52.32551]]]},"properties":{"plz":"31693","name":"31693 Hespe"}},{"type":"Feature","geometry":{"type":"Polygon","coordinates":[[[9.32145,52.37463],[9.30888,52.37139],[9.30346,52.37523],[9.28215,52.37477],[9.27421,52.36903],[9.26354,52.36088],[9.27424,52.35233],[9.26639,52.34534],[9.28278,52.33915],[9.28474,52.34788],[9.2959,52.34839],[9.29663,52.35915],[9.30775,52.36636],[9.32174,52.36908],[9.32145,52.37463]]]},"properties":{"plz":"31698","name":"31698 Lindhorst"}},{"type":"Feature","geometry":{"type":"Polygon","coordinates":[[[9.32174,52.36908],[9.30775,52.36636],[9.29663,52.35915],[9.2959,52.34839],[9.30031,52.33945],[9.28511,52.33085],[9.28402,52.324],[9.28579,52.31767],[9.30531,52.32708],[9.32786,52.32935],[9.3318,52.33848],[9.32564,52.34351],[9.32174,52.36908]]]},"properties":{"plz":"31699","name":"31699 Beckedorf"}},{"type":"Feature","geometry":{"type":"Polygon","coordinates":[[[9.28402,52.324],[9.28511,52.33085],[9.30031,52.33945],[9.2959,52.34839],[9.28474,52.34788],[9.28278,52.33915],[9.26639,52.34534],[9.25548,52.33258],[9.26328,52.33391],[9.28402,52.324]]]},"properties":{"plz":"31700","name":"31700 Heuerßen"}},{"type":"Feature","geometry":{"type":"Polygon","coordinates":[[[9.23616,52.38354],[9.24053,52.37161],[9.22832,52.35923],[9.22821,52.35074],[9.24489,52.34431],[9.23735,52.33094],[9.24013,52.32565],[9.25801,52.32241],[9.26251,52.33062],[9.25548,52.33258],[9.26639,52.34534],[9.27424,52.35233],[9.26354,52.36088],[9.27421,52.36903],[9.27162,52.37666],[9.23616,52.38354]]]},"properties":{"plz":"31702","name":"31702 Lüdersfeld"}},{"type":"Feature","geometry":{"type":"Polygon","coordinates":[[[9.11951,52.37026],[9.11072,52.36785],[9.113,52.3561],[9.12674,52.35827],[9.13543,52.34634],[9.14732,52.34692],[9.17096,52.3411],[9.17622,52.35121],[9.16632,52.36363],[9.15531,52.36601],[9.16024,52.37668],[9.15981,52.37983],[9.13974,52.38312],[9.13798,52.37724],[9.11951,52.37026]]]},"properties":{"plz":"31712","name":"31712 Niederwöhren"}},{"type":"Feature","geometry":{"type":"Polygon","coordinates":[[[9.20575,52.38798],[9.20242,52.37547],[9.19591,52.37037],[9.19066,52.36013],[9.19196,52.34794],[9.22539,52.34861],[9.22821,52.35074],[9.22832,52.35923],[9.24053,52.37161],[9.23616,52.38354],[9.22729,52.37953],[9.20575,52.38798]]]},"properties":{"plz":"31714","name":"31714 Lauenhagen"}},{"type":"Feature","geometry":{"type":"Polygon","coordinates":[[[9.17096,52.3411],[9.14732,52.34692],[9.13543,52.34634],[9.12674,52.35827],[9.113,52.3561],[9.11072,52.36785],[9.11951,52.37026],[9.09869,52.37298],[9.08907,52.36636],[9.08556,52.35619],[9.07495,52.35016],[9.10163,52.3489],[9.09451,52.34251],[9.1117,52.34073],[9.11378,52.33022],[9.12923,52.32551],[9.1307,52.33071],[9.15571,52.32877],[9.15579,52.33533],[9.16617,52.33473],[9.17096,52.3411]]]},"properties":{"plz":"31715","name":"31715 Meerbeck"}},{"type":"Feature","geometry":{"type":"Polygon","coordinates":[[[9.19196,52.34794],[9.19066,52.36013],[9.19591,52.37037],[9.18874,52.36834],[9.16024,52.37668],[9.15531,52.36601],[9.16632,52.36363],[9.17622,52.35121],[9.17096,52.3411],[9.19006,52.33925],[9.19196,52.34794]]]},"properties":{"plz":"31717","name":"31717 Nordsehl"}},{"type":"Feature","geometry":{"type":"Polygon","coordinates":[[[9.15835,52.40801],[9.15863,52.39638],[9.13974,52.38312],[9.15981,52.37983],[9.16024,52.37668],[9.18874,52.36834],[9.19591,52.37037],[9.20242,52.37547],[9.20575,52.38798],[9.22349,52.38788],[9.21767,52.39523],[9.21153,52.39414],[9.1981,52.40453],[9.1743,52.39917],[9.15843,52.40831],[9.15835,52.40801]]]},"properties":{"plz":"31718","name":"31718 Pollhagen"}},{"type":"Feature","geometry":{"type":"Polygon","coordinates":[[[9.12533,52.41194],[9.11788,52.39747],[9.11252,52.39763],[9.09532,52.38643],[9.09869,52.37298],[9.11951,52.37026],[9.13798,52.37724],[9.13974,52.38312],[9.15863,52.39638],[9.15835,52.40801],[9.12533,52.41194]]]},"properties":{"plz":"31719","name":"31719 Wiedensahl"}},{"type":"Feature","geometry":{"type":"Polygon","coordinates":[[[9.2426,52.26611],[9.23812,52.26542],[9.22646,52.26282],[9.22231,52.25623],[9.17647,52.24259],[9.16053,52.24525],[9.15365,52.24014],[9.14667,52.24464],[9.13455,52.24236],[9.13031,52.23144],[9.14342,52.22393],[9.17461,52.21401],[9.18492,52.2184],[9.23829,52.20737],[9.24694,52.20689],[9.26414,52.216],[9.28093,52.21461],[9.2814,52.21953],[9.2974,52.22085],[9.31742,52.21675],[9.31172,52.2225],[9.33058,52.24331],[9.30891,52.25748],[9.31672,52.26534],[9.31291,52.27651],[9.28716,52.27779],[9.2815,52.27463],[9.26532,52.27658],[9.26557,52.27117],[9.2426,52.26611]]]},"properties":{"plz":"31749","name":"31749 Auetal"}},{"type":"Feature","geometry":{"type":"Polygon","coordinates":[[[9.37784,52.10487],[9.36819,52.1157],[9.35011,52.12096],[9.34388,52.11439],[9.35032,52.10066],[9.35409,52.09101],[9.37209,52.09278],[9.39359,52.10274],[9.37784,52.10487]]]},"properties":{"plz":"31785","name":"31785 Hameln"}},{"type":"Feature","geometry":{"type":"Polygon","coordinates":[[[9.37784,52.10487],[9.40002,52.11138],[9.39566,52.11869],[9.41196,52.12379],[9.42019,52.13081],[9.43319,52.12695],[9.44526,52.13812],[9.43881,52.14438],[9.42072,52.14296],[9.42135,52.15656],[9.40789,52.16308],[9.38741,52.16757],[9.37728,52.15749],[9.36481,52.15497],[9.36333,52.14377],[9.35133,52.13748],[9.32817,52.14307],[9.31497,52.12955],[9.27576,52.13622],[9.2592,52.11966],[9.27355,52.11492],[9.26713,52.10459],[9.27628,52.09795],[9.27583,52.09151],[9.2875,52.08478],[9.29754,52.08605],[9.30855,52.07574],[9.31971,52.07746],[9.32659,52.08883],[9.35186,52.09291],[9.35032,52.10066],[9.34388,52.11439],[9.35011,52.12096],[9.36819,52.1157],[9.37784,52.10487]]]},"properties":{"plz":"31787","name":"31787 Hameln"}},{"type":"Feature","geometry":{"type":"MultiPolygon","coordinates":[[[[9.35032,52.10066],[9.35186,52.09291],[9.32659,52.08883],[9.31971,52.07746],[9.3298,52.06949],[9.32873,52.05305],[9.33523,52.05209],[9.33382,52.06351],[9.34881,52.06838],[9.35347,52.07546],[9.36531,52.08042],[9.35355,52.06788],[9.37344,52.05918],[9.39272,52.05723],[9.39446,52.06506],[9.43398,52.06712],[9.43011,52.07347],[9.44335,52.08097],[9.43574,52.09261],[9.44276,52.10035],[9.43806,52.10407],[9.45766,52.11066],[9.4527,52.11233],[9.4617,52.12537],[9.4581,52.13137],[9.44526,52.13812],[9.43319,52.12695],[9.42019,52.13081],[9.41196,52.12379],[9.39566,52.11869],[9.40002,52.11138],[9.37784,52.10487],[9.39359,52.10274],[9.37209,52.09278],[9.35409,52.09101],[9.35032,52.10066]]],[[[9.41263,52.04688],[9.43156,52.04293],[9.44763,52.04717],[9.45253,52.05559],[9.44393,52.06326],[9.43073,52.05789],[9.43007,52.04981],[9.41366,52.05332],[9.41263,52.04688]]]]},"properties":{"plz":"31789","name":"31789 Hameln"}},{"type":"Feature","geometry":{"type":"Polygon","coordinates":[[[9.47212,52.26412],[9.46407,52.25548],[9.47508,52.24726],[9.48733,52.24564],[9.49714,52.23877],[9.50737,52.22179],[9.50683,52.21365],[9.51628,52.21219],[9.49917,52.20032],[9.50673,52.19717],[9.50437,52.18735],[9.49427,52.17841],[9.49541,52.16807],[9.50427,52.16112],[9.52068,52.1603],[9.55685,52.16726],[9.59271,52.14592],[9.61351,52.13451],[9.62812,52.13069],[9.67279,52.13249],[9.69364,52.13586],[9.69299,52.14492],[9.72012,52.15819],[9.72802,52.1692],[9.70815,52.17637],[9.69944,52.18419],[9.68587,52.1896],[9.69578,52.1979],[9.72762,52.20009],[9.74352,52.20494],[9.75031,52.20105],[9.75017,52.21266],[9.73202,52.22116],[9.72113,52.22225],[9.71343,52.22897],[9.69447,52.23424],[9.6886,52.24529],[9.70192,52.24637],[9.71112,52.25375],[9.69348,52.26208],[9.67464,52.26358],[9.66533,52.26092],[9.65499,52.25656],[9.65335,52.249],[9.64425,52.2476],[9.63373,52.2295],[9.61155,52.22818],[9.57765,52.2398],[9.55886,52.23687],[9.55416,52.24024],[9.52033,52.24341],[9.47885,52.25671],[9.47237,52.26208],[9.47212,52.26412]]]},"properties":{"plz":"31832","name":"31832 Springe"}},{"type":"Feature","geometry":{"type":"Polygon","coordinates":[[[9.16893,52.11455],[9.19718,52.10557],[9.21746,52.10378],[9.22302,52.09409],[9.2224,52.10975],[9.24702,52.11361],[9.25548,52.12292],[9.2592,52.11966],[9.27576,52.13622],[9.31497,52.12955],[9.32817,52.14307],[9.35133,52.13748],[9.36333,52.14377],[9.36481,52.15497],[9.37728,52.15749],[9.38741,52.16757],[9.38016,52.18265],[9.35455,52.19134],[9.35511,52.19595],[9.33169,52.20093],[9.33443,52.20573],[9.32455,52.21243],[9.31742,52.21675],[9.2974,52.22085],[9.2814,52.21953],[9.28093,52.21461],[9.26414,52.216],[9.24694,52.20689],[9.23829,52.20737],[9.24732,52.20234],[9.2234,52.20281],[9.19871,52.18957],[9.18279,52.18449],[9.1636,52.18959],[9.15728,52.18465],[9.1618,52.17236],[9.17342,52.16915],[9.17434,52.15651],[9.19404,52.14318],[9.18324,52.13777],[9.16171,52.14574],[9.15952,52.14012],[9.17418,52.13824],[9.17082,52.13385],[9.18608,52.13267],[9.18478,52.1193],[9.16893,52.11455]]]},"properties":{"plz":"31840","name":"31840 Hessisch Oldendorf"}},{"type":"Feature","geometry":{"type":"Polygon","coordinates":[[[9.44904,52.27417],[9.44051,52.26],[9.42216,52.25502],[9.41509,52.24987],[9.39232,52.2489],[9.39383,52.24144],[9.38354,52.24194],[9.37934,52.23204],[9.36252,52.21902],[9.35253,52.22937],[9.34002,52.22529],[9.33539,52.21654],[9.32455,52.21243],[9.33443,52.20573],[9.33169,52.20093],[9.35511,52.19595],[9.35455,52.19134],[9.38016,52.18265],[9.38741,52.16757],[9.40789,52.16308],[9.42135,52.15656],[9.42072,52.14296],[9.43881,52.14438],[9.44526,52.13812],[9.4581,52.13137],[9.45975,52.14566],[9.47627,52.15625],[9.48787,52.14771],[9.50277,52.14195],[9.51559,52.14241],[9.52068,52.1603],[9.50427,52.16112],[9.49541,52.16807],[9.49427,52.17841],[9.50437,52.18735],[9.50673,52.19717],[9.49917,52.20032],[9.51628,52.21219],[9.50683,52.21365],[9.50737,52.22179],[9.49714,52.23877],[9.48733,52.24564],[9.47508,52.24726],[9.46407,52.25548],[9.47212,52.26412],[9.44904,52.27417]]]},"properties":{"plz":"31848","name":"31848 Bad Münder am Deister"}},{"type":"Feature","geometry":{"type":"Polygon","coordinates":[[[9.32873,52.05305],[9.31383,52.04583],[9.32255,52.03745],[9.3371,52.03508],[9.32011,52.02502],[9.31211,52.00838],[9.29026,52.00648],[9.29563,51.99583],[9.31498,51.99764],[9.33205,51.98621],[9.34343,51.9674],[9.34839,51.97494],[9.36025,51.97692],[9.36425,51.97244],[9.38463,51.97817],[9.3965,51.97635],[9.41322,51.98023],[9.44138,51.98234],[9.448,51.98948],[9.46752,52.0013],[9.478,52.00069],[9.48893,52.00673],[9.48561,52.01139],[9.49341,52.01852],[9.51504,52.01784],[9.52695,52.02023],[9.53912,52.02264],[9.53155,52.03708],[9.49246,52.05438],[9.47238,52.05481],[9.46951,52.07124],[9.44335,52.08097],[9.43011,52.07347],[9.43398,52.06712],[9.39446,52.06506],[9.39272,52.05723],[9.37344,52.05918],[9.35355,52.06788],[9.36531,52.08042],[9.35347,52.07546],[9.34881,52.06838],[9.33382,52.06351],[9.33523,52.05209],[9.32873,52.05305]],[[9.41263,52.04688],[9.41366,52.05332],[9.43007,52.04981],[9.43073,52.05789],[9.44393,52.06326],[9.45253,52.05559],[9.44763,52.04717],[9.43156,52.04293],[9.41263,52.04688]]]},"properties":{"plz":"31860","name":"31860 Emmerthal"}},{"type":"Feature","geometry":{"type":"Polygon","coordinates":[[[9.59271,52.14592],[9.55685,52.16726],[9.52068,52.1603],[9.51559,52.14241],[9.50277,52.14195],[9.48787,52.14771],[9.47627,52.15625],[9.45975,52.14566],[9.4581,52.13137],[9.4617,52.12537],[9.4527,52.11233],[9.45766,52.11066],[9.43806,52.10407],[9.44276,52.10035],[9.43574,52.09261],[9.44335,52.08097],[9.46951,52.07124],[9.47238,52.05481],[9.49246,52.05438],[9.53155,52.03708],[9.55134,52.03864],[9.56193,52.04383],[9.56211,52.04713],[9.52165,52.08954],[9.5292,52.1031],[9.54348,52.10494],[9.5565,52.09887],[9.57534,52.1007],[9.58472,52.09731],[9.60118,52.10083],[9.60313,52.10717],[9.58456,52.11994],[9.59164,52.12994],[9.57684,52.14173],[9.59271,52.14592]]]},"properties":{"plz":"31863","name":"31863 Coppenbrügge"}},{"type":"Feature","geometry":{"type":"Polygon","coordinates":[[[9.41155,52.29465],[9.40833,52.29433],[9.39077,52.29122],[9.37177,52.29134],[9.35205,52.29526],[9.35743,52.28785],[9.34861,52.2822],[9.35102,52.27573],[9.31291,52.27651],[9.31672,52.26534],[9.30891,52.25748],[9.33058,52.24331],[9.31172,52.2225],[9.31742,52.21675],[9.32455,52.21243],[9.33539,52.21654],[9.34002,52.22529],[9.35253,52.22937],[9.36252,52.21902],[9.37934,52.23204],[9.38354,52.24194],[9.39383,52.24144],[9.39232,52.2489],[9.41509,52.24987],[9.42216,52.25502],[9.44051,52.26],[9.44904,52.27417],[9.43957,52.27418],[9.4242,52.28099],[9.41155,52.29465]]]},"properties":{"plz":"31867","name":"31867 Pohle, Lauenau, Messenkamp, Hülsede etc"}},{"type":"Feature","geometry":{"type":"Polygon","coordinates":[[[9.56193,52.04383],[9.55134,52.03864],[9.53155,52.03708],[9.53912,52.02264],[9.52695,52.02023],[9.54136,52.01096],[9.53359,52.00844],[9.52017,51.9948],[9.55382,51.98758],[9.55259,51.98088],[9.57212,51.97219],[9.58191,51.97169],[9.6181,51.98536],[9.61986,51.98759],[9.60122,52.00157],[9.5743,52.03984],[9.56193,52.04383]]]},"properties":{"plz":"37620","name":"37620 Halle"}},{"type":"Feature","geometry":{"type":"Polygon","coordinates":[[[10.31362,52.28771],[10.30873,52.2806],[10.30871,52.26531],[10.30098,52.25813],[10.29289,52.24374],[10.29232,52.24143],[10.31631,52.23506],[10.31255,52.22429],[10.31793,52.2134],[10.33573,52.21759],[10.3367,52.21194],[10.3524,52.21467],[10.35391,52.19826],[10.36922,52.19278],[10.37425,52.20302],[10.39145,52.20371],[10.40697,52.22279],[10.4114,52.21952],[10.42974,52.2218],[10.43495,52.22975],[10.43482,52.24877],[10.44536,52.24913],[10.45303,52.2585],[10.43523,52.25826],[10.42729,52.26897],[10.42784,52.27597],[10.40198,52.2796],[10.39907,52.28603],[10.37716,52.28095],[10.37072,52.28726],[10.3655,52.30496],[10.34599,52.30566],[10.32935,52.30486],[10.3289,52.2991],[10.31362,52.28771]]]},"properties":{"plz":"38159","name":"38159 Vechelde"}},{"type":"Feature","geometry":{"type":"Polygon","coordinates":[[[10.34599,52.30566],[10.3655,52.30496],[10.37072,52.28726],[10.37716,52.28095],[10.39907,52.28603],[10.40198,52.2796],[10.42784,52.27597],[10.43825,52.27654],[10.44061,52.28586],[10.42677,52.28763],[10.42655,52.30279],[10.42393,52.31218],[10.41245,52.3182],[10.42406,52.33022],[10.40878,52.33937],[10.41169,52.3447],[10.40351,52.35218],[10.42483,52.35528],[10.41413,52.36791],[10.42528,52.37018],[10.42518,52.37883],[10.38614,52.37103],[10.3797,52.36388],[10.35789,52.36794],[10.3456,52.35414],[10.33988,52.35634],[10.33924,52.36795],[10.32931,52.36548],[10.30749,52.36852],[10.29379,52.36688],[10.29257,52.35636],[10.3045,52.35099],[10.30509,52.33975],[10.29778,52.32425],[10.33384,52.33037],[10.33438,52.32272],[10.34599,52.30566]]]},"properties":{"plz":"38176","name":"38176 Wendeburg"}},{"type":"Feature","geometry":{"type":"Polygon","coordinates":[[[10.23402,52.16982],[10.23342,52.15922],[10.2394,52.14684],[10.24823,52.14042],[10.23296,52.12991],[10.24563,52.12157],[10.25126,52.11072],[10.26617,52.1104],[10.27084,52.10431],[10.28256,52.1074],[10.30068,52.11181],[10.29645,52.11793],[10.30418,52.12305],[10.32066,52.12345],[10.31022,52.13256],[10.32676,52.13332],[10.32233,52.14473],[10.31185,52.14963],[10.30703,52.16563],[10.31993,52.17664],[10.31666,52.1905],[10.3039,52.18869],[10.30644,52.18441],[10.28816,52.17537],[10.26574,52.17883],[10.25735,52.18309],[10.25712,52.17419],[10.24341,52.17604],[10.23402,52.16982]]]},"properties":{"plz":"38228","name":"38228 Salzgitter"}},{"type":"Feature","geometry":{"type":"Polygon","coordinates":[[[10.25735,52.18309],[10.26574,52.17883],[10.28816,52.17537],[10.30644,52.18441],[10.3039,52.18869],[10.31666,52.1905],[10.31993,52.17664],[10.34729,52.17607],[10.35316,52.18422],[10.36679,52.18737],[10.36922,52.19278],[10.35391,52.19826],[10.3524,52.21467],[10.3367,52.21194],[10.33573,52.21759],[10.31793,52.2134],[10.31255,52.22429],[10.31631,52.23506],[10.29232,52.24143],[10.29289,52.24374],[10.27368,52.23485],[10.27439,52.21645],[10.24886,52.21319],[10.24857,52.20515],[10.25906,52.19788],[10.26397,52.18847],[10.25735,52.18309]]]},"properties":{"plz":"38268","name":"38268 Lengede"}},{"type":"Feature","geometry":{"type":"Polygon","coordinates":[[[10.18897,52.13701],[10.19328,52.13782],[10.19868,52.11954],[10.21083,52.11879],[10.21848,52.10787],[10.25126,52.11072],[10.24563,52.12157],[10.23296,52.12991],[10.24823,52.14042],[10.2394,52.14684],[10.23342,52.15922],[10.23402,52.16982],[10.2333,52.17804],[10.22294,52.17645],[10.20459,52.17936],[10.18895,52.16488],[10.18148,52.14176],[10.18897,52.13701]]]},"properties":{"plz":"38272","name":"38272 Burgdorf"}},{"type":"Feature","geometry":{"type":"Polygon","coordinates":[[[10.38614,52.37103],[10.42518,52.37883],[10.43981,52.38231],[10.43722,52.39415],[10.41204,52.38997],[10.41156,52.39437],[10.37794,52.39066],[10.37586,52.38674],[10.38614,52.37103]]]},"properties":{"plz":"38530","name":"38530 Didderse"}},{"type":"Feature","geometry":{"type":"Polygon","coordinates":[[[10.25842,52.51589],[10.26865,52.51563],[10.27323,52.50966],[10.28887,52.50616],[10.27166,52.48603],[10.2815,52.47481],[10.28988,52.47328],[10.30324,52.45865],[10.29317,52.46229],[10.2826,52.45322],[10.29234,52.44786],[10.31424,52.44535],[10.33488,52.4301],[10.34792,52.43111],[10.34584,52.44735],[10.35554,52.45106],[10.36824,52.44529],[10.38884,52.45705],[10.40075,52.45976],[10.39335,52.47281],[10.39192,52.48418],[10.3749,52.4988],[10.36349,52.5048],[10.34518,52.50445],[10.32176,52.50951],[10.32412,52.51546],[10.30668,52.51355],[10.3062,52.52238],[10.28229,52.52798],[10.27629,52.52482],[10.28409,52.51681],[10.25902,52.51818],[10.25842,52.51589]]]},"properties":{"plz":"38536","name":"38536 Meinersen"}},{"type":"Feature","geometry":{"type":"Polygon","coordinates":[[[10.37794,52.39066],[10.41156,52.39437],[10.41006,52.39863],[10.42883,52.40059],[10.44475,52.41011],[10.44419,52.41915],[10.42583,52.42482],[10.42632,52.42927],[10.39408,52.43396],[10.40037,52.43915],[10.38325,52.43646],[10.36824,52.44529],[10.35554,52.45106],[10.34584,52.44735],[10.34792,52.43111],[10.35248,52.42293],[10.36427,52.41715],[10.37794,52.39066]]]},"properties":{"plz":"38543","name":"38543 Hillerse"}}]}